,accuracy,formatted_address,google_place_id,input_string,latitude,longitude,number_of_results,postcode,status,type
0,ROOFTOP,"526 E 5th St, New York, NY 10009, USA",ChIJTwc-n4JZwokRVDQmrfd1Kik,"526 EAST 5TH STREET, Alphabet City, Manhattan, NY, USA",40.7242057,-73.983263,1,10009,OK,premise
1,ROOFTOP,"263 E 7th St, New York, NY 10009, USA",ChIJ3QQl9HlZwokRvK8T2VsWAT0,"263 EAST 7TH STREET, Alphabet City, Manhattan, NY, USA",40.723652,-73.97735449999999,1,10009,OK,street_address
2,ROOFTOP,"332 E 4th St, New York, NY 10009, USA",ChIJneNrEXlZwokR_oKjvGzEe1o,"332 EAST 4TH STREET, Alphabet City, Manhattan, NY, USA",40.7215558,-73.97903649999999,1,10009,OK,premise
3,ROOFTOP,"253 E 7th St, New York, NY 10009, USA",ChIJIeYfwXFZwokRWT5opQGzLY8,"275 EAST 7TH STREET, GD, Alphabet City, Manhattan, NY, USA",40.7238278,-73.9777762,1,10009,OK,"establishment,point_of_interest"
4,GEOMETRIC_CENTER,"Tompkins Square Park, E 10th St, New York, NY 10009, USA",ChIJgTDll51ZwokRVjN7KXztwXY,"434 EAST 10TH STREET, 4, Alphabet City, Manhattan, NY, USA",40.72642949999999,-73.9817841,1,10009,OK,"establishment,park,point_of_interest"
5,ROOFTOP,"133 Avenue D, New York, NY 10009, USA",ChIJReouoHBZwokR-2pu7Xsl4AE,"133 AVENUE D, Alphabet City, Manhattan, NY, USA",40.7245009,-73.97559319999999,1,10009,OK,premise
6,ROOFTOP,"21 Avenue B #23, New York, NY 10009, USA",ChIJ_asVdoJZwokRSNd25zJpOME,"21-23 AVENUE B, Alphabet City, Manhattan, NY, USA",40.7221321,-73.983082,1,10009,OK,subpremise
7,ROOFTOP,"620 E 6th St, New York, NY 10009, USA",ChIJz70EOHhZwokRmDoLDlnyqbU,"620 EAST 6TH STREET, Alphabet City, Manhattan, NY, USA",40.7239629,-73.980822,1,10009,OK,premise
8,ROOFTOP,"200 E 7th St, New York, NY 10009, USA",ChIJW532LXhZwokRvb8JKu9QyHs,"200 EAST 7TH STREET, Alphabet City, Manhattan, NY, USA",40.7244699,-73.980363,1,10009,OK,street_address
9,ROOFTOP,"632 E 11th St, New York, NY 10009, USA",ChIJT5GXJHdZwokR2dJEgCagZmg,"632 EAST 11TH STREET, Alphabet City, Manhattan, NY, USA",40.7267594,-73.9781659,1,10009,OK,premise
10,ROOFTOP,"96 Avenue C, New York, NY 10009, USA",ChIJWaWbwHlZwokRj1wHkvB84zE,"169 AVENUE C, 3B, Alphabet City, Manhattan, NY, USA",40.7236662,-73.9789232,1,10009,OK,"bar,establishment,food,liquor_store,point_of_interest,restaurant,store"
11,ROOFTOP,"165 Loisaida Ave, New York, NY 10009, USA",ChIJqVniNndZwokRbPuiNfD-U8c,"165 AVENUE C, 5B, Alphabet City, Manhattan, NY, USA",40.7260984,-73.97757349999999,2,10009,OK,street_address
12,ROOFTOP,"217 E 4th St, New York, NY 10009, USA",ChIJIWSHnIJZwokRaNwurHEq_Cs,"217 EAST 4TH ST, Alphabet City, Manhattan, NY, USA",40.7237808,-73.98334729999999,1,10009,OK,premise
13,ROOFTOP,"510 E 6th St, New York, NY 10009, USA",ChIJHbfeqIJZwokRp1y89w9BGcE,"510 EAST 6TH STREET, Alphabet City, Manhattan, NY, USA",40.7250036,-73.9833271,1,10009,OK,premise
14,ROOFTOP,"94 Avenue A, New York, NY 10009, USA",ChIJjRS-soJZwokRMfwZSuhwbwY,"94 AVENUE A, Alphabet City, Manhattan, NY, USA",40.7254892,-73.9836739,1,10009,OK,street_address
15,ROOFTOP,"519 E 6th St, New York, NY 10009, USA",ChIJAarYAHhZwokRVJ6h_q7zEuk,"519 EAST 6TH STREET, Alphabet City, Manhattan, NY, USA",40.7251378,-73.9828422,1,10009,OK,premise
16,ROOFTOP,"544 E 13th St, New York, NY 10009, USA",ChIJo7_pk3ZZwokRWKDWLlDrS2k,"544 EAST 13TH STREET, GA, Alphabet City, Manhattan, NY, USA",40.7288518,-73.9790482,1,10009,OK,street_address
17,ROOFTOP,"544 E 13th St, New York, NY 10009, USA",ChIJo7_pk3ZZwokRWKDWLlDrS2k,"544 EAST 13 STREET, 2C, Alphabet City, Manhattan, NY, USA",40.7288518,-73.9790482,2,10009,OK,street_address
18,ROOFTOP,"544 E 13th St, New York, NY 10009, USA",ChIJo7_pk3ZZwokRWKDWLlDrS2k,"544 EAST 13TH STREET, 4AB, Alphabet City, Manhattan, NY, USA",40.7288518,-73.9790482,1,10009,OK,street_address
19,ROOFTOP,"62 Avenue B, New York, NY 10009, USA",ChIJsW9ZcHhZwokRa6UAZxNsP4U,"62-74 AVENUE B, Alphabet City, Manhattan, NY, USA",40.723847,-73.98251499999999,1,10009,OK,street_address
20,ROOFTOP,"531 E 12th St, New York, NY 10009, USA",ChIJv2iv9HZZwokRFrbiAJPZFms,"531 EAST 12TH STREET, Alphabet City, Manhattan, NY, USA",40.7286491,-73.9797526,1,10009,OK,street_address
21,ROOFTOP,"531 E 12th St, New York, NY 10009, USA",ChIJv2iv9HZZwokRFrbiAJPZFms,"531 EAST 12TH STREET, Alphabet City, Manhattan, NY, USA",40.7286491,-73.9797526,1,10009,OK,street_address
22,ROOFTOP,"538 E 11th St, New York, NY 10009, USA",ChIJ5-wqVXZZwokRdDSrfiBGc3E,"538 EAST 11TH STREET, Alphabet City, Manhattan, NY, USA",40.727536,-73.98024199999999,1,10009,OK,street_address
23,ROOFTOP,"462 W 25th St, New York, NY 10001, USA",ChIJVx57cLdZwokRchTCkX_MacE,"462 WEST 25TH STREET, Chelsea, Manhattan, NY, USA",40.7487046,-74.00303149999999,1,10001,OK,premise
24,ROOFTOP,"332 W 20th St, New York, NY 10011, USA",ChIJPRNTQ7lZwokRArn6cH0nYVY,"332 WEST 20TH STREET, Chelsea, Manhattan, NY, USA",40.743833,-74.001375,1,10011,OK,street_address
25,ROOFTOP,"218 W 15th St, New York, NY 10011, USA",ChIJF6cn2r1ZwokRiMD2Yzu3EZE,"218 WEST 15TH STREET, Chelsea, Manhattan, NY, USA",40.7395393,-74.00025819999999,1,10011,OK,premise
26,ROOFTOP,"253 W 18th St, New York, NY 10011, USA",ChIJV-g5BbxZwokRvWn5Z7_tKj4,"253 WEST 18TH STREET, Chelsea, Manhattan, NY, USA",40.7421402,-74.00001379999999,1,10011,OK,premise
27,ROOFTOP,"240 W 21st St, New York, NY 10011, USA",ChIJX4chmrtZwokRHLbQWGn3qYI,"240 WEST 21ST STREET, Chelsea, Manhattan, NY, USA",40.743362,-73.9983206,1,10011,OK,premise
28,ROOFTOP,"540 W 29th St, New York, NY 10001, USA",ChIJf_sTirZZwokRMdOuG63esqI,"540 WEST 29TH STREET, Chelsea, Manhattan, NY, USA",40.7520846,-74.0035086,1,10001,OK,premise
29,ROOFTOP,"353 W 22nd St, New York, NY 10011, USA",ChIJf2KhhrlZwokRJHWs8cn8nJ4,"353 WEST 22ND STREET, Chelsea, Manhattan, NY, USA",40.7456612,-74.0009915,1,10011,OK,premise
30,ROOFTOP,"505 W 22nd St, New York, NY 10011, USA",ChIJ05IXPrhZwokRaomQN7JbDiE,"505 WEST 22ND STREET, Chelsea, Manhattan, NY, USA",40.7473619,-74.0050138,1,10011,OK,premise
31,ROOFTOP,"203 10th Ave, New York, NY 10011, USA",ChIJU1L-PrhZwokRCHBHnrr2Za0,"203 10TH AVENUE, Chelsea, Manhattan, NY, USA",40.7472226,-74.004857,1,10011,OK,street_address
32,ROOFTOP,"418 W 20th St, New York, NY 10011, USA",ChIJueXA47hZwokR0zl1IQ7DMk0,"418 WEST 20TH STREET, Chelsea, Manhattan, NY, USA",40.744844,-74.00383099999999,1,10011,OK,street_address
33,ROOFTOP,"445 W 21st St, New York, NY 10011, USA",ChIJ3-XNU7hZwokREkjBm6tUFTU,"445 WEST 21ST STREET, Chelsea, Manhattan, NY, USA",40.746155,-74.003888,1,10011,OK,street_address
34,ROOFTOP,"102 8th Ave, New York, NY 10011, USA",ChIJ_8rtiL5ZwokRwCl7skv5N7A,"102-116 EIGHTH AVENUE, Chelsea, Manhattan, NY, USA",40.7404544,-74.001721,1,10011,OK,street_address
35,ROOFTOP,"244 W 22nd St, New York, NY 10011, USA",ChIJ81i1oLtZwokR2-6h56suos0,"244 WEST 22ND STREET, Chelsea, Manhattan, NY, USA",40.7439014,-73.9978094,1,10011,OK,premise
36,ROOFTOP,"110 W 15th St, New York, NY 10011, USA",ChIJAe6vcb1ZwokRZdZd2W2cW1s,"110 WEST 15TH STREET, Chelsea, Manhattan, NY, USA",40.738143,-73.997102,1,10011,OK,street_address
37,ROOFTOP,"208 W 20th St, New York, NY 10011, USA",ChIJH7vOibtZwokRRnFRmm4jHp4,"208 WEST 20TH STREET, Chelsea, Manhattan, NY, USA",40.7423498,-73.9977248,1,10011,OK,premise
38,ROOFTOP,"242 10th Ave, New York, NY 10001, USA",ChIJdfnCfrdZwokRN4HjNTShpGs,"242 10TH AVENUE, Chelsea, Manhattan, NY, USA",40.748382,-74.00343160000001,1,10001,OK,street_address
39,ROOFTOP,"795 6th Ave, New York, NY 10001, USA",ChIJM7eOmqVZwokRVNEsaniXJT8,"795 6TH AVENUE, Chelsea, Manhattan, NY, USA",40.7456113,-73.9911125,1,10001,OK,street_address
40,ROOFTOP,"538 W 29th St, New York, NY 10001, USA",ChIJTzRIirZZwokRyQL1NzY1NG8,"538 WEST 29TH STREET, Chelsea, Manhattan, NY, USA",40.7520716,-74.0034168,1,10001,OK,premise
41,ROOFTOP,"35 Madison St, New York, NY 10038, USA",ChIJf8t1PSRawokR3wu9Iy4t7gc,"35 MADISON STREET, Chinatown, Manhattan, NY, USA",40.7120085,-73.9989112,1,10038,OK,premise
42,ROOFTOP,"102 Bayard St, New York, NY 10013, USA",ChIJB5f0OidawokRmgjC3I_lb3Y,"102 BAYARD STREET, Chinatown, Manhattan, NY, USA",40.7162523,-73.99964969999999,1,10013,OK,premise
43,ROOFTOP,"111 Mott St, New York, NY 10013, USA",ChIJLx7SKohZwokRwdBnrgntke8,"111 MOTT STREET, Chinatown, Manhattan, NY, USA",40.7176185,-73.9975048,1,10013,OK,premise
44,ROOFTOP,"119 Baxter St, New York, NY 10013, USA",ChIJlzPL2IlZwokR319YVRFN7d0,"119 BAXTER STREET, Chinatown, Manhattan, NY, USA",40.7179112,-73.99886529999999,1,10013,OK,premise
45,ROOFTOP,"185 Hester St, New York, NY 10013, USA",ChIJd5COLYhZwokRUPB310U-LK0,"185 HESTER STREET, Chinatown, Manhattan, NY, USA",40.7181635,-73.9974893,1,10013,OK,street_address
46,ROOFTOP,"116 Mott St, New York, NY 10013, USA",ChIJISdsJYhZwokRlgGqmsRWF3k,"116 MOTT STREET, Chinatown, Manhattan, NY, USA",40.718016,-73.9968573,1,10013,OK,street_address
47,ROOFTOP,"31 Catherine St, New York, NY 10038, USA",ChIJs9hC2CVawokRUFTFvi52Fp0,"31 CATHERINE STREET, Chinatown, Manhattan, NY, USA",40.7124954,-73.9968507,1,10038,OK,premise
48,ROOFTOP,"33 Henry St, New York, NY 10002, USA",ChIJQ-_NEyZawokRnbYSItzwN4o,"33 HENRY STREET, Chinatown, Manhattan, NY, USA",40.7131445,-73.9962542,1,10002,OK,premise
49,ROOFTOP,"41 Henry St, New York, NY 10002, USA",ChIJQ-_NEyZawokRcm2eQJXrhqk,"41 HENRY STREET, Chinatown, Manhattan, NY, USA",40.7131697,-73.9958869,1,10002,OK,premise
50,ROOFTOP,"87 Chrystie St, New York, NY 10002, USA",ChIJIW1p_IdZwokRShrMxd6tJn4,"87 CHRYSTIE STREET, Chinatown, Manhattan, NY, USA",40.7176023,-73.99446429999999,1,10002,OK,premise
51,ROOFTOP,"106 Bayard St #108, New York, NY 10013, USA",ChIJq84MOidawokR0qwyEUHAeJs,"106-108 BAYARD STREET, Chinatown, Manhattan, NY, USA",40.71634299999999,-73.99987209999999,1,10013,OK,subpremise
52,ROOFTOP,"103 Mosco St, New York, NY 10013, USA",ChIJ_07HwSZawokRNu_k1EaTalg,"103 MOSCO STREET, Chinatown, Manhattan, NY, USA",40.7144239,-73.9992853,1,10013,OK,premise
53,ROOFTOP,"27 Madison St, New York, NY 10038, USA",ChIJy7ztPSRawokRCJyD-TCi-Bw,"27 MADISON STREET, Chinatown, Manhattan, NY, USA",40.7120373,-73.9991393,1,10038,OK,street_address
54,ROOFTOP,"91 Franklin St, New York, NY 10013, USA",ChIJ-XIrbSBawokRoqDzhD1PXo4,"91 FRANKLIN STREET, Civic Center, Manhattan, NY, USA",40.7179068,-74.0050696,1,10013,OK,premise
55,ROOFTOP,"444 W 46th St, New York, NY 10036, USA",ChIJ-3hsiVFYwokR4lpVcR0ejZo,"444 WEST 46TH STREET, Clinton, Manhattan, NY, USA",40.7616536,-73.992857,1,10036,OK,premise
56,ROOFTOP,"439 W 46th St, New York, NY 10036, USA",ChIJlW1-hFFYwokRAYklR0JJyh8,"439 WEST 46TH STREET, Clinton, Manhattan, NY, USA",40.761762,-73.992261,1,10036,OK,premise
57,ROOFTOP,"700 10th Ave, New York, NY 10019, USA",ChIJ43PcVFBYwokRh18BXvD3uwY,"700 10TH AVENUE, Clinton, Manhattan, NY, USA",40.7638514,-73.992032,1,10019,OK,premise
58,ROOFTOP,"435 W 48th St, New York, NY 10036, USA",ChIJUd2mBVFYwokReKlMRvAlocE,"435 WEST 48TH STREET, Clinton, Manhattan, NY, USA",40.7630786,-73.991481,1,10036,OK,premise
59,ROOFTOP,"407 W 50th St, New York, NY 10019, USA",ChIJNWqt0VBYwokRfEkfqauvz5w,"407 WEST 50TH STREET, Clinton, Manhattan, NY, USA",40.7639428,-73.98941479999999,1,10019,OK,premise
60,ROOFTOP,"405 W 50th St, New York, NY 10019, USA",ChIJzXy72lBYwokRhNB4-YVuVyY,"405 WEST 50TH STREET, Clinton, Manhattan, NY, USA",40.7638592,-73.9893689,1,10019,OK,premise
61,ROOFTOP,"460 W 51st St, New York, NY 10019, USA",ChIJD9Mek1BYwokRc5fnLqzoF-E,"460 WEST 51 ST, Clinton, Manhattan, NY, USA",40.7649537,-73.9908955,1,10019,OK,premise
62,ROOFTOP,"520 W 43rd St, New York, NY 10036, USA",ChIJ-x5bvk1YwokRIITk35J6JXE,"520 WEST 43RD STREET, Clinton, Manhattan, NY, USA",40.7605613,-73.996185,1,10036,OK,premise
63,ROOFTOP,"444 W 51st St, New York, NY 10019, USA",ChIJ_XqP6lBYwokRkMZzXP7BqH0,"444 WEST 51ST STREET, Clinton, Manhattan, NY, USA",40.764664,-73.990397,1,10019,OK,street_address
64,ROOFTOP,"113 E 2nd St, New York, NY 10009, USA",ChIJabcVoYNZwokRrzOCeV245hs,"113 EAST 2ND STREET, East Village, Manhattan, NY, USA",40.7234243,-73.98711829999999,1,10009,OK,premise
65,ROOFTOP,"64 E 7th St, New York, NY 10003, USA",ChIJt2kk6pxZwokRd7LS-AQQ_fc,"64 EAST 7TH STREET, East Village, Manhattan, NY, USA",40.7273703,-73.98707770000001,1,10003,OK,premise
66,ROOFTOP,"426 E 14th St, New York, NY 10009, USA",ChIJQ1O13XVZwokRfJVE0I47Wlg,"426 EAST 14TH STREET, East Village, Manhattan, NY, USA",40.7305539,-73.9813458,1,10009,OK,premise
67,ROOFTOP,"77 E 3rd St, New York, NY 10003, USA",ChIJDaP8XINZwokR3Jn_2XyKCW8,"77 EAST 3RD STREET, East Village, Manhattan, NY, USA",40.7251103,-73.9883096,1,10003,OK,premise
68,ROOFTOP,"317 E 5th St, New York, NY 10003, USA",ChIJYV68sZxZwokRMJao1Ccbhe4,"317 EAST 5TH STREET, East Village, Manhattan, NY, USA",40.7266154,-73.9880477,1,10003,OK,premise
69,ROOFTOP,"321 E 6th St, New York, NY 10003, USA",ChIJ72SOwJxZwokRtdc-4ftS_0M,"321 EAST 6TH STREET, East Village, Manhattan, NY, USA",40.7270462,-73.9874383,1,10003,OK,street_address
70,ROOFTOP,"53 St Marks Pl, New York, NY 10003, USA",ChIJ47hB-JxZwokRuTxcR7IpIkE,"53 ST.MARKS PLACE, 4, East Village, Manhattan, NY, USA",40.7283783,-73.98656969999999,2,10003,OK,premise
71,ROOFTOP,"226 E 10th St, New York, NY 10003, USA",ChIJvYB3sZ1ZwokRWQMMyWq8pL0,"226 EAST 10TH STREET, East Village, Manhattan, NY, USA",40.7290168,-73.9855675,1,10003,OK,premise
72,ROOFTOP,"302 E 12th St, New York, NY 10003, USA",ChIJJ3ps1p1ZwokRljBNYiqOYfU,"302 EAST 12TH STREET, East Village, Manhattan, NY, USA",40.7306699,-73.9855247,1,10003,OK,premise
73,ROOFTOP,"338 E 13th St, New York, NY 10003, USA",ChIJQewADJ5ZwokRdmr7vuLX9TY,"338 EAST 13TH STREET, East Village, Manhattan, NY, USA",40.7309195,-73.98408909999999,1,10003,OK,premise
74,ROOFTOP,"215 1st Avenue, New York, NY 10003, USA",ChIJT1HfCJ5ZwokRfW9pJ_CBdz8,"215 1 AVENUE, East Village, Manhattan, NY, USA",40.7306513,-73.98342339999999,1,10003,OK,premise
75,ROOFTOP,"213 1st Avenue, New York, NY 10003, USA",ChIJpfshB55ZwokR-SCl_8DQAhE,"213 1 AVENUE, East Village, Manhattan, NY, USA",40.7305966,-73.9834463,1,10003,OK,subpremise
76,ROOFTOP,"60 E 4th St, New York, NY 10003, USA",ChIJv_i5zIRZwokRq-Srx0wpfcg,"60 EAST 4TH STREET, 9, East Village, Manhattan, NY, USA",40.7265239,-73.9907736,2,10003,OK,premise
77,ROOFTOP,"236 E 5th St, New York, NY 10003, USA",ChIJfZCxT5tZwokRg72-7aICBfc,"236 EAST 5TH STREET, East Village, Manhattan, NY, USA",40.7268874,-73.98972909999999,1,10003,OK,premise
78,ROOFTOP,"87 E 4th St, New York, NY 10003, USA",ChIJuXsZTZtZwokRd3i3GTvgn0k,"87 EAST 4TH STREET, East Village, Manhattan, NY, USA",40.72651,-73.9897689,1,10003,OK,premise
79,ROOFTOP,"69 E 4th St, New York, NY 10003, USA",ChIJ1aESNptZwokRCVDaVcWiFMI,"69 EAST 4TH STREET, 3A, East Village, Manhattan, NY, USA",40.7267565,-73.9905562,1,10003,OK,"establishment,home_goods_store,point_of_interest,store"
80,ROOFTOP,"120 E 10th St, New York, NY 10003, USA",ChIJ3TYHDpxZwokREwdzffYWHlo,"120 EAST 10TH STREET, East Village, Manhattan, NY, USA",40.7302093,-73.9881679,1,10003,OK,premise
81,ROOFTOP,"104 E 10th St, New York, NY 10003, USA",ChIJdUQDCZxZwokRfnzQevSl4B0,"104 EAST 10TH STREET, East Village, Manhattan, NY, USA",40.730427,-73.98867589999999,1,10003,OK,premise
82,ROOFTOP,"436 E 13th St, New York, NY 10009, USA",ChIJwwZsDHZZwokRHgY2AIUfKjs,"436 EAST 13TH STREET, East Village, Manhattan, NY, USA",40.7298549,-73.98176,1,10009,OK,street_address
83,ROOFTOP,"442 E 13th St, New York, NY 10009, USA",ChIJ4xbSDHZZwokR4K2O8IU0cuM,"442 EAST 13TH STREET, East Village, Manhattan, NY, USA",40.7297579,-73.98155299999999,1,10009,OK,street_address
84,ROOFTOP,"225 E 10th St, New York, NY 10003, USA",ChIJtwast51ZwokRdrFtKFymmww,"225 EAST 10TH STREET, East Village, Manhattan, NY, USA",40.7293796,-73.9853522,1,10003,OK,premise
85,ROOFTOP,"22 E 1st St, New York, NY 10003, USA",ChIJGY5B-YRZwokRjIHf5ab0LUY,"22 EAST 1ST STREET, East Village, Manhattan, NY, USA",40.72464129999999,-73.99124669999999,1,10003,OK,street_address
86,ROOFTOP,"1 Cooper Sq, New York, NY 10003, USA",ChIJ97m7OptZwokROgQsMyqbLrk,"1 COOPER SQUARE, East Village, Manhattan, NY, USA",40.727258,-73.991023,1,10003,OK,street_address
87,ROOFTOP,"101 1st Avenue, New York, NY 10003, USA",ChIJFygq2pxZwokRZ2BxaWZjifA,"101 1 AVENUE, East Village, Manhattan, NY, USA",40.7266756,-73.9863316,1,10003,OK,premise
88,ROOFTOP,"85 2nd Ave, New York, NY 10003, USA",ChIJqQMpUZtZwokRvH9CCm-LV3M,"85 SECOND AVENUE, East Village, Manhattan, NY, USA",40.7267949,-73.98928149999999,1,10003,OK,premise
89,ROOFTOP,"18 W 30th St, New York, NY 10001, USA",ChIJoUXVo6hZwokRJ6FCZMX93C8,"18 WEST 30TH STREET, Fashion, Manhattan, NY, USA",40.7461673,-73.98762119999999,1,10001,OK,premise
90,ROOFTOP,"322 7th Ave, New York, NY 10001, USA",ChIJsYw07K9ZwokRdkYDPXcVljE,"322 7 AVENUE, Fashion, Manhattan, NY, USA",40.7473915,-73.99347759999999,1,10001,OK,street_address
91,ROOFTOP,"142 Fulton St, New York, NY 10038, USA",ChIJsx1SOBhawokRuMmtzeE8nno,"142 FULTON STREET, Financial, Manhattan, NY, USA",40.71039469999999,-74.0084658,1,10038,OK,premise
92,ROOFTOP,"6 Stone St, New York, NY 10004, USA",ChIJ7-ii9RNawokR7KoYNmOC39E,"6 STONE STREET, Financial, Manhattan, NY, USA",40.7038046,-74.0128442,1,10004,OK,street_address
93,ROOFTOP,"1798 Lexington Ave, New York, NY 10029, USA",ChIJdWgiTwT2wokRyZStlQeT8tk,"796 AVENUE OF THE AMER, Flatiron, Manhattan, NY, USA",40.795943,-73.94378379999999,2,10029,OK,"establishment,food,point_of_interest,restaurant"
94,ROOFTOP,"127 E 26th St, New York, NY 10010, USA",ChIJTZgoZqdZwokRVhZOP46jw_8,"127 EAST 26TH STREET, Gramercy, Manhattan, NY, USA",40.7418001,-73.98377,1,10010,OK,street_address
95,ROOFTOP,"219 E 17th St, New York, NY 10003, USA",ChIJP_yMjZ9ZwokRIXeOQaCH3ZY,"219 EAST 17TH STREET, Gramercy, Manhattan, NY, USA",40.734991,-73.9847379,1,10003,OK,street_address
96,ROOFTOP,"117 E 15th St, New York, NY 10003, USA",ChIJOahdSp9ZwokRTDhUiZhMR-I,"117 EAST 15TH STREET, Gramercy, Manhattan, NY, USA",40.7349953,-73.98866699999999,1,10003,OK,premise
97,ROOFTOP,"162 Third Ave, New York, NY 10003, USA",ChIJxQe6cp9ZwokRKbHwIudg2qk,"162 3 AVENUE, Gramercy, Manhattan, NY, USA",40.7346749,-73.98665299999999,1,10003,OK,premise
98,ROOFTOP,"311 2nd Ave, New York, NY 10003, USA",ChIJISio_p9ZwokRZI6vtQlmRa4,"311 2 AVENUE, Gramercy, Manhattan, NY, USA",40.7350623,-73.98335329999999,1,10003,OK,premise
99,ROOFTOP,"60 W 9th St, New York, NY 10011, USA",ChIJIZh-wpZZwokRGn4DG85NLqI,"60 WEST 9TH STREET, Greenwich Village-Central, Manhattan, NY, USA",40.7338332,-73.9986428,1,10011,OK,premise
100,ROOFTOP,"58 W 9th St, New York, NY 10011, USA",ChIJl1-OwpZZwokR_CSb01UI0rk,"58 W. 9TH STREET, Greenwich Village-Central, Manhattan, NY, USA",40.7337961,-73.9985854,1,10011,OK,premise
101,ROOFTOP,"11 W 12th St, New York, NY 10011, USA",ChIJO74UhpdZwokR9R6L99dav30,"11 WEST 12TH STREET, Greenwich Village-Central, Manhattan, NY, USA",40.735118,-73.99504999999999,1,10011,OK,street_address
102,ROOFTOP,"29 E 11th St, New York, NY 10003, USA",ChIJESrWxZlZwokRFSfDCJtggvI,"29 EAST 11TH STREET, Greenwich Village-Central, Manhattan, NY, USA",40.73366360000001,-73.9936395,1,10003,OK,premise
103,ROOFTOP,"356 Bowery, New York, NY 10012, USA",ChIJmzC11ZpZwokRHkPzvi7e0qk,"356 BOWERY, Greenwich Village-Central, Manhattan, NY, USA",40.7269217,-73.9919443,1,10012,OK,street_address
104,ROOFTOP,"228 Thompson St, New York, NY 10012, USA",ChIJhQOtwJFZwokRr2kso0Pia9w,"228 THOMPSON STREET, Greenwich Village-Central, Manhattan, NY, USA",40.729259,-73.9987795,1,10012,OK,premise
105,ROOFTOP,"64 Third Ave, New York, NY 10003, USA",ChIJe88OVZlZwokRtR4vSDg72SE,"64 3 AVENUE, Greenwich Village-Central, Manhattan, NY, USA",40.73133929999999,-73.98899449999999,1,10003,OK,premise
106,ROOFTOP,"45 W 8th St, New York, NY 10011, USA",ChIJLUDM2pZZwokRe_K3ZYy9yp8,"45 WEST 8TH STREET, Greenwich Village-Central, Manhattan, NY, USA",40.73331,-73.9984248,1,10011,OK,premise
107,ROOFTOP,"11 W 9th St, New York, NY 10011, USA",ChIJ2eFMPJdZwokRaJwyKXvoP7I,"11 WEST 9TH, Greenwich Village-Central, Manhattan, NY, USA",40.7329669,-73.9959148,1,10011,OK,street_address
108,ROOFTOP,"29 5th Ave, New York, NY 10003, USA",ChIJk-9BW5dZwokR_hGpzDhKtHg,"29 5 AVENUE, Greenwich Village-Central, Manhattan, NY, USA",40.7330875,-73.9953302,1,10003,OK,premise
109,ROOFTOP,"57 W 10th St, New York, NY 10011, USA",ChIJj4_V_ZZZwokRM-wtlG9YYAg,"57 WEST 10TH STREET, Greenwich Village-Central, Manhattan, NY, USA",40.7346811,-73.9978553,1,10011,OK,premise
110,ROOFTOP,"9 Bleecker St, New York, NY 10012, USA",ChIJE3g-FoVZwokRXpKJejljkbE,"9 BLEECKER STREET, Greenwich Village-Central, Manhattan, NY, USA",40.7255861,-73.9928051,1,10012,OK,premise
111,ROOFTOP,"16 Morton St, New York, NY 10014, USA",ChIJe9XhAJNZwokR9fpKaEU7qvE,"16 MORTON STREET, Greenwich Village-West, Manhattan, NY, USA",40.7310354,-74.0037316,1,10014,OK,premise
112,ROOFTOP,"39 Barrow St, New York, NY 10014, USA",ChIJ-R-sDJNZwokRQxX1gn6FFU8,"39 BARROW STREET, Greenwich Village-West, Manhattan, NY, USA",40.7321024,-74.0039726,1,10014,OK,premise
113,ROOFTOP,"146 Waverly Pl, New York, NY 10014, USA",ChIJ5XwTAZRZwokRiGQDmd0b5cE,"146 WAVERLY PLACE, Greenwich Village-West, Manhattan, NY, USA",40.7331497,-74.0008738,1,10014,OK,premise
114,ROOFTOP,"22 Christopher St, New York, NY 10014, USA",ChIJYeXBHZRZwokRpwOD4IeVoII,"22 CHRISTOPHER STREET, Greenwich Village-West, Manhattan, NY, USA",40.7337672,-74.0007361,1,10014,OK,premise
115,RANGE_INTERPOLATED,"121 Leroy St, New York, NY 10014, USA",EiUxMjEgTGVyb3kgU3QsIE5ldyBZb3JrLCBOWSAxMDAxNCwgVVNBIhoSGAoUChIJ1QndOO1ZwokRF5AfWEQNme0QeQ,"121 LEROY STREET, Greenwich Village-West, Manhattan, NY, USA",40.73054339999999,-74.0079646,1,10014,OK,street_address
116,ROOFTOP,"109 W 11th St, New York, NY 10011, USA",ChIJey1xa5ZZwokRubwOlAb-_0s,"109 WEST 11TH STREET, Greenwich Village-West, Manhattan, NY, USA",40.7357713,-73.99868730000001,1,10011,OK,premise
117,ROOFTOP,"121 W 11th St, New York, NY 10011, USA",ChIJ8zqXaZZZwokRWDE4vydJI9M,"121 WEST 11TH STREET, Greenwich Village-West, Manhattan, NY, USA",40.7359522,-73.9991464,1,10011,OK,premise
118,ROOFTOP,"208 W 11th St, New York, NY 10014, USA",ChIJSUpDxJVZwokR-QK7BgXhgxs,"208 WEST 11TH STREET, Greenwich Village-West, Manhattan, NY, USA",40.7363731,-74.0016198,1,10014,OK,premise
119,ROOFTOP,"243 Waverly Pl, New York, NY 10014, USA",ChIJ19d76pVZwokR9Y_8rTwSbzI,"243 WAVERLY PLACE, Greenwich Village-West, Manhattan, NY, USA",40.7367584,-74.0018889,1,10014,OK,premise
120,ROOFTOP,"246 W 12th St, New York, NY 10014, USA",ChIJ8_AQjpVZwokRHuBpLcskldo,"246 WEST 12TH STREET, Greenwich Village-West, Manhattan, NY, USA",40.7374958,-74.0025265,1,10014,OK,premise
121,ROOFTOP,"234 W 10th St, New York, NY 10014, USA",ChIJUfEsoZRZwokRqsjbD6rLR6M,"234 WEST 10TH STREET, Greenwich Village-West, Manhattan, NY, USA",40.7337552,-74.00537829999999,1,10014,OK,premise
122,ROOFTOP,"70 Charles St, New York, NY 10014, USA",ChIJe4IQX5RZwokR5_XjHF_1k-s,"70 CHARLES STREET, Greenwich Village-West, Manhattan, NY, USA",40.734741,-74.0034429,1,10014,OK,premise
123,ROOFTOP,"613 Hudson St, New York, NY 10014, USA",ChIJYWByT5VZwokRl_xrsBOQCIU,"613 HUDSON STREET, Greenwich Village-West, Manhattan, NY, USA",40.7377746,-74.0058549,1,10014,OK,premise
124,ROOFTOP,"37 8th Ave, New York, NY 10014, USA",ChIJqUfT179ZwokR7kQi5LtX1jU,"37 8TH AVENUE, Greenwich Village-West, Manhattan, NY, USA",40.7383542,-74.00412539999999,1,10014,OK,street_address
125,ROOFTOP,"51 Horatio St, New York, NY 10014, USA",ChIJURcL_L9ZwokRv8SYLYO_5oI,"51 HORATIO STREET, Greenwich Village-West, Manhattan, NY, USA",40.738901,-74.006057,1,10014,OK,street_address
126,ROOFTOP,"11 Leroy St, New York, NY 10014, USA",ChIJ23DvqpNZwokRix2fxTMQYLg,"11 LEROY STREET, Greenwich Village-West, Manhattan, NY, USA",40.7308354,-74.00341030000001,1,10014,OK,premise
127,ROOFTOP,"25 Barrow St, New York, NY 10014, USA",ChIJP5NqmpNZwokR73-OsrlSDWs,"25 BARROW STREET, Greenwich Village-West, Manhattan, NY, USA",40.7323469,-74.0029053,1,10014,OK,premise
128,ROOFTOP,"17 Jones St, New York, NY 10014, USA",ChIJG1e0lpNZwokR_epdUUs8TpE,"17 JONES STREET, Greenwich Village-West, Manhattan, NY, USA",40.7322176,-74.002538,1,10014,OK,premise
129,ROOFTOP,"180 Waverly Pl, New York, NY 10014, USA",ChIJxehjPZRZwokRpiKpFNIJjvA,"180 WAVERLY PLACE, Greenwich Village-West, Manhattan, NY, USA",40.7342607,-74.0014936,1,10014,OK,premise
130,ROOFTOP,"250 W 11th St, New York, NY 10014, USA",ChIJewxlqZVZwokRbSfAIUyOEZ0,"250 WEST 11TH ST, Greenwich Village-West, Manhattan, NY, USA",40.7360958,-74.003333,1,10014,OK,premise
131,ROOFTOP,"34 Bank St, New York, NY 10014, USA",ChIJk800vZVZwokR482Cd9VxG28,"34 BANK STREET, Greenwich Village-West, Manhattan, NY, USA",40.736845,-74.0028281,1,10014,OK,premise
132,ROOFTOP,"347 West 4th Street, New York, NY 10014, USA",ChIJQ5npzL9ZwokR7Rb60Y4razo,"347 WEST 4TH STREET, Greenwich Village-West, Manhattan, NY, USA",40.73909949999999,-74.0037225,1,10014,OK,premise
133,ROOFTOP,"53 Jane St, New York, NY 10014, USA",ChIJQfk6XpVZwokRzBYzsb6i0V4,"53 JANE STREET, Greenwich Village-West, Manhattan, NY, USA",40.7382722,-74.0051032,1,10014,OK,premise
134,ROOFTOP,"71 Jane St, New York, NY 10014, USA",ChIJMTCGrupZwokR3xMPZW0WZ1U,"71 JANE STREET, Greenwich Village-West, Manhattan, NY, USA",40.7382717,-74.00691069999999,1,10014,OK,premise
135,ROOFTOP,"66 Morton St, New York, NY 10014, USA",ChIJY2tO0pJZwokR_ypVLH1L4_o,"66 MORTON STREET, Greenwich Village-West, Manhattan, NY, USA",40.7307369,-74.00625649999999,1,10014,OK,premise
136,ROOFTOP,"20 Leroy St, New York, NY 10014, USA",ChIJ8afBVZJZwokR45eDh-FwIGg,"20 LEROY STREET, Greenwich Village-West, Manhattan, NY, USA",40.7305829,-74.0034676,1,10014,OK,premise
137,ROOFTOP,"16 Leroy St, New York, NY 10014, USA",ChIJqUlaVJJZwokR7jz4uf1Ubgs,"16 LEROY STREET, Greenwich Village-West, Manhattan, NY, USA",40.7306213,-74.0033299,1,10014,OK,premise
138,ROOFTOP,"110 Washington Pl, New York, NY 10014, USA",ChIJs2Ec-5NZwokRa5f4c2Dm38o,"110 WASHINGTON PLACE, Greenwich Village-West, Manhattan, NY, USA",40.7324744,-74.0011493,1,10014,OK,premise
139,ROOFTOP,"303 West 4th Street, New York, NY 10014, USA",ChIJS_KsCpVZwokRj1bOWKpCUpE,"303 WEST 4TH STREET, Greenwich Village-West, Manhattan, NY, USA",40.7370069,-74.0036398,1,10014,OK,premise
140,ROOFTOP,"35 Bedford St, New York, NY 10014, USA",ChIJGZJjjJJZwokRTMcX0uD8Y3A,"35 BEDFORD STREET, Greenwich Village-West, Manhattan, NY, USA",40.7295366,-74.0039371,1,10014,OK,street_address
141,ROOFTOP,"59 Morton St, New York, NY 10014, USA",ChIJhVBL1pJZwokRT5jg_Q69leU,"59 MORTON STREET, Greenwich Village-West, Manhattan, NY, USA",40.7310495,-74.0059643,1,10014,OK,premise
142,ROOFTOP,"72 Bedford St, New York, NY 10014, USA",ChIJN6aeGZNZwokRsDk1mVNXmko,"72 BEDFORD STREET, Greenwich Village-West, Manhattan, NY, USA",40.7314875,-74.0047416,1,10014,OK,premise
143,ROOFTOP,"16 Barrow St, New York, NY 10014, USA",ChIJqXAfhZNZwokRVlCl8Nn7Z5o,"16 BARROW STREET, Greenwich Village-West, Manhattan, NY, USA",40.7326313,-74.00298029999999,1,10014,OK,street_address
144,ROOFTOP,"144 Waverly Pl, New York, NY 10014, USA",ChIJuSkIAZRZwokRB7YsBUTLxbo,"144 WAVERLY PLACE, Greenwich Village-West, Manhattan, NY, USA",40.73309649999999,-74.00083939999999,1,10014,OK,premise
145,ROOFTOP,"106 W 13th St, New York, NY 10011, USA",ChIJt94oPZZZwokRiJ6AqugFr5w,"106 WEST 13TH STREET, Greenwich Village-West, Manhattan, NY, USA",40.7367213,-73.9980848,1,10011,OK,premise
146,ROOFTOP,"13 Christopher St, New York, NY 10014, USA",ChIJCVIuoJZZwokRByaxiERgfK4,"13 CHRISTOPHER STREET, Greenwich Village-West, Manhattan, NY, USA",40.7340483,-74.0004721,1,10014,OK,premise
147,ROOFTOP,"227 Waverly Pl, New York, NY 10014, USA",ChIJgz1Bz5VZwokRhExUFjfUh7s,"227 WAVERLY PLACE, Greenwich Village-West, Manhattan, NY, USA",40.7361582,-74.0017125,1,10014,OK,premise
148,ROOFTOP,"240 W 10th St, New York, NY 10014, USA",ChIJr5yVp5RZwokRSf3qWD8r1FQ,"240 WEST 10TH STREET, Greenwich Village-West, Manhattan, NY, USA",40.7337251,-74.00564229999999,1,10014,OK,premise
149,ROOFTOP,"184 W 10th St #188, New York, NY 10014, USA",ChIJNbcLZJRZwokR8PZqVVcF1UM,"184-188 WEST 10 STREET, Greenwich Village-West, Manhattan, NY, USA",40.7341187,-74.0031897,1,10014,OK,subpremise
150,ROOFTOP,"319 W 11th St, New York, NY 10014, USA",ChIJN5duL-tZwokRgzSxQqvhP6Y,"319 WEST 11TH STREET, Greenwich Village-West, Manhattan, NY, USA",40.735881,-74.007178,1,10014,OK,street_address
151,ROOFTOP,"26 Bethune St, New York, NY 10014, USA",ChIJL4mBxepZwokRPdYsPj6lC_M,"26 BETHUNE STREET, Greenwich Village-West, Manhattan, NY, USA",40.7370963,-74.00726650000001,1,10014,OK,premise
152,ROOFTOP,"100 Barrow St, New York, NY 10014, USA",ChIJr8FG2-xZwokR7Y3o_HJD9R0,"100 BARROW STREET, Greenwich Village-West, Manhattan, NY, USA",40.7319841,-74.00756489999999,1,10014,OK,"establishment,premise"
153,ROOFTOP,"34 8th Ave, New York, NY 10014, USA",ChIJlRcLe5VZwokRJSgKhlUgX_k,"34 8 AVENUE, Greenwich Village-West, Manhattan, NY, USA",40.7379287,-74.0041054,1,10014,OK,premise
154,ROOFTOP,"611 Hudson St, New York, NY 10014, USA",ChIJ8RxIT5VZwokRCdZrlT8HCUM,"611 HUDSON STREET, Greenwich Village-West, Manhattan, NY, USA",40.7376733,-74.00588929999999,1,10014,OK,premise
155,ROOFTOP,"76 8th Ave, New York, NY 10011, USA",ChIJ3VDfQL5ZwokROywTYcjhGz4,"76 8 AVENUE, Greenwich Village-West, Manhattan, NY, USA",40.7395711,-74.00260980000002,1,10011,OK,street_address
156,ROOFTOP,"137 W 122nd St, New York, NY 10027, USA",ChIJMYaEfBL2wokR8z2xRTCwaD0,"137 WEST 122 STREET, Harlem-Central, Manhattan, NY, USA",40.8066698,-73.94832389999999,1,10027,OK,premise
157,ROOFTOP,"123 W 132nd St, New York, NY 10027, USA",ChIJIQek6XP2wokRMnDJAytpnT8,"123 W 132 STREET, Harlem-Central, Manhattan, NY, USA",40.8127807,-73.94318059999999,1,10027,OK,premise
158,ROOFTOP,"115 W 136th St, New York, NY 10030, USA",ChIJ9UeH2nb2wokRn5hZ3P96OXw,"115 WEST 136 STREET, Harlem-Central, Manhattan, NY, USA",40.8153198,-73.9411141,1,10030,OK,premise
159,ROOFTOP,"265 W 139th St, New York, NY 10030, USA",ChIJxeZLenr2wokRyWEFpKMPmkE,"265 WEST 139 STREET, Harlem-Central, Manhattan, NY, USA",40.819103,-73.944227,1,10030,OK,street_address
160,ROOFTOP,"76 W 127th St, New York, NY 10027, USA",ChIJ15l9zQz2wokRT1Mj_oaJbQg,"76 WEST 127 STREET, Harlem-Central, Manhattan, NY, USA",40.8086835,-73.9440532,1,10027,OK,premise
161,ROOFTOP,"16 W 131st St, New York, NY 10037, USA",ChIJ-xdjjHT2wokRGUSbBbTUX98,"16 WEST 131 STREET, Harlem-Central, Manhattan, NY, USA",40.810431,-73.940589,1,10037,OK,street_address
162,ROOFTOP,"112 W 118th St, New York, NY 10026, USA",ChIJAerVmRH2wokR0E0eFjvbh_4,"112 WEST 118TH STREET, Harlem-Central, Manhattan, NY, USA",40.8035144,-73.9495867,1,10026,OK,premise
163,ROOFTOP,"109 W 132nd St, New York, NY 10027, USA",ChIJEyTT7XP2wokRzMm-cV0OJhw,"109 WEST 132 STREET, Harlem-Central, Manhattan, NY, USA",40.8126062,-73.9427673,1,10027,OK,premise
164,ROOFTOP,"253 W 121st St, New York, NY 10027, USA",ChIJL6vwoBP2wokRFatuN4N2lzs,"253 WEST 121ST STREET, Harlem-Central, Manhattan, NY, USA",40.8073562,-73.9519287,1,10027,OK,premise
165,ROOFTOP,"212 W 132nd St, New York, NY 10027, USA",ChIJqQKCI3L2wokR1rl-k3w3VFE,"212 WEST 132 STREET, Harlem-Central, Manhattan, NY, USA",40.8135552,-73.94591299999999,1,10027,OK,premise
166,ROOFTOP,"213 W 131st St, New York, NY 10027, USA",ChIJPU8yFnL2wokR9LJQmoY1Xs8,"213 WEST 131ST STREET, Harlem-Central, Manhattan, NY, USA",40.8132863,-73.9463263,1,10027,OK,premise
167,ROOFTOP,"244 W 136th St, New York, NY 10030, USA",ChIJvRH0VHD2wokRLxM4PnrIbSI,"244 WEST 136TH STREET, Harlem-Central, Manhattan, NY, USA",40.816491,-73.9450559,1,10030,OK,street_address
168,ROOFTOP,"202 W 137th St, New York, NY 10030, USA",ChIJv9kX8XD2wokRG712oIkD07w,"202 W 137 ST, Harlem-Central, Manhattan, NY, USA",40.8167134,-73.9434562,1,10030,OK,premise
169,ROOFTOP,"345 W 121st St, New York, NY 10027, USA",ChIJcXP3khT2wokROug4WGmn8R8,"345 WEST 121ST STREET, Harlem-Central, Manhattan, NY, USA",40.8086145,-73.95492209999999,1,10027,OK,premise
170,ROOFTOP,"259 W 138th St, New York, NY 10030, USA",ChIJ9eQThHD2wokRXvpbIif8Gts,"259 WEST 138 STREET, Harlem-Central, Manhattan, NY, USA",40.8183475,-73.9443746,1,10030,OK,premise
171,ROOFTOP,"218 W 139th St, New York, NY 10030, USA",ChIJI_VvpHD2wokRbkdNxu7qz60,"218 WEST 139 STREET, Harlem-Central, Manhattan, NY, USA",40.8180997,-73.94290509999999,1,10030,OK,premise
172,ROOFTOP,"268 W 139th St, New York, NY 10030, USA",ChIJc_37gXD2wokR2CNQPFLdbJA,"268 WEST 139TH STREET, Harlem-Central, Manhattan, NY, USA",40.8187235,-73.94444349999999,1,10030,OK,premise
173,ROOFTOP,"319 W 139th St, New York, NY 10030, USA",ChIJgVLZj3r2wokRXT9_mLthYeY,"319 WEST 139, Harlem-Central, Manhattan, NY, USA",40.8195902,-73.9455227,1,10030,OK,premise
174,ROOFTOP,"43 Hamilton Terrace, New York, NY 10031, USA",ChIJbR-Xanv2wokRTBrKWhYGYN8,"43 HAMILTON TERRACE, Harlem-Central, Manhattan, NY, USA",40.8227475,-73.9462459,1,10031,OK,premise
175,ROOFTOP,"85 W 119th St, New York, NY 10026, USA",ChIJQwI9DA72wokRWPk4knpBPxM,"85 WEST 119 STREET, Harlem-Central, Manhattan, NY, USA",40.8038274,-73.94745139999999,1,10026,OK,premise
176,ROOFTOP,"80 W 120th St, New York, NY 10027, USA",ChIJb9DZBg72wokRlCcBudovF4o,"80 WEST 120 STREET, Harlem-Central, Manhattan, NY, USA",40.8041773,-73.9473366,1,10027,OK,premise
177,ROOFTOP,"1937 Madison Ave, New York, NY 10035, USA",ChIJuYpTlwv2wokRwI4jzp9-EN0,"1937 MADISON AVENUE, Harlem-Central, Manhattan, NY, USA",40.8052328,-73.94073519999999,1,10035,OK,premise
178,ROOFTOP,"128 W 117th St, New York, NY 10026, USA",ChIJX3FFphH2wokR_sz8Itkj6hs,"128 WEST 117TH STREET, Harlem-Central, Manhattan, NY, USA",40.80304890000001,-73.9504477,1,10026,OK,premise
179,ROOFTOP,"106 W 120th St, New York, NY 10026, USA",ChIJbSbCHBL2wokRhMMq1J6LaNI,"106 WEST 120 STREET, Harlem-Central, Manhattan, NY, USA",40.8047168,-73.9485535,1,10026,OK,premise
180,ROOFTOP,"127 W 120th St, New York, NY 10027, USA",ChIJW6yvFxL2wokRaiOQ2LDuXX8,"127 WEST 120TH ST, Harlem-Central, Manhattan, NY, USA",40.8053285,-73.94905860000001,1,10027,OK,premise
181,ROOFTOP,"149 W 129th St, New York, NY 10027, USA",ChIJmzhE-XL2wokR2ZhUC3sW45I,"149 WEST 129 STREET, Harlem-Central, Manhattan, NY, USA",40.8111826,-73.9452242,1,10027,OK,premise
182,ROOFTOP,"116 W 130th St, New York, NY 10027, USA",ChIJTQhIBnP2wokRZ0WgqDmslEw,"116 WEST 130TH STREET, Harlem-Central, Manhattan, NY, USA",40.811099,-73.94416,1,10027,OK,street_address
183,ROOFTOP,"156 W 130th St, New York, NY 10027, USA",ChIJiW6BVnL2wokRRDLQy0HYOcw,"156 WEST 130TH STREET, Harlem-Central, Manhattan, NY, USA",40.8116194,-73.9451782,1,10027,OK,premise
184,ROOFTOP,"109 W 136th St, New York, NY 10030, USA",ChIJo3rk2nb2wokRohxtlnHkPJg,"109 W 136TH STREET, Harlem-Central, Manhattan, NY, USA",40.8152584,-73.9409534,1,10030,OK,premise
185,ROOFTOP,"244 W 121st St, New York, NY 10027, USA",ChIJXcgWoxP2wokRb7lkuzpw8WA,"244 WEST 121ST STREET, Harlem-Central, Manhattan, NY, USA",40.80694810000001,-73.9519057,1,10027,OK,premise
186,ROOFTOP,"209 W 121st St, New York, NY 10027, USA",ChIJTdLBrBP2wokRAkL5jQF18PQ,"209 WEST 121ST, Harlem-Central, Manhattan, NY, USA",40.806901,-73.950767,1,10027,OK,street_address
187,ROOFTOP,"259 W 132nd St, New York, NY 10027, USA",ChIJB7n99nH2wokRKgV4LsBie3g,"259 WEST 132 STREET, Harlem-Central, Manhattan, NY, USA",40.8143187,-73.9468085,1,10027,OK,premise
188,ROOFTOP,"84 W 119th St, New York, NY 10026, USA",ChIJ4clD4hH2wokRmhJS2BApgAo,"84 WEST 119TH STREET, Harlem-Central, Manhattan, NY, USA",40.8035938,-73.9478417,1,10026,OK,premise
189,ROOFTOP,"17 W 120th St, New York, NY 10027, USA",ChIJT-je4g32wokRw6ejf3tEaz8,"17 WEST 120 STREET, Harlem-Central, Manhattan, NY, USA",40.804419,-73.9469348,1,10027,OK,premise
190,ROOFTOP,"2032 5th Ave, New York, NY 10035, USA",ChIJxXmNmwz2wokRcmuMELsiFSI,"2032 FIFTH AVENUE, Harlem-Central, Manhattan, NY, USA",40.8069085,-73.9422712,1,10035,OK,street_address
191,ROOFTOP,"37 W 126th St, New York, NY 10027, USA",ChIJ6ebguAz2wokRbG--5wXuJDs,"37 WEST 126TH STREET, Harlem-Central, Manhattan, NY, USA",40.8078428,-73.9431577,1,10027,OK,premise
192,ROOFTOP,"350 Malcolm X Blvd, New York, NY 10027, USA",ChIJd0HxMHP2wokREwgGk8wTQ7w,"350 LENOX AVENUE, Harlem-Central, Manhattan, NY, USA",40.809297,-73.94385299999999,1,10027,OK,street_address
193,ROOFTOP,"10 W 130th St, New York, NY 10037, USA",ChIJybrClXT2wokRjw1F38o7IBU,"10 WEST 130 STREET, Harlem-Central, Manhattan, NY, USA",40.809646,-73.940709,1,10037,OK,street_address
194,ROOFTOP,"14 E 126th St, New York, NY 10035, USA",ChIJd_tlZQv2wokRuz2VQHkWY_Q,"14 EAST 126 STREET, Harlem-Central, Manhattan, NY, USA",40.8066524,-73.94116,1,10035,OK,premise
195,ROOFTOP,"1976 Madison Ave, New York, NY 10035, USA",ChIJy_sZEwv2wokRZ0jF26hmvVs,"1976 MADISON AVENUE, Harlem-Central, Manhattan, NY, USA",40.806626,-73.9402301,1,10035,OK,premise
196,ROOFTOP,"56 E 127th St, New York, NY 10035, USA",ChIJW6tUGAv2wokRmqwJQK5GzeQ,"56 EAST 127 STREET, Harlem-Central, Manhattan, NY, USA",40.8067316,-73.9394149,1,10035,OK,premise
197,ROOFTOP,"2028 Madison Ave, New York, NY 10035, USA",ChIJlSWDLAv2wokR1M20dspc0G8,"2028 MADISON AVENUE, Harlem-Central, Manhattan, NY, USA",40.808014,-73.939302,1,10035,OK,street_address
198,ROOFTOP,"105 E 122nd St, New York, NY 10035, USA",ChIJFVo4Ywn2wokRrXrnjdF3Xio,"105 EAST 122 STREET, Harlem-Central, Manhattan, NY, USA",40.803007,-73.9397249,1,10035,OK,premise
199,ROOFTOP,"146 W 111th St, New York, NY 10026, USA",ChIJmZps8Rn2wokRekMeU3WHO-8,"146 WEST 111 STREET, Harlem-Central, Manhattan, NY, USA",40.7994683,-73.9541443,1,10026,OK,premise
200,ROOFTOP,"143 W 111th St, New York, NY 10026, USA",ChIJV0Ci-Rn2wokRRqhwQh2fVg8,"143 WEST 111 STREET, Harlem-Central, Manhattan, NY, USA",40.7998533,-73.9538688,1,10026,OK,premise
201,ROOFTOP,"120 W 112th St, New York, NY 10026, USA",ChIJd24uBBr2wokR5ub_0c6lWHk,"120 WEST 112 STREET, Harlem-Central, Manhattan, NY, USA",40.7998965,-73.9530882,1,10026,OK,premise
202,ROOFTOP,"124 W 112th St, New York, NY 10026, USA",ChIJOxipBhr2wokRiUuX9gH7UGI,"124 WEST 112 STREET, Harlem-Central, Manhattan, NY, USA",40.7999546,-73.95322589999999,1,10026,OK,premise
203,ROOFTOP,"126 W 112th St, New York, NY 10026, USA",ChIJRQZ0ARr2wokR85-KKXrP_NE,"126 WEST 112 STREET, Harlem-Central, Manhattan, NY, USA",40.8000063,-73.9533178,1,10026,OK,premise
204,ROOFTOP,"138 W 112th St, New York, NY 10026, USA",ChIJNVJd_hn2wokRpMSC6SJyDm8,"138 WEST 112TH STREET, Harlem-Central, Manhattan, NY, USA",40.8002389,-73.9538688,1,10026,OK,premise
205,ROOFTOP,"140 W 112th St, New York, NY 10026, USA",ChIJkXR7_hn2wokRNVqLtaMdpio,"140 WEST 112TH STREET, Harlem-Central, Manhattan, NY, USA",40.800216,-73.953948,1,10026,OK,street_address
206,ROOFTOP,"133 W 112th St, New York, NY 10026, USA",ChIJhSugqxD2wokRwss91ktyQNE,"133 WEST 112TH STREET, Harlem-Central, Manhattan, NY, USA",40.800502,-73.953422,1,10026,OK,street_address
207,ROOFTOP,"131 W 112th St, New York, NY 10026, USA",ChIJL1LGqxD2wokRP8VLBHMn7T4,"131 WEST 112 STREET, Harlem-Central, Manhattan, NY, USA",40.8004589,-73.953328,1,10026,OK,street_address
208,ROOFTOP,"140 W 113th St, New York, NY 10026, USA",ChIJ_fPrrRD2wokRfDAEJLQlWfg,"140 WEST 113 STREET, Harlem-Central, Manhattan, NY, USA",40.800816,-73.9533178,1,10026,OK,premise
209,ROOFTOP,"143 W 113th St, New York, NY 10026, USA",ChIJ0XamthD2wokRYgF0FcAiR_g,"143 WEST 113 STREET, Harlem-Central, Manhattan, NY, USA",40.8012271,-73.95322589999999,1,10026,OK,premise
210,ROOFTOP,"141 W 113th St, New York, NY 10026, USA",ChIJ1Ym0thD2wokRbLTatq_TRS0,"141 WEST 113 STREET, Harlem-Central, Manhattan, NY, USA",40.80114349999999,-73.95318,1,10026,OK,premise
211,ROOFTOP,"115 W 113th St, New York, NY 10026, USA",ChIJUVR5lxD2wokR32WL5N1Hii8,"115 WEST 113 STREET, Harlem-Central, Manhattan, NY, USA",40.800698,-73.95194099999999,1,10026,OK,street_address
212,ROOFTOP,"113 W 113th St, New York, NY 10026, USA",ChIJw4BflxD2wokRp5Zlhute3DA,"113 WEST 113 STREET, Harlem-Central, Manhattan, NY, USA",40.800667,-73.9518609,1,10026,OK,street_address
213,ROOFTOP,"109 W 113th St, New York, NY 10026, USA",ChIJ3bkXmhD2wokRyi4g0ADdsK0,"109 WEST 113 STREET, Harlem-Central, Manhattan, NY, USA",40.8005873,-73.9517106,1,10026,OK,premise
214,ROOFTOP,"107 W 113th St, New York, NY 10026, USA",ChIJj0dDmhD2wokRsAqRAmlQJ28,"107 WEST 113TH STREET, Harlem-Central, Manhattan, NY, USA",40.8005037,-73.9516646,1,10026,OK,premise
215,ROOFTOP,"105 W 113th St, New York, NY 10026, USA",ChIJa4nwmhD2wokRuA7TL4V2YsM,"105 WEST 113TH STREET, Harlem-Central, Manhattan, NY, USA",40.8005179,-73.9515613,1,10026,OK,premise
216,ROOFTOP,"108 W 114th St, New York, NY 10026, USA",ChIJS1vskRD2wokR7PAagVzraQM,"108 WEST 114TH STREET, 3B, Harlem-Central, Manhattan, NY, USA",40.8009017,-73.951481,1,10026,OK,premise
217,ROOFTOP,"110 St Nicholas Ave, New York, NY 10026, USA",ChIJNaB3IBH2wokR4wCGMIRqK_U,"110 ST NICHOLAS AVENUE, Harlem-Central, Manhattan, NY, USA",40.80272240000001,-73.9523535,1,10026,OK,premise
218,ROOFTOP,"230 W 116th St, New York, NY 10026, USA",ChIJ_ZYCxBb2wokRxEzuA8yEsM4,"230 WEST 116 STREET, Harlem-Central, Manhattan, NY, USA",40.8036196,-73.9540525,1,10026,OK,premise
219,ROOFTOP,"141 W 116th St, New York, NY 10026, USA",ChIJ295EBRH2wokRGfd52j4S0mU,"141 WEST 116 STREET, Harlem-Central, Manhattan, NY, USA",40.8030028,-73.9513432,1,10026,OK,premise
220,ROOFTOP,"135 W 116th St, New York, NY 10026, USA",ChIJPXfQBRH2wokRZLeJmfKlJ0s,"135 WEST 116 STREET, Harlem-Central, Manhattan, NY, USA",40.8029251,-73.9510677,1,10026,OK,premise
221,ROOFTOP,"133 W 116th St, New York, NY 10026, USA",ChIJ9xBjBhH2wokROqnifm0_yZw,"133 WEST 116 STREET, Harlem-Central, Manhattan, NY, USA",40.8028414,-73.95102179999999,1,10026,OK,premise
222,ROOFTOP,"129 W 116th St, New York, NY 10026, USA",ChIJMzcPBxH2wokRU7jmfXZ76-Y,"129 WEST 116 STREET, Harlem-Central, Manhattan, NY, USA",40.8027953,-73.9509127,1,10026,OK,street_address
223,ROOFTOP,"125 W 116th St, New York, NY 10026, USA",ChIJQylmBxH2wokR6WoIDI_DzOA,"125 WEST 116 STREET, Harlem-Central, Manhattan, NY, USA",40.8027571,-73.9507003,1,10026,OK,premise
224,ROOFTOP,"121 W 116th St, New York, NY 10026, USA",ChIJ58DsqRH2wokR0mDZosgE8v0,"121 WEST 116 STREET, Harlem-Central, Manhattan, NY, USA",40.8026669,-73.9506085,1,10026,OK,premise
225,ROOFTOP,"117 W 116th St, New York, NY 10026, USA",ChIJj4h8qRH2wokR2E7BeYL79go,"117 WEST 116 STREET, Harlem-Central, Manhattan, NY, USA",40.8026088,-73.95047070000001,1,10026,OK,premise
226,ROOFTOP,"107 W 118th St, New York, NY 10026, USA",ChIJ-XgQkxH2wokRBgk6xIjbyCg,"107 WEST 118TH, Harlem-Central, Manhattan, NY, USA",40.8038062,-73.9493342,1,10026,OK,premise
227,ROOFTOP,"143 W 120th St, New York, NY 10027, USA",ChIJdUz2OxL2wokRnphorbIRuSs,"143 WEST 120TH STREET, Harlem-Central, Manhattan, NY, USA",40.8055386,-73.9495867,1,10027,OK,premise
228,ROOFTOP,"123 W 120th St, New York, NY 10027, USA",ChIJOSI-FxL2wokRVPcMfFwEXcM,"123 WEST 120 STREET, Harlem-Central, Manhattan, NY, USA",40.8052463,-73.94895530000001,1,10027,OK,premise
229,ROOFTOP,"107 W 120th St, New York, NY 10027, USA",ChIJj15OBRL2wokRRcZ_AbK609I,"107 WEST 120 STREET, Harlem-Central, Manhattan, NY, USA",40.8050668,-73.9484387,1,10027,OK,premise
230,ROOFTOP,"166 W 121st St, New York, NY 10027, USA",ChIJw6DPRxL2wokRe8Cu1NGqC48,"166 WEST 121 STREET, Harlem-Central, Manhattan, NY, USA",40.806063,-73.94988520000001,1,10027,OK,premise
231,ROOFTOP,"114 W 127th St, New York, NY 10027, USA",ChIJ01Jd0nL2wokRY8GoVApUm70,"114 WEST 127TH STREET, Harlem-Central, Manhattan, NY, USA",40.809199,-73.94543999999999,1,10027,OK,street_address
232,ROOFTOP,"146 W 127th St, New York, NY 10027, USA",ChIJvyaet3L2wokRq-6nGl7PER8,"146 WEST 127 STREET, Harlem-Central, Manhattan, NY, USA",40.8096981,-73.9464411,1,10027,OK,premise
233,ROOFTOP,"349 Lenox Ave, New York, NY 10027, USA",ChIJy0jSJ3P2wokREC-Enr6B_4k,"349 LENOX AVENUE, Harlem-Central, Manhattan, NY, USA",40.809539,-73.9446315,1,10027,OK,street_address
234,ROOFTOP,"160 W 130th St, New York, NY 10027, USA",ChIJSZ_vVnL2wokRRT9dc6Bo1a8,"160 WEST 130, Harlem-Central, Manhattan, NY, USA",40.8116551,-73.9452931,1,10027,OK,premise
235,ROOFTOP,"2247 Adam Clayton Powell Jr Blvd, New York, NY 10027, USA",ChIJY1Kg03P2wokRT6XEsSdABxo,"2247 ADAM C POWELL BLVD, Harlem-Central, Manhattan, NY, USA",40.813429,-73.944605,1,10027,OK,street_address
236,ROOFTOP,"2251 Adam Clayton Powell Jr Blvd, New York, NY 10027, USA",ChIJScxv1HP2wokR6qpWmmEy3iY,"2251 ADAM C POWELL BLVD, Harlem-Central, Manhattan, NY, USA",40.81351799999999,-73.9445009,1,10027,OK,premise
237,ROOFTOP,"2253 Adam Clayton Powell Jr Blvd, New York, NY 10027, USA",ChIJKdYY1HP2wokRSm9V6Mj3SxU,"2253 ADAM C POWELL BLVD, Harlem-Central, Manhattan, NY, USA",40.813589,-73.9444821,1,10027,OK,street_address
238,ROOFTOP,"259 W 116th St, New York, NY 10026, USA",ChIJl3-Cvhb2wokR_x5KNKKlikI,"259 WEST 116 STREET, Harlem-Central, Manhattan, NY, USA",40.8044873,-73.9548681,1,10026,OK,street_address
239,ROOFTOP,"251 W 116th St, New York, NY 10026, USA",ChIJJegNuRb2wokRVm7BrDulRN4,"251 WEST 116 STREET, Harlem-Central, Manhattan, NY, USA",40.8043583,-73.9545691,1,10026,OK,premise
240,ROOFTOP,"243 W 116th St, New York, NY 10026, USA",ChIJM-c9uBb2wokR3s1lEELCip0,"243 WEST 116 STREET, Harlem-Central, Manhattan, NY, USA",40.8041966,-73.9544184,1,10026,OK,street_address
241,ROOFTOP,"2232 Adam Clayton Powell Jr Blvd, New York, NY 10027, USA",ChIJ3dzvOnL2wokR6NS4uALROo4,"2232 -2240 ADAM C POWELL BLVD, Harlem-Central, Manhattan, NY, USA",40.8132574,-73.945649,1,10027,OK,premise
242,ROOFTOP,"261 W 131st St, New York, NY 10027, USA",ChIJK6MEB3L2wokRFTFMiiqGQTQ,"261 WEST 131 STREET, Harlem-Central, Manhattan, NY, USA",40.813813,-73.9475891,1,10027,OK,premise
243,ROOFTOP,"263 W 132nd St, New York, NY 10027, USA",ChIJDSUT93H2wokR9w2N82H73SM,"263 WEST 132 STREET, Harlem-Central, Manhattan, NY, USA",40.8143703,-73.9469003,1,10027,OK,premise
244,ROOFTOP,"2252 Adam Clayton Powell Jr Blvd, New York, NY 10027, USA",ChIJZd_mKXL2wokRQiFZhJCR44Y,"2252 ADAM C POWELL BLVD, Harlem-Central, Manhattan, NY, USA",40.8138326,-73.9451062,1,10027,OK,street_address
245,ROOFTOP,"2254 Adam Clayton Powell Jr Blvd, New York, NY 10027, USA",ChIJS1SzgHH2wokRXwXu5VAyvUs,"2254 ADAM C POWELL BLVD, Harlem-Central, Manhattan, NY, USA",40.8139565,-73.9451438,1,10027,OK,premise
246,ROOFTOP,"2256 Adam Clayton Powell Jr Blvd, New York, NY 10027, USA",ChIJh3fQgHH2wokRbNulaW7Qp8c,"2256 ADAM C POWELL BLVD, Harlem-Central, Manhattan, NY, USA",40.8140336,-73.9451438,1,10027,OK,premise
247,ROOFTOP,"2258 Adam Clayton Powell Jr Blvd, New York, NY 10027, USA",ChIJGeElgXH2wokRl8t9vKwh4fI,"2258 ADAM C POWELL BLVD, Harlem-Central, Manhattan, NY, USA",40.81406399999999,-73.94497799999999,1,10027,OK,street_address
248,ROOFTOP,"204 W 133rd St, New York, NY 10030, USA",ChIJYaMjhnH2wokRFDaK-MjuZq0,"204 WEST 133 STREET, Harlem-Central, Manhattan, NY, USA",40.814163,-73.9455112,1,10030,OK,premise
249,ROOFTOP,"206 W 133rd St, New York, NY 10030, USA",ChIJHbk1iXH2wokRsWs5BviKL-I,"206 WEST 133 STREET, Harlem-Central, Manhattan, NY, USA",40.8142146,-73.945603,1,10030,OK,premise
250,ROOFTOP,"269 W 132nd St, New York, NY 10027, USA",ChIJPUr9-XH2wokRbASqp7TsQwo,"269 WEST 132 STREET, Harlem-Central, Manhattan, NY, USA",40.814435,-73.947009,1,10027,OK,street_address
251,ROOFTOP,"261 W 132nd St, New York, NY 10027, USA",ChIJXSQe93H2wokRF6ZRMnQ6EXw,"261 WEST 132 STREET, Harlem-Central, Manhattan, NY, USA",40.8143381,-73.94686279999999,1,10027,OK,street_address
252,ROOFTOP,"215 W 134th St, New York, NY 10030, USA",ChIJvykMoHH2wokRi7aY3xQjqk0,"215 WEST 134TH STREET, Harlem-Central, Manhattan, NY, USA",40.815146,-73.94483199999999,1,10030,OK,street_address
253,ROOFTOP,"2300 Adam Clayton Powell Jr Blvd, New York, NY 10030, USA",ChIJv6OjGnH2wokRKUwbAJbacxg,"2300 ADAM C POWELL BLVD, Harlem-Central, Manhattan, NY, USA",40.81562479999999,-73.9439606,1,10030,OK,street_address
254,ROOFTOP,"2302 Adam Clayton Powell Jr Blvd, New York, NY 10030, USA",ChIJTfv2GnH2wokRrjPuOlmk2eo,"2302 ADAM C POWELL BLVD, Harlem-Central, Manhattan, NY, USA",40.8156689,-73.9439039,1,10030,OK,premise
255,ROOFTOP,"2304 Adam Clayton Powell Jr Blvd, New York, NY 10030, USA",ChIJWYwBG3H2wokRXHF6oH25BAk,"2304 ADAM C POWELL BLVD, Harlem-Central, Manhattan, NY, USA",40.8157461,-73.94388150000002,1,10030,OK,street_address
256,ROOFTOP,"2306 Adam Clayton Powell Jr Blvd, New York, NY 10030, USA",ChIJ1-2VG3H2wokRdCrfTMHcme0,"2306 ADAM C POWELL BLVD, Harlem-Central, Manhattan, NY, USA",40.8157649,-73.94376609999999,1,10030,OK,premise
257,ROOFTOP,"2308 Adam Clayton Powell Jr Blvd, New York, NY 10030, USA",ChIJwYV1HHH2wokRw4SWz_b2nUo,"2308 ADAM C POWELL BLVD, Harlem-Central, Manhattan, NY, USA",40.8158661,-73.9438036,1,10030,OK,street_address
258,ROOFTOP,"2310 Adam Clayton Powell Jr Blvd, New York, NY 10030, USA",ChIJc3qDHnH2wokRVvbfdweIYYo,"2310 ADAM C POWELL BLVD, Harlem-Central, Manhattan, NY, USA",40.8159446,-73.9436743,1,10030,OK,premise
259,ROOFTOP,"242 W 136th St, New York, NY 10030, USA",ChIJJQezVXD2wokRpwGTTO1U_kg,"242 WEST 136 STREET, Harlem-Central, Manhattan, NY, USA",40.8165436,-73.9449716,1,10030,OK,premise
260,ROOFTOP,"239 W 136th St, New York, NY 10030, USA",ChIJ22Gz-XD2wokR0xdlpF_FDvQ,"239 WEST 136, Harlem-Central, Manhattan, NY, USA",40.8168099,-73.944609,1,10030,OK,street_address
261,ROOFTOP,"239 W 136th St, New York, NY 10030, USA",ChIJ22Gz-XD2wokR0xdlpF_FDvQ,"239 WEST 136, Harlem-Central, Manhattan, NY, USA",40.8168099,-73.944609,1,10030,OK,street_address
262,ROOFTOP,"239 W 136th St, New York, NY 10030, USA",ChIJ22Gz-XD2wokR0xdlpF_FDvQ,"239 WEST 136, Harlem-Central, Manhattan, NY, USA",40.8168099,-73.944609,1,10030,OK,street_address
263,ROOFTOP,"239 W 136th St, New York, NY 10030, USA",ChIJ22Gz-XD2wokR0xdlpF_FDvQ,"239 WEST 136, Harlem-Central, Manhattan, NY, USA",40.8168099,-73.944609,1,10030,OK,street_address
264,ROOFTOP,"161 Morningside Ave, New York, NY 10027, USA",ChIJ2zGehGz2wokR78osY5Hmk5E,"161 MORNINGSIDE AVENUE, Harlem-Central, Manhattan, NY, USA",40.8121037,-73.95331279999999,1,10027,OK,street_address
265,ROOFTOP,"370 W 127th St, New York, NY 10027, USA",ChIJ8aseiWz2wokRquHfIqNCqH8,"370 WEST 127TH STREET, Harlem-Central, Manhattan, NY, USA",40.8122912,-73.95267489999999,1,10027,OK,premise
266,ROOFTOP,"372 W 127th St, New York, NY 10027, USA",ChIJDcvxiGz2wokRGmOue0rRqig,"372 WEST 127 STREET, Harlem-Central, Manhattan, NY, USA",40.8123428,-73.9527667,1,10027,OK,premise
267,ROOFTOP,"175 Morningside Ave, New York, NY 10027, USA",ChIJgSfph2z2wokRluPnS0Tx4CQ,"175 MORNINGSIDE AVENUE, Harlem-Central, Manhattan, NY, USA",40.81248,-73.952939,1,10027,OK,street_address
268,ROOFTOP,"373 W 126th St, New York, NY 10027, USA",ChIJN6UchWz2wokRp7FBDy1z3NE,"373 WEST 126 STREET, Harlem-Central, Manhattan, NY, USA",40.812052,-73.95304500000002,1,10027,OK,street_address
269,ROOFTOP,"237 W 137th St, New York, NY 10030, USA",ChIJN0Yd7XD2wokR7n88xaM-ka8,"237 WEST 137 STREET, Harlem-Central, Manhattan, NY, USA",40.8174733,-73.94419090000001,1,10030,OK,premise
270,ROOFTOP,"207 W 144th St, New York, NY 10030, USA",ChIJef8IaXn2wokRStqDiUmQGs0,"207 WEST 144TH ST, 5C, Harlem-Central, Manhattan, NY, USA",40.8214993,-73.9401841,1,10030,OK,premise
271,ROOFTOP,"2484 Adam Clayton Powell Jr Blvd #2486, New York, NY 10030, USA",ChIJNxDwEHn2wokROyP0sB75Q4Y,"2484-2486 ADAM C POWELL BLVD, Harlem-Central, Manhattan, NY, USA",40.821344,-73.9397906,1,10030,OK,subpremise
272,ROOFTOP,"224 W 149th St, New York, NY 10039, USA",ChIJXwUiHX_2wokRZPWEfhivtq8,"224 WEST 149 STREET, Harlem-Central, Manhattan, NY, USA",40.8246498,-73.9387605,1,10039,OK,premise
273,ROOFTOP,"2913 Frederick Douglass Blvd, New York, NY 10039, USA",ChIJmx6waYD2wokRkLGJCNvYKVs,"2913 8TH AVENUE, Harlem-Central, Manhattan, NY, USA",40.828765,-73.937888,1,10039,OK,premise
274,ROOFTOP,"129 Edgecombe Ave, New York, NY 10030, USA",ChIJBQnX-nr2wokR9nddqtYAfSE,"129 EDGECOMBE AVENUE, Harlem-Central, Manhattan, NY, USA",40.820877,-73.94549599999999,1,10030,OK,street_address
275,ROOFTOP,"622 St Nicholas Ave, New York, NY 10030, USA",ChIJGYGx5nr2wokRhmvlaQFkAfM,"622 ST NICHOLAS AVENUE, Harlem-Central, Manhattan, NY, USA",40.82108729999999,-73.9459579,1,10030,OK,street_address
276,ROOFTOP,"614 St Nicholas Ave, New York, NY 10030, USA",ChIJv2Jz5nr2wokRyus8khpkgh4,"614 ST NICHOLAS AVENUE, Harlem-Central, Manhattan, NY, USA",40.8208905,-73.94592449999999,1,10030,OK,premise
277,ROOFTOP,"610 St Nicholas Ave, New York, NY 10030, USA",ChIJq02h6Hr2wokRUkuIwMWDEr0,"610 ST NICHOLAS AVENUE, Harlem-Central, Manhattan, NY, USA",40.8207814,-73.9459704,1,10030,OK,premise
278,ROOFTOP,"606 St Nicholas Ave, New York, NY 10030, USA",ChIJe8Ef6Xr2wokRJi3bhQvRKcE,"606 ST NICHOLAS AVENUE, Harlem-Central, Manhattan, NY, USA",40.820647,-73.946,1,10030,OK,street_address
279,ROOFTOP,"133 Edgecombe Ave, New York, NY 10030, USA",ChIJe9kiAnv2wokRMaLokHFEIHM,"133 EDGECOMBE AVENUE, Harlem-Central, Manhattan, NY, USA",40.8213771,-73.9452816,1,10030,OK,premise
280,ROOFTOP,"135 Edgecombe Ave, New York, NY 10030, USA",ChIJN9UwAnv2wokReEWVCDtALNw,"135 EDGECOMBE AVENUE, Harlem-Central, Manhattan, NY, USA",40.8214542,-73.9452816,1,10030,OK,premise
281,ROOFTOP,"137 Edgecombe Ave, New York, NY 10030, USA",ChIJ5SjFA3v2wokRyQKLdVVZ4RU,"137 EDGECOMBE AVENUE, Harlem-Central, Manhattan, NY, USA",40.8215248,-73.9452357,1,10030,OK,premise
282,ROOFTOP,"139 Edgecombe Ave, New York, NY 10030, USA",ChIJFSBaAXv2wokRm49f-_vqpV4,"139 EDGECOMBE AVENUE, Harlem-Central, Manhattan, NY, USA",40.8215503,-73.9451438,1,10030,OK,premise
283,ROOFTOP,"363 Edgecombe Ave, New York, NY 10031, USA",ChIJazucBX72wokRhbrmAiLv4Ys,"363 EDGECOMBE AVENUE, Harlem-Central, Manhattan, NY, USA",40.8275983,-73.94133219999999,1,10031,OK,premise
284,ROOFTOP,"40 W 127th St, New York, NY 10027, USA",ChIJy7wntwz2wokRiays6oyNLbI,"40 WEST 127TH STREET, Harlem-Central, Manhattan, NY, USA",40.8081814,-73.9430314,1,10027,OK,premise
285,ROOFTOP,"1919 Madison Ave, New York, NY 10035, USA",ChIJN1iN7Av2wokRQlYRo7JmcZM,"1919 MADISON AVENUE, 306, Harlem-Central, Manhattan, NY, USA",40.8045686,-73.9410797,2,10035,OK,premise
286,ROOFTOP,"1919 Madison Ave, New York, NY 10035, USA",ChIJN1iN7Av2wokRQlYRo7JmcZM,"1919 MADISON AVENUE, 616, Harlem-Central, Manhattan, NY, USA",40.8045686,-73.9410797,2,10035,OK,premise
287,ROOFTOP,"1919 Madison Ave, New York, NY 10035, USA",ChIJN1iN7Av2wokRQlYRo7JmcZM,"1919 MADISON AVENUE, 317, Harlem-Central, Manhattan, NY, USA",40.8045686,-73.9410797,2,10035,OK,premise
288,ROOFTOP,"2041 5th Ave, New York, NY 10035, USA",ChIJT2oTXQv2wokRspeamryeoG4,"2041 FIFTH AVENUE, 6G, Harlem-Central, Manhattan, NY, USA",40.8072295,-73.94135519999999,1,10035,OK,premise
289,ROOFTOP,"57 E 130th St, New York, NY 10037, USA",ChIJx0vEPnX2wokRZ5QXnQMsynM,"57 EAST 130 STREET, Harlem-Central, Manhattan, NY, USA",40.8088782,-73.93769759999999,1,10037,OK,street_address
290,ROOFTOP,"17-25 St Nicholas Ave, New York, NY 10026, USA",ChIJtYXPDRr2wokRfYCXhdiA8vI,"17-25 ST NICHOLAS AVENUE, Harlem-Central, Manhattan, NY, USA",40.799736,-73.9526686,1,10026,OK,street_address
291,ROOFTOP,"124 W 114th St, New York, NY 10026, USA",ChIJAeMLyBD2wokRgD_PW1PDTiY,"124 WEST 114 STREET, Harlem-Central, Manhattan, NY, USA",40.8015509,-73.9529275,1,10026,OK,street_address
292,ROOFTOP,"120 W 116th St, New York, NY 10026, USA",ChIJCQXm_RD2wokRMCfVo86D0cs,"120 WEST 116 STREET, Harlem-Central, Manhattan, NY, USA",40.8023598,-73.95115950000002,1,10026,OK,premise
293,ROOFTOP,"1917 Adam Clayton Powell Jr Blvd, New York, NY 10026, USA",ChIJcyfQIxH2wokRPhk3SN1tQAM,"1917 ADAM C POWELL BLVD, Harlem-Central, Manhattan, NY, USA",40.8029364,-73.9523687,1,10026,OK,street_address
294,ROOFTOP,"241 W 113th St, New York, NY 10026, USA",ChIJbcqoFRf2wokR-XHYRPtYl6k,"241 WEST 113 STREET, Harlem-Central, Manhattan, NY, USA",40.8019622,-73.9552075,1,10026,OK,street_address
295,ROOFTOP,"181 W 135th St, New York, NY 10030, USA",ChIJ8xCtO3H2wokRP76i_OE3NZE,"181 WEST 135 STREET, Harlem-Central, Manhattan, NY, USA",40.815213,-73.9427329,1,10030,OK,premise
296,ROOFTOP,"239 W 116th St, New York, NY 10026, USA",ChIJUeWntxb2wokRkQpTatqfRM4,"239 WEST 116 STREET, Harlem-Central, Manhattan, NY, USA",40.8042241,-73.9542362,1,10026,OK,premise
297,ROOFTOP,"112 W 138th St, New York, NY 10030, USA",ChIJE048PXf2wokR3Im3F7PjKyY,"112 WEST 138 STREET, Harlem-Central, Manhattan, NY, USA",40.8164003,-73.9405104,1,10030,OK,street_address
298,ROOFTOP,"110 W 116th St, New York, NY 10026, USA",ChIJAaGbVRD2wokRiPbQUa4lS2c,"110 WEST 116 STREET, Harlem-Central, Manhattan, NY, USA",40.8021577,-73.95061989999999,1,10026,OK,premise
299,ROOFTOP,"2368 Adam Clayton Powell Jr Blvd, New York, NY 10030, USA",ChIJnWnlsHD2wokRk6pC4DZ-u8Y,"2368 ADAM CLAYTON POWELL BLVD., Harlem-Central, Manhattan, NY, USA",40.8176118,-73.94238849999999,1,10030,OK,premise
300,ROOFTOP,"124 E 101st St, New York, NY 10029, USA",ChIJPeqKjadYwokRKoYbchVsBN0,"124 EAST 101 STREET, Harlem-East, Manhattan, NY, USA",40.7892301,-73.94947189999999,1,10029,OK,premise
301,ROOFTOP,"168 E 111th St, New York, NY 10029, USA",ChIJGYLbagT2wokR1mmr6WEQiUk,"168 EAST 111 STREET, Harlem-East, Manhattan, NY, USA",40.7950259,-73.94339719999999,1,10029,OK,premise
302,ROOFTOP,"168 E 111th St, New York, NY 10029, USA",ChIJGYLbagT2wokR1mmr6WEQiUk,"168 EAST 111 STREET, Harlem-East, Manhattan, NY, USA",40.7950259,-73.94339719999999,1,10029,OK,premise
303,ROOFTOP,"271 Pleasant Ave, New York, NY 10029, USA",ChIJ5-6rvv31wokRMoDypYU6ewU,"271 PLEASANT AVENUE, Harlem-East, Manhattan, NY, USA",40.7941262,-73.9341566,1,10029,OK,premise
304,ROOFTOP,"352 E 116th St, New York, NY 10029, USA",ChIJQeNGiAf2wokRxlkrCpNg_bI,"352 EAST 116 STREET, Harlem-East, Manhattan, NY, USA",40.7960365,-73.93606249999999,1,10029,OK,premise
305,ROOFTOP,"412 E 120th St, New York, NY 10035, USA",ChIJl2hwJ-P1wokRbSnmIx9mzQI,"412 EAST 120 STREET, Harlem-East, Manhattan, NY, USA",40.7981624,-73.9329855,1,10035,OK,premise
306,ROOFTOP,"170 E 111th St, New York, NY 10029, USA",ChIJ1ffUagT2wokRzy170uH3S3M,"170 EAST 111 STREET, Harlem-East, Manhattan, NY, USA",40.7950001,-73.9433513,1,10029,OK,premise
307,ROOFTOP,"170 E 111th St, New York, NY 10029, USA",ChIJ1ffUagT2wokRzy170uH3S3M,"170 EAST 111 STREET, Harlem-East, Manhattan, NY, USA",40.7950001,-73.9433513,1,10029,OK,premise
308,ROOFTOP,"226 E 112th St, New York, NY 10029, USA",ChIJqehtvQb2wokRNRno_5y5QBA,"226 EAST 112 STREET, Harlem-East, Manhattan, NY, USA",40.794734,-73.9408615,1,10029,OK,premise
309,ROOFTOP,"415 E 116th St, New York, NY 10029, USA",ChIJe5ssbf31wokR3d02ABVY5vs,"415 EAST 116TH ST, Harlem-East, Manhattan, NY, USA",40.7958719,-73.934501,1,10029,OK,premise
310,ROOFTOP,"417 E 118th St, New York, NY 10035, USA",ChIJ1UCcLv31wokRkoYdSSM1jk4,"417 EAST 118 STREET, Harlem-East, Manhattan, NY, USA",40.79711,-73.9335826,1,10035,OK,premise
311,ROOFTOP,"513 E 118th St, New York, NY 10035, USA",ChIJS6BNufz1wokRP5CIeu0Gx7U,"513 EAST 118TH STREET, Harlem-East, Manhattan, NY, USA",40.796201,-73.931258,1,10035,OK,street_address
312,ROOFTOP,"511 E 118th St, New York, NY 10035, USA",ChIJEe4qufz1wokRV2ueZJQq1WU,"511 EAST 118TH STREET, Harlem-East, Manhattan, NY, USA",40.7962175,-73.9313781,1,10035,OK,premise
313,ROOFTOP,"1513 Lexington Ave, New York, NY 10029, USA",ChIJs7z8T6ZYwokRCI425tMAxGY,"1513 LEXINGTON AVENUE, 2S, Harlem-East, Manhattan, NY, USA",40.7868286,-73.9498737,1,10029,OK,premise
314,ROOFTOP,"1511 Lexington Ave, New York, NY 10029, USA",ChIJheCtWqZYwokRSVz1n0po0aA,"1511 LEXINGTON AVENUE, 8, Harlem-East, Manhattan, NY, USA",40.7868097,-73.9500115,1,10029,OK,premise
315,ROOFTOP,"118 E 102nd St, New York, NY 10029, USA",ChIJseVaXx32wokRC_bYit0o42s,"118 EAST 102ND STREET, Harlem-East, Manhattan, NY, USA",40.7897768,-73.94890939999999,1,10029,OK,premise
316,ROOFTOP,"166 E 105th St, New York, NY 10029, USA",ChIJq1D46AL2wokRWBcfhMFaUJg,"166 EAST 105 STREET, Harlem-East, Manhattan, NY, USA",40.7910894,-73.94608459999999,1,10029,OK,premise
317,ROOFTOP,"162 E 109th St, New York, NY 10029, USA",ChIJISX-gwP2wokRGSKA83qZtZs,"162-164 EAST 109 STREET, Harlem-East, Manhattan, NY, USA",40.793748,-73.944447,1,10029,OK,street_address
318,ROOFTOP,"164 E 111th St, New York, NY 10029, USA",ChIJC0hfagT2wokRdEnxslvUBas,"164 EAST 111 STREET, Harlem-East, Manhattan, NY, USA",40.7950808,-73.943512,1,10029,OK,premise
319,ROOFTOP,"164 E 111th St, New York, NY 10029, USA",ChIJC0hfagT2wokRdEnxslvUBas,"164 EAST 111 STREET, Harlem-East, Manhattan, NY, USA",40.7950808,-73.943512,1,10029,OK,premise
320,ROOFTOP,"166 E 111th St, New York, NY 10029, USA",ChIJww7vagT2wokRnJ3ZZodfJYA,"166 EAST 111 STREET, Harlem-East, Manhattan, NY, USA",40.795055,-73.9434661,1,10029,OK,premise
321,ROOFTOP,"166 E 111th St, New York, NY 10029, USA",ChIJww7vagT2wokRnJ3ZZodfJYA,"166 EAST 111 STREET, Harlem-East, Manhattan, NY, USA",40.795055,-73.9434661,1,10029,OK,premise
322,ROOFTOP,"2039 2nd Ave, New York, NY 10029, USA",ChIJJaa4FAL2wokRcZcLs6yBV80,"2039 2ND AVENUE, Harlem-East, Manhattan, NY, USA",40.7899559,-73.943264,1,10029,OK,street_address
323,ROOFTOP,"2232 1st Avenue, New York, NY 10029, USA",ChIJB8kogf31wokR2Gzb9tsafoI,"2232 1 AVENUE, Harlem-East, Manhattan, NY, USA",40.7949961,-73.9357295,1,10029,OK,premise
324,ROOFTOP,"451 E 116th St, New York, NY 10029, USA",ChIJjYahA_31wokR79RMBD8uiTU,"451 EAST 116 STREET, Harlem-East, Manhattan, NY, USA",40.795369,-73.93320369999999,1,10029,OK,premise
325,ROOFTOP,"455 E 116th St, New York, NY 10029, USA",ChIJmWVTAv31wokRdnttjBM01cE,"455 EAST 116 STREET, Harlem-East, Manhattan, NY, USA",40.7953386,-73.9332029,1,10029,OK,street_address
326,ROOFTOP,"221 E 118th St, New York, NY 10035, USA",ChIJ4VUtaQj2wokRz3UJRWcoaZk,"221 EAST 118 STREET, Harlem-East, Manhattan, NY, USA",40.7990038,-73.93794539999999,1,10035,OK,premise
327,ROOFTOP,"2321 1st Avenue, New York, NY 10035, USA",ChIJ1cCEyeL1wokRI6YcwZqRvqs,"2321 1 AVENUE, Harlem-East, Manhattan, NY, USA",40.7978781,-73.9343059,1,10035,OK,premise
328,ROOFTOP,"320 E 120th St, New York, NY 10035, USA",ChIJZ-0zluL1wokREahy58GCYck,"320 EAST 120 STREET, Harlem-East, Manhattan, NY, USA",40.798945,-73.935046,1,10035,OK,street_address
329,ROOFTOP,"235 E 105th St, New York, NY 10029, USA",ChIJC3xXQQL2wokR3TPc-0GwaN0,"235 EAST 105 STREET, Harlem-East, Manhattan, NY, USA",40.790519,-73.94368399999999,1,10029,OK,street_address
330,ROOFTOP,"346 E 105th St, New York, NY 10029, USA",ChIJX-BZ-wH2wokRJxDXFLMGrjI,"346 EAST 105 STREET, Harlem-East, Manhattan, NY, USA",40.7889486,-73.9411945,1,10029,OK,premise
331,ROOFTOP,"158 E 110th St, New York, NY 10029, USA",ChIJ07t3egT2wokRdcjtDjEhwf8,"158 EAST 110TH STREET, Harlem-East, Manhattan, NY, USA",40.7943418,-73.94413349999999,1,10029,OK,premise
332,ROOFTOP,"2034 Third Ave, New York, NY 10029, USA",ChIJWXSbJgT2wokRpuNE0ELLCa4,"2034 3RD AVENUE, Harlem-East, Manhattan, NY, USA",40.7953783,-73.9422048,1,10029,OK,premise
333,ROOFTOP,"2034 Third Ave, New York, NY 10029, USA",ChIJWXSbJgT2wokRpuNE0ELLCa4,"2034 3 AVENUE, Harlem-East, Manhattan, NY, USA",40.7953783,-73.9422048,1,10029,OK,premise
334,ROOFTOP,"2243 1st Avenue, New York, NY 10029, USA",ChIJOcWygAf2wokR1RLFAjLwuQs,"2243 1 AVENUE, Harlem-East, Manhattan, NY, USA",40.7956072,-73.9359592,1,10029,OK,premise
335,ROOFTOP,"533 W 141st St, New York, NY 10031, USA",ChIJiTwGYWT2wokREAnZiyC3J5I,"533 WEST 141 STREET, Harlem-Upper, Manhattan, NY, USA",40.8233269,-73.9509763,1,10031,OK,street_address
336,ROOFTOP,"642 W 138th St, New York, NY 10031, USA",ChIJmVLRXmb2wokR5Dyy0M5TWJc,"642 WEST 138 STREET, Harlem-Upper, Manhattan, NY, USA",40.8225982,-73.9554186,1,10031,OK,premise
337,ROOFTOP,"463 W 143rd St, New York, NY 10031, USA",ChIJQYpaq2T2wokRAHu75jSJdtM,"463 WEST 143RD STREET, Harlem-Upper, Manhattan, NY, USA",40.82386400000001,-73.947789,1,10031,OK,street_address
338,ROOFTOP,"475 W 146th St, New York, NY 10031, USA",ChIJcURMw3z2wokR-XduZb6CYZE,"475 WEST 146TH STREET, Harlem-Upper, Manhattan, NY, USA",40.8258845,-73.9464811,1,10031,OK,street_address
339,ROOFTOP,"518 W 150th St, New York, NY 10031, USA",ChIJywMRWH32wokRzCdI08Hgc7o,"518 WEST 150TH STREET, Harlem-Upper, Manhattan, NY, USA",40.828611,-73.94621149999999,1,10031,OK,premise
340,ROOFTOP,"3686 Broadway, New York, NY 10031, USA",ChIJRzHgzof2wokRvOrmDYlKak8,"3686 BROADWAY, Harlem-Upper, Manhattan, NY, USA",40.8309407,-73.9467396,1,10031,OK,premise
341,ROOFTOP,"620 W 148th St, New York, NY 10031, USA",ChIJGcUSjmL2wokRNhjx8xgZov8,"620 WEST 148 STREET, Harlem-Upper, Manhattan, NY, USA",40.828516,-73.950031,1,10031,OK,street_address
342,ROOFTOP,"455 W 141st St, New York, NY 10031, USA",ChIJQ5SGz2T2wokReWSc4ZLGXYw,"455 WEST 141 STREET, Harlem-Upper, Manhattan, NY, USA",40.822517,-73.948455,1,10031,OK,street_address
343,ROOFTOP,"423 W 147th St, New York, NY 10031, USA",ChIJMckEVHz2wokR0QoCDQsX57U,"423 WEST 147 STREET, Harlem-Upper, Manhattan, NY, USA",40.825855,-73.944476,1,10031,OK,street_address
344,ROOFTOP,"524 W 150th St, New York, NY 10031, USA",ChIJX_ZvXn32wokRwYkWuvcv7Dk,"524 WEST 150 STREET, Harlem-Upper, Manhattan, NY, USA",40.828613,-73.946406,1,10031,OK,street_address
345,ROOFTOP,"517 W 152nd St, New York, NY 10031, USA",ChIJk-7wo4f2wokRbHrR-5yl1Qw,"517 WEST 152 STREET, Harlem-Upper, Manhattan, NY, USA",40.8302239,-73.9452242,1,10031,OK,premise
346,ROOFTOP,"634 W 147th St, New York, NY 10031, USA",ChIJx1w8X2L2wokR1k9QoJ6sKOE,"634 WEST 147 STREET, Harlem-Upper, Manhattan, NY, USA",40.828027,-73.950801,1,10031,OK,street_address
347,ROOFTOP,"460 W 141st St, New York, NY 10031, USA",ChIJec1x3GT2wokR3f4SuK9ksYw,"460 WEST 141 STREET, Harlem-Upper, Manhattan, NY, USA",40.8222645,-73.94887489999999,1,10031,OK,premise
348,ROOFTOP,"453 W 141st St, New York, NY 10031, USA",ChIJ1-ORz2T2wokRJaKlOKwtJNs,"453 WEST 141 STREET, Harlem-Upper, Manhattan, NY, USA",40.8224722,-73.9484387,1,10031,OK,premise
349,ROOFTOP,"468 W 142nd St, New York, NY 10031, USA",ChIJW_UHx2T2wokRzPXvvasFAF8,"468 WEST 142, Harlem-Upper, Manhattan, NY, USA",40.82291300000001,-73.948657,1,10031,OK,street_address
350,ROOFTOP,"468 W 145th St, New York, NY 10031, USA",ChIJzYgLsXz2wokR-TAqS_TbTEk,"468 WEST 145 STREET, Harlem-Upper, Manhattan, NY, USA",40.82486859999999,-73.9472677,1,10031,OK,premise
351,ROOFTOP,"563 W 140th St, New York, NY 10031, USA",ChIJKXsrR2T2wokR8dSrmV5B3DY,"563 WEST 140 STREET, Harlem-Upper, Manhattan, NY, USA",40.823191,-73.951984,1,10031,OK,street_address
352,ROOFTOP,"542 W 142nd St, New York, NY 10031, USA",ChIJZftJe2T2wokRIhqRzb-lTdA,"542 W 142 ST, Harlem-Upper, Manhattan, NY, USA",40.8240108,-73.9511251,1,10031,OK,premise
353,ROOFTOP,"528 W 143rd St, New York, NY 10031, USA",ChIJ3T75f2P2wokRNkt6Z0JuZ4c,"528 WEST 143 STREET, Harlem-Upper, Manhattan, NY, USA",40.824575,-73.950661,1,10031,OK,street_address
354,ROOFTOP,"1728 Amsterdam Ave, New York, NY 10031, USA",ChIJGVnqzHz2wokRp3zqMiUOYeo,"1728 AMSTERDAM AVENUE, Harlem-Upper, Manhattan, NY, USA",40.8257509,-73.947639,1,10031,OK,street_address
355,ROOFTOP,"1730 Amsterdam Ave, New York, NY 10031, USA",ChIJ0Xr_zHz2wokRaUWgkB4rR5k,"1730 AMSTERDAM AVENUE, Harlem-Upper, Manhattan, NY, USA",40.8257784,-73.9474522,1,10031,OK,street_address
356,ROOFTOP,"510 W 146th St, New York, NY 10031, USA",ChIJ5xh2LWP2wokRw6gyHjwY6GY,"510 WEST 146 STREET, Harlem-Upper, Manhattan, NY, USA",40.82602809999999,-73.9478991,1,10031,OK,premise
357,ROOFTOP,"544 W 148th St, New York, NY 10031, USA",ChIJbcBSymL2wokRaJ4GJLbWQtM,"544 WEST 148TH STREET, Harlem-Upper, Manhattan, NY, USA",40.82772240000001,-73.9479565,1,10031,OK,premise
358,ROOFTOP,"532 W 148th St, New York, NY 10031, USA",ChIJYW5YM332wokRy6S_us77cxg,"532 WEST 148TH STREET, Harlem-Upper, Manhattan, NY, USA",40.8275836,-73.9476538,1,10031,OK,street_address
359,ROOFTOP,"550 W 149th St, New York, NY 10031, USA",ChIJ8x57TX32wokRWrBof3mDGxs,"550 WEST 149 STREET, Harlem-Upper, Manhattan, NY, USA",40.8284024,-73.9475891,1,10031,OK,premise
360,ROOFTOP,"501 W 150th St, New York, NY 10031, USA",ChIJo2TRiYf2wokR7QkOXtcGnds,"501 WEST 150 STREET, Harlem-Upper, Manhattan, NY, USA",40.8287799,-73.94574399999999,1,10031,OK,premise
361,ROOFTOP,"624 W 139th St, New York, NY 10031, USA",ChIJa3HEjmb2wokRguiwey7Fj7w,"624 WEST 139 STREET, Harlem-Upper, Manhattan, NY, USA",40.8230122,-73.95460349999999,1,10031,OK,premise
362,ROOFTOP,"628 W 139th St, New York, NY 10031, USA",ChIJj94WjGb2wokRZAAy1pDI6CE,"628 WEST 139 STREET, Harlem-Upper, Manhattan, NY, USA",40.823041,-73.95477699999999,1,10031,OK,street_address
363,ROOFTOP,"470 Convent Ave, New York, NY 10031, USA",ChIJm3ywi332wokR9ZnT4hblWIQ,"470 CONVENT AVENUE, 31, Harlem-Upper, Manhattan, NY, USA",40.8282176,-73.9436513,2,10031,OK,premise
364,ROOFTOP,"3440 Broadway, New York, NY 10031, USA",ChIJyUpBP2T2wokREqh0hDAOpTc,"3440 BROADWAY, Harlem-Upper, Manhattan, NY, USA",40.8232571,-73.9522616,1,10031,OK,street_address
365,ROOFTOP,"3427 Broadway, New York, NY 10031, USA",ChIJ717VJWT2wokRB49LFKdplzc,"3427 BROADWAY, Harlem-Upper, Manhattan, NY, USA",40.82322,-73.95329439999999,1,10031,OK,street_address
366,ROOFTOP,"617 W 143rd St, New York, NY 10031, USA",ChIJRVpm62P2wokR6wg5fmJgO-8,"617 WEST 143 STREET, Harlem-Upper, Manhattan, NY, USA",40.8256694,-73.9522846,1,10031,OK,premise
367,ROOFTOP,"3661 Broadway, New York, NY 10031, USA",ChIJDZAidIj2wokRLkQyd7lRV-w,"3661 BROADWAY, Harlem-Upper, Manhattan, NY, USA",40.8305395,-73.9480073,1,10031,OK,street_address
368,ROOFTOP,"1848 Amsterdam Ave, New York, NY 10031, USA",ChIJHy8GnYf2wokR-gomxCIAumw,"1848 AMSTERDAM AVENUE, Harlem-Upper, Manhattan, NY, USA",40.829387,-73.9448069,1,10031,OK,street_address
369,ROOFTOP,"445 W 125th St #125, New York, NY 10027, USA",ChIJ0ajGC2v2wokRP5AmEUBmE-A,"445 WEST 125 STREET, 27, Harlem-West, Manhattan, NY, USA",40.8127472,-73.9553383,1,10027,OK,"beauty_salon,establishment,point_of_interest"
370,ROOFTOP,"1437 Amsterdam Ave, New York, NY 10027, USA",ChIJP6amSmn2wokRf4uaGiUilMo,"1437 AMSTERDAM AVE, Harlem-West, Manhattan, NY, USA",40.8164031,-73.9538633,1,10027,OK,street_address
371,ROOFTOP,"556 W 126th St, New York, NY 10027, USA",ChIJpWaoiWn2wokR_dmcZT01Prk,"556 WEST 126 STREET, Harlem-West, Manhattan, NY, USA",40.815805,-73.957515,1,10027,OK,street_address
372,ROOFTOP,"502 W 135th St, New York, NY 10031, USA",ChIJy4SQSG_2wokR-h3_xNsKJH4,"502 WEST 135 STREET, Harlem-West, Manhattan, NY, USA",40.8189158,-73.9529045,1,10031,OK,premise
373,ROOFTOP,"512 W 135th St, New York, NY 10031, USA",ChIJfas2s2j2wokRaDTUmw7RhPA,"512 WEST 135TH STREET, 22, Harlem-West, Manhattan, NY, USA",40.8191811,-73.9536851,3,10031,OK,premise
374,ROOFTOP,"1588 Amsterdam Ave, New York, NY 10031, USA",ChIJGYSxp2X2wokRoF21MSVHwTc,"1588-1600 AMSTERDAM AVENUE, Harlem-West, Manhattan, NY, USA",40.8212584,-73.9507996,1,10031,OK,street_address
375,ROOFTOP,"40 Adrian Ave, The Bronx, NY 10463, USA",ChIJBUwbP5PzwokR90XKAWXPJ9I,"40 ADRIAN AVENUE, Inwood, Manhattan, NY, USA",40.8766934,-73.91121559999999,1,10463,OK,premise
376,ROOFTOP,"36 Van Corlear Pl, The Bronx, NY 10463, USA",ChIJWyaZFZPzwokRoKcoEXep0no,"36 VAN CORLEAR PLACE, Inwood, Manhattan, NY, USA",40.8766711,-73.91092499999999,1,10463,OK,premise
377,ROOFTOP,"165 W 228th St, The Bronx, NY 10463, USA",ChIJ5TYTgJPzwokRwaKQy718ySM,"165 WEST 228TH STREET, Inwood, Manhattan, NY, USA",40.877735,-73.9094452,1,10463,OK,premise
378,ROOFTOP,"646 W 207th St, New York, NY 10034, USA",ChIJEYFlPffzwokRyDmGJO8B1RE,"646 WEST 207 STREET, Inwood, Manhattan, NY, USA",40.8686562,-73.92228159999999,1,10034,OK,premise
379,ROOFTOP,"26 Fort Charles Pl, The Bronx, NY 10463, USA",ChIJqWRjHJPzwokRy4SLpB56yvo,"26 FORT CHARLES PLACE, Inwood, Manhattan, NY, USA",40.8758285,-73.910478,1,10463,OK,street_address
380,ROOFTOP,"9 Post Ave, New York, NY 10034, USA",ChIJhd-TKwb0wokRN0HIaOyf7KY,"9 POST AVENUE, Inwood, Manhattan, NY, USA",40.862537,-73.92452999999999,1,10034,OK,street_address
381,ROOFTOP,"278 Nagle Ave, New York, NY 10034, USA",ChIJORh3wgn0wokRNicqd9Xctmk,"278 NAGLE AVENUE, 1C, Inwood, Manhattan, NY, USA",40.8636267,-73.9198888,2,10034,OK,street_address
382,ROOFTOP,"590 W 204th St, New York, NY 10034, USA",ChIJ-wp5KAj0wokR4hkFupcMURc,"590 WEST 204 STREET, Inwood, Manhattan, NY, USA",40.864728,-73.922004,1,10034,OK,street_address
383,ROOFTOP,"517 W 212th St, New York, NY 10034, USA",ChIJW6cnEfTzwokR8Jk5eH3Xcsk,"517 WEST 212TH STREET, Inwood, Manhattan, NY, USA",40.8682512,-73.9174737,1,10034,OK,premise
384,ROOFTOP,"429 11th Ave, New York, NY 10001, USA",ChIJBdPBg2P2wokRg96tvVaRWLE,"451 WEST 36TH STREET, Javits Center, Manhattan, NY, USA",40.7570157,-74.0012677,1,10001,OK,"establishment,point_of_interest"
385,ROOFTOP,"429 11th Ave, New York, NY 10001, USA",ChIJBdPBg2P2wokRg96tvVaRWLE,"493-495 NINTH AVENUE, Javits Center, Manhattan, NY, USA",40.7570157,-74.0012677,1,10001,OK,"establishment,point_of_interest"
386,ROOFTOP,"537 9th Ave, New York, NY 10018, USA",ChIJMahKsFJYwokRg9j4aluNSHM,"537 9 AVENUE, Javits Center, Manhattan, NY, USA",40.7570901,-73.99386679999999,2,10018,OK,premise
387,ROOFTOP,"343 E 18th St, New York, NY 10003, USA",ChIJvQYDOXVZwokRMZT1mNw1628,"343 EAST 18TH ST, Kips Bay, Manhattan, NY, USA",40.7343043,-73.981343,1,10003,OK,premise
388,ROOFTOP,"304 E 18th St, New York, NY 10003, USA",ChIJywJmWXVZwokRjA300G81LpM,"304 EAST 18TH STREET, Kips Bay, Manhattan, NY, USA",40.7344301,-73.98271,1,10003,OK,premise
389,ROOFTOP,"345 E 33rd St, New York, NY 10016, USA",ChIJGR2geQ9ZwokRhuxBdp8ccUE,"345 EAST 33RD STREET, Kips Bay, Manhattan, NY, USA",40.7435359,-73.9744782,1,10016,OK,premise
390,ROOFTOP,"301 1st Avenue, New York, NY 10003, USA",ChIJBUuYFHVZwokRO0vrdDC_YiA,"301 1 AVENUE, Kips Bay, Manhattan, NY, USA",40.7336,-73.981431,1,10003,OK,street_address
391,ROOFTOP,"1 Centre Market Pl, New York, NY 10013, USA",ChIJeyCqrIlZwokRzfuYZDILAFo,"1 CENTRE MARKET PLACE, Little Italy, Manhattan, NY, USA",40.7198065,-73.99772899999999,1,10013,OK,premise
392,ROOFTOP,"38 Prince St, New York, NY 10012, USA",ChIJ6Xp3Wo9ZwokRYCu7SbHwQho,"38 PRINCE STREET, Little Italy, Manhattan, NY, USA",40.72287600000001,-73.99525899999999,1,10012,OK,street_address
393,ROOFTOP,"172 Elizabeth St, New York, NY 10012, USA",ChIJGZuLH4ZZwokRoFkQSlupJrg,"172 ELIZABETH STREET, Little Italy, Manhattan, NY, USA",40.72099010000001,-73.9947225,1,10012,OK,street_address
394,ROOFTOP,"247 Mulberry St, New York, NY 10012, USA",ChIJzxmxR49ZwokRe556eDcUfCY,"247 MULBERRY STREET, Little Italy, Manhattan, NY, USA",40.7230751,-73.9960648,1,10012,OK,premise
395,ROOFTOP,"51 Spring St, New York, NY 10012, USA",ChIJxRTVy4hZwokRuMH_oVj2gQg,"51 SPRING STREET, Little Italy, Manhattan, NY, USA",40.7221166,-73.9963862,1,10012,OK,premise
396,ROOFTOP,"149 Rivington St, New York, NY 10002, USA",ChIJS_ewp4FZwokROp-ZKWVDVGM,"149 RIVINGTON STREET, Lower East Side, Manhattan, NY, USA",40.7191962,-73.98578619999999,1,10002,OK,premise
397,ROOFTOP,"110 Madison St, New York, NY 10002, USA",ChIJ1fuw_iVawokRL5CAiGDwNaA,"110 MADISON STREET, Lower East Side, Manhattan, NY, USA",40.71197189999999,-73.9950574,1,10002,OK,premise
398,ROOFTOP,"121 Norfolk St, New York, NY 10002, USA",ChIJhYN7IoFZwokRRJpV-bpofUk,"121 NORFOLK STREET, Lower East Side, Manhattan, NY, USA",40.7193978,-73.9870203,1,10002,OK,premise
399,RANGE_INTERPOLATED,"137 Rivington St, New York, NY 10002, USA",EikxMzcgUml2aW5ndG9uIFN0LCBOZXcgWW9yaywgTlkgMTAwMDIsIFVTQSIbEhkKFAoSCb3zBgyBWcKJET8kICd0r7vxEIkB,"137 RIVINGTON STREET, Lower East Side, Manhattan, NY, USA",40.7192985,-73.9864509,1,10002,OK,street_address
400,ROOFTOP,"249 Broome St, New York, NY 10002, USA",ChIJyaSzOIdZwokRgZ58XfxZmoY,"249 BROOME STREET, Lower East Side, Manhattan, NY, USA",40.7178541,-73.98996269999999,1,10002,OK,premise
401,ROOFTOP,"122 Ludlow St, New York, NY 10002, USA",ChIJd0YeMYFZwokRv6wbFaXVDzI,"122 LUDLOW STREET, Lower East Side, Manhattan, NY, USA",40.7196328,-73.9883579,1,10002,OK,premise
402,ROOFTOP,"124 Ludlow St, New York, NY 10002, USA",ChIJXfMiMYFZwokRBJWaHG9RDAs,"124 LUDLOW STREET, Lower East Side, Manhattan, NY, USA",40.7196523,-73.9884113,1,10002,OK,street_address
403,ROOFTOP,"149 Ludlow St, New York, NY 10002, USA",ChIJ9SyEUIFZwokRxLrLr-D_y-8,"149 LUDLOW ST, 2R, Lower East Side, Manhattan, NY, USA",40.7208024,-73.9881738,2,10002,OK,premise
404,ROOFTOP,"245 Eldridge St, New York, NY 10002, USA",ChIJuxzGbIRZwokRuc_83yMAnzU,"245 ELDRIDGE STREET, Lower East Side, Manhattan, NY, USA",40.7227817,-73.98991269999999,1,10002,OK,premise
405,ROOFTOP,"187 Chrystie St, New York, NY 10002, USA",ChIJ9fmgeIZZwokRfMYL3CI3xDc,"187 CHRYSTIE STREET, Lower East Side, Manhattan, NY, USA",40.7218009,-73.99225419999999,1,10002,OK,premise
406,ROOFTOP,"87 Hester St, New York, NY 10002, USA",ChIJeUu10ylawokRWjmCSwIvPbw,"87 HESTER STREET, Lower East Side, Manhattan, NY, USA",40.7163139,-73.991547,1,10002,OK,street_address
407,ROOFTOP,"303 E Houston St, New York, NY 10002, USA",ChIJ7U9HBYJZwokRyNo-fmD_pJI,"303 EAST HOUSTON STREET, Lower East Side, Manhattan, NY, USA",40.721162,-73.9836873,1,10002,OK,premise
408,ROOFTOP,"48 Clinton St, New York, NY 10002, USA",ChIJA0kt64FZwokR_aBodtCf15c,"48 CLINTON STREET, Lower East Side, Manhattan, NY, USA",40.719669,-73.98447,1,10002,OK,street_address
409,ROOFTOP,"145 Bowery, New York, NY 10002, USA",ChIJcUmC0IdZwokRaUXu2swO7zg,"145 BOWERY, Lower East Side, Manhattan, NY, USA",40.71902000000001,-73.994235,1,10002,OK,street_address
410,ROOFTOP,"151 Bowery, New York, NY 10002, USA",ChIJCeSx0YdZwokRfoG7gFm2594,"151 BOWERY, Lower East Side, Manhattan, NY, USA",40.719187,-73.9942452,1,10002,OK,street_address
411,ROOFTOP,"8 Manhattan Ave, New York, NY 10025, USA",ChIJDW7tFyH2wokRL00tCE0BvSU,"8 MANHATTAN AVENUE, Manhattan Valley, Manhattan, NY, USA",40.7949782,-73.96378729999999,1,10025,OK,premise
412,ROOFTOP,"4 Manhattan Ave, New York, NY 10025, USA",ChIJfesOGCH2wokRmLHa0iSxS44,"4 MANHATTAN AVENUE, Manhattan Valley, Manhattan, NY, USA",40.7949141,-73.9638791,1,10025,OK,premise
413,ROOFTOP,"12 W 104th St, New York, NY 10025, USA",ChIJeYPbLiL2wokR5B5i95aWXaU,"12 WEST 104 STREET, Manhattan Valley, Manhattan, NY, USA",40.7969087,-73.96190469999999,1,10025,OK,premise
414,ROOFTOP,"4 W 108th St, New York, NY 10025, USA",ChIJaaPAnCL2wokRRGeR8SCUd-o,"4-6 WEST 108 STREET, Manhattan Valley, Manhattan, NY, USA",40.799385,-73.959767,1,10025,OK,street_address
415,ROOFTOP,"8 W 108th St, New York, NY 10025, USA",ChIJ5_RumyL2wokRqVnd-5tckJg,"8-10 WEST 108 STREET, Manhattan Valley, Manhattan, NY, USA",40.799451,-73.959924,1,10025,OK,street_address
416,ROOFTOP,"302 W 112th St, New York, NY 10026, USA",ChIJi7jylBf2wokRaa7w0QBRqiE,"302 WEST 112TH STREET, Manhattan Valley, Manhattan, NY, USA",40.8019174,-73.9578753,1,10026,OK,premise
417,ROOFTOP,"310 W 112th St, New York, NY 10026, USA",ChIJi6At6xf2wokRa2_BFS7k0yw,"310 WEST 112TH STREET, Manhattan Valley, Manhattan, NY, USA",40.8020482,-73.9581853,1,10026,OK,premise
418,ROOFTOP,"309 W 113th St, New York, NY 10026, USA",ChIJ1Y2KsRf2wokRS6AALPwICqo,"309 WEST 113 STREET, Manhattan Valley, Manhattan, NY, USA",40.802992,-73.957391,1,10026,OK,street_address
419,ROOFTOP,"307 W 113th St, New York, NY 10026, USA",ChIJs4b7sRf2wokRvcxqqsGJtCE,"307 WEST 113 STREET, Manhattan Valley, Manhattan, NY, USA",40.802957,-73.957314,1,10026,OK,street_address
420,ROOFTOP,"305 W 113th St, New York, NY 10026, USA",ChIJeVEQrhf2wokRpY9lSx2aJFs,"305 WEST 113 STREET, Manhattan Valley, Manhattan, NY, USA",40.8029269,-73.957234,1,10026,OK,street_address
421,ROOFTOP,"2095 Frederick Douglass Blvd, New York, NY 10026, USA",ChIJmRgVrxf2wokRRzpM15LStVM,"2095 FREDRICK DOUGLASS BL, Manhattan Valley, Manhattan, NY, USA",40.8027788,-73.9571352,1,10026,OK,street_address
422,ROOFTOP,"2099 Frederick Douglass Blvd, New York, NY 10026, USA",ChIJ1bYlrxf2wokRO0xBQohA7ps,"2099 FREDRICK DOUGLASS BL, Manhattan Valley, Manhattan, NY, USA",40.80279729999999,-73.9569454,1,10026,OK,premise
423,ROOFTOP,"2107 Frederick Douglass Blvd, New York, NY 10026, USA",ChIJGyoCqxf2wokR9cqawFfWQCE,"2107 FREDRICK DOUGLASS BL, Manhattan Valley, Manhattan, NY, USA",40.8030775,-73.9567131,1,10026,OK,street_address
424,ROOFTOP,"2109 Frederick Douglass Blvd, New York, NY 10026, USA",ChIJ1ardqhf2wokRDi0ZOniEUhw,"2109 FREDRICK DOUGLASS BL, Manhattan Valley, Manhattan, NY, USA",40.8031805,-73.9567734,1,10026,OK,street_address
425,ROOFTOP,"345 Manhattan Ave, New York, NY 10026, USA",ChIJXduVRhb2wokRj5GyCUbILTc,"345 MANHATTAN AVENUE, Manhattan Valley, Manhattan, NY, USA",40.8041808,-73.9577261,1,10026,OK,premise
426,ROOFTOP,"347 Manhattan Ave, New York, NY 10026, USA",ChIJHXpWQRb2wokRRk_X0XX8Sck,"347 MANHATTAN AVENUE, Manhattan Valley, Manhattan, NY, USA",40.8042899,-73.9576802,1,10026,OK,premise
427,ROOFTOP,"349 Manhattan Ave, New York, NY 10026, USA",ChIJU9thQRb2wokRLoAeEad-2Fw,"349 MANHATTAN AVENUE, Manhattan Valley, Manhattan, NY, USA",40.804358,-73.95765999999999,1,10026,OK,street_address
428,ROOFTOP,"6 Morningside Ave, New York, NY 10026, USA",ChIJ86qyQBb2wokR4tETXLwyca0,"6 MORNINGSIDE AVENUE, Manhattan Valley, Manhattan, NY, USA",40.8042971,-73.9580016,1,10026,OK,premise
429,ROOFTOP,"10 Manhattan Ave #16, New York, NY 10025, USA",ChIJ53DyFiH2wokRqKN_I60bWgM,"10-16 MANHATTAN AVENUE, Manhattan Valley, Manhattan, NY, USA",40.79516170000001,-73.9636744,1,10025,OK,subpremise
430,ROOFTOP,"6 W 107th St, New York, NY 10025, USA",ChIJ_8cbiCL2wokRR2Rp3EulEKc,"6 WEST 107TH STREET, Manhattan Valley, Manhattan, NY, USA",40.7988331,-73.96025159999999,1,10025,OK,premise
431,ROOFTOP,"7 W 108th St, New York, NY 10025, USA",ChIJ61CknyL2wokRy6NZjVgl6Qk,"7-9 WEST 108 STREET, Manhattan Valley, Manhattan, NY, USA",40.799819,-73.959645,1,10025,OK,street_address
432,ROOFTOP,"3 W 108th St, New York, NY 10025, USA",ChIJta5_dRj2wokR4w5i5u82_gE,"3-5 WEST 108 STREET, Manhattan Valley, Manhattan, NY, USA",40.799754,-73.959484,1,10025,OK,street_address
433,ROOFTOP,"306 W 112th St, New York, NY 10026, USA",ChIJPbg76xf2wokRfEi5i8swvlk,"306 WEST 112TH STREET, Manhattan Valley, Manhattan, NY, USA",40.801962,-73.958085,1,10026,OK,street_address
434,ROOFTOP,"1632 York Ave, New York, NY 10028, USA",ChIJuy2VvLBYwokROhX3U6aBQsY,"1632 YORK AVENUE, Manhattan-Unknown, Manhattan, NY, USA",40.7756602,-73.9469462,1,10028,OK,premise
435,ROOFTOP,"1630 York Ave, New York, NY 10028, USA",ChIJ36ZNo7BYwokRnKv9olE44NE,"1630 YORK AVENUE, Manhattan-Unknown, Manhattan, NY, USA",40.7756564,-73.9470137,1,10028,OK,premise
436,ROOFTOP,"337 E 82nd St, New York, NY 10028, USA",ChIJUQL0Z7lYwokRdsTBFrA2uBo,"337 EAST 82ND STREET, Manhattan-Unknown, Manhattan, NY, USA",40.7748442,-73.9521239,1,10028,OK,premise
437,ROOFTOP,"1624 York Ave, New York, NY 10028, USA",ChIJY07qpLBYwokRbbjrUBSVNKk,"1624 YORK AVENUE, Manhattan-Unknown, Manhattan, NY, USA",40.7755344,-73.9471056,1,10028,OK,premise
438,ROOFTOP,"333 E 82nd St, New York, NY 10028, USA",ChIJD1ETXblYwokRBttqCk9PtXk,"333 EAST 82ND STREET, Manhattan-Unknown, Manhattan, NY, USA",40.7749071,-73.95222720000001,1,10028,OK,premise
439,ROOFTOP,"335 E 82nd St, New York, NY 10028, USA",ChIJO1ddXblYwokRh4hLxk8MzOY,"335 EAST 82ND STREET, Manhattan-Unknown, Manhattan, NY, USA",40.7748813,-73.95218129999999,1,10028,OK,premise
440,ROOFTOP,"1626 York Ave, New York, NY 10028, USA",ChIJ1Y-8pLBYwokRkVMHo0fdpZs,"1626 YORK AVENUE, Manhattan-Unknown, Manhattan, NY, USA",40.7755697,-73.9470826,1,10028,OK,premise
441,ROOFTOP,"221 W 17th St, New York, NY 10011, USA",ChIJXay-QLxZwokRgm5-HMKb5OU,"221-225 WEST 17TH STREET, 3AB, Manhattan-Unknown, Manhattan, NY, USA",40.741006,-73.999295,1,10011,OK,street_address
442,ROOFTOP,"1628 York Ave, New York, NY 10028, USA",ChIJqR2opLBYwokRQbx5aHr1__8,"1628 YORK AVENUE, Manhattan-Unknown, Manhattan, NY, USA",40.7756211,-73.9470367,1,10028,OK,premise
443,ROOFTOP,"5 W 51st St, New York, NY 10020, USA",ChIJ0_CyVvlYwokRrRgeDCWyAH8,"5 EAST 51ST STREET, Midtown Cbd, Manhattan, NY, USA",40.7596076,-73.9774833,2,10020,OK,street_address
444,ROOFTOP,"216 E 50th St, New York, NY 10022, USA",ChIJeYF23OJYwokRlFO2ADLzjqw,"216 EAST 50TH STREET, Midtown East, Manhattan, NY, USA",40.755334,-73.970134,1,10022,OK,street_address
445,ROOFTOP,"306 E 51st St, New York, NY 10022, USA",ChIJsfgWUuJYwokRBIBfvg2htVo,"306 EAST 51ST STREET, Midtown East, Manhattan, NY, USA",40.75515240000001,-73.9676623,1,10022,OK,premise
446,ROOFTOP,"13 Sutton Pl, New York, NY 10022, USA",ChIJFTRmW-dYwokRH0HdSHnYxcQ,"13 SUTTON PLACE, Midtown East, Manhattan, NY, USA",40.7576908,-73.9601713,1,10022,OK,premise
447,ROOFTOP,"4 Sutton Square, New York, NY 10022, USA",ChIJBc_SXudYwokRPlVgAFRJAqU,"4 SUTTON SQUARE, Midtown East, Manhattan, NY, USA",40.7577256,-73.9598728,1,10022,OK,premise
448,ROOFTOP,"209 E 48th St, New York, NY 10017, USA",ChIJR6bXteJYwokRzZz0fTlPHKs,"209 EAST 48TH STREET, Midtown East, Manhattan, NY, USA",40.7544899,-73.97089199999999,1,10017,OK,street_address
449,ROOFTOP,"413 E 50th St, New York, NY 10022, USA",ChIJ79CWH-JYwokRexwH6G3jdU8,"413 EAST 50TH STREET, Midtown East, Manhattan, NY, USA",40.7537862,-73.96550069999999,1,10022,OK,premise
450,ROOFTOP,"331 E 50th St, New York, NY 10022, USA",ChIJF3YgROJYwokRYuXyvNOKCDQ,"331 EAST 50TH STREET, Midtown East, Manhattan, NY, USA",40.75452430000001,-73.9671802,1,10022,OK,premise
451,ROOFTOP,"323 E 51st St, New York, NY 10022, USA",ChIJjSTXSuJYwokRQt1agn5yRJI,"323 EAST 51ST STREET, Midtown East, Manhattan, NY, USA",40.75529299999999,-73.96701790000002,1,10022,OK,premise
452,ROOFTOP,"410 E 50th St, New York, NY 10022, USA",ChIJe5D3G-JYwokRQizBq0rZxdY,"410 EAST 50TH STREET, Midtown East, Manhattan, NY, USA",40.7535333,-73.9657537,1,10022,OK,premise
453,ROOFTOP,"409 E 50th St, New York, NY 10022, USA",ChIJlU5kH-JYwokRKH75Yx2xQcw,"409 EAST 50TH STREET, Midtown East, Manhattan, NY, USA",40.7538411,-73.9656155,1,10022,OK,premise
454,ROOFTOP,"222 E 56th St, New York, NY 10022, USA",ChIJM0TwauRYwokRWsy4lI0w9CI,"222 EAST 56TH STREET, Midtown East, Manhattan, NY, USA",40.7587129,-73.9668867,1,10022,OK,street_address
455,ROOFTOP,"328 E 53rd St, New York, NY 10022, USA",ChIJ9x6z3ONYwokRICPI_3hcgC8,"328 EAST 53RD STREET, Midtown East, Manhattan, NY, USA",40.7561467,-73.9660993,1,10022,OK,premise
456,ROOFTOP,"401 E 57th St, New York, NY 10022, USA",ChIJv2dDPedYwokRNDMiW9ZeHCk,"401 EAST 57TH STREET, Midtown East, Manhattan, NY, USA",40.7584227,-73.9626049,1,10022,OK,premise
457,ROOFTOP,"340 W 48th St, New York, NY 10036, USA",ChIJFW6vrVZYwokRUYMQ7sH82ks,"340 WEST 48TH STREET, Midtown West, Manhattan, NY, USA",40.7616079,-73.9888232,1,10036,OK,premise
458,ROOFTOP,"351 W 48th St, New York, NY 10036, USA",ChIJW5dytVZYwokRrkfumn6srAI,"351 WEST 48TH STREET, Midtown West, Manhattan, NY, USA",40.762015,-73.988739,1,10036,OK,street_address
459,ROOFTOP,"271 W 47th St, New York, NY 10036, USA",ChIJORJGIVRYwokR-hkqIEgJBW8,"271 WEST 47TH STREET, Midtown West, Manhattan, NY, USA",40.7604095,-73.9870518,1,10036,OK,street_address
460,ROOFTOP,"932 8th Ave, New York, NY 10019, USA",ChIJc0JOBFhYwokRTbBeYOaH9OM,"932 EIGHTH AVENUE, Midtown West, Manhattan, NY, USA",40.7654583,-73.9834735,1,10019,OK,premise
461,ROOFTOP,"88 Morningside Dr, New York, NY 10027, USA",ChIJb7DrmxX2wokR5b02WMNHsuE,"88 MORNINGSIDE DRIVE, 6D, Morningside Heights, Manhattan, NY, USA",40.8080466,-73.9584237,2,10027,OK,street_address
462,ROOFTOP,"97 Claremont Ave, New York, NY 10027, USA",ChIJzTu3h0D2wokRFZgxH7jwiaI,"97-101 CLAREMONT AVENUE, Morningside Heights, Manhattan, NY, USA",40.8119818,-73.9625779,1,10027,OK,street_address
463,ROOFTOP,"155 Lexington Ave, New York, NY 10016, USA",ChIJCQeIQAhZwokRyqZOmX2T508,"155 LEXINGTON AVENUE, Murray Hill, Manhattan, NY, USA",40.7436099,-73.9815064,1,10016,OK,premise
464,ROOFTOP,"150 E 38th St, New York, NY 10016, USA",ChIJ5QFHpwZZwokRnB9Pzg0mv7A,"150 EAST 38TH STREET, Murray Hill, Manhattan, NY, USA",40.7484643,-73.97719479999999,1,10016,OK,premise
465,ROOFTOP,"138 E 30th St, New York, NY 10016, USA",ChIJIYLiQwhZwokRX8TgAF8rUqo,"138 EAST 30TH STREET, Murray Hill, Manhattan, NY, USA",40.743459,-73.981166,1,10016,OK,street_address
466,ROOFTOP,"222 E 31st St, New York, NY 10016, USA",ChIJp3qe6ghZwokRtyjdQlwYJbM,"222 EAST 31ST STREET, Murray Hill, Manhattan, NY, USA",40.7432755,-73.97861329999999,1,10016,OK,premise
467,ROOFTOP,"237 E 32nd St, New York, NY 10016, USA",ChIJfyyZrghZwokRvbpQr7iOKeA,"237 EAST 32ND STREET, Murray Hill, Manhattan, NY, USA",40.744041,-73.97751699999999,1,10016,OK,street_address
468,ROOFTOP,"205 E 31st St, New York, NY 10016, USA",ChIJW328lghZwokR8R7cAZ6vvVI,"205 EAST 31ST STREET, Murray Hill, Manhattan, NY, USA",40.743755,-73.97889099999999,1,10016,OK,street_address
469,ROOFTOP,"141 E 36th St, New York, NY 10016, USA",ChIJTT0fjgZZwokRidcWhe-ORpM,"141 EAST 36TH STREET, Murray Hill, Manhattan, NY, USA",40.7476115,-73.97815299999999,1,10016,OK,premise
470,ROOFTOP,"143 E 36th St, New York, NY 10016, USA",ChIJrdUujgZZwokRqFmRwH-0ggU,"143 EAST 36TH STREET, Murray Hill, Manhattan, NY, USA",40.7475824,-73.97808409999999,1,10016,OK,premise
471,ROOFTOP,"123 E 39th St, New York, NY 10016, USA",ChIJo6S8TwFZwokRnyind2zvGUw,"123 EAST 39TH STREET, Murray Hill, Manhattan, NY, USA",40.74988870000001,-73.9777802,1,10016,OK,premise
472,ROOFTOP,"344 Lexington Ave, New York, NY 10016, USA",ChIJXbdeVwFZwokRiMJY7gaLwRI,"344 LEXINGTON AVENUE, Murray Hill, Manhattan, NY, USA",40.74997159999999,-73.97741289999999,1,10016,OK,premise
473,ROOFTOP,"519 2nd Ave, New York, NY 10016, USA",ChIJNVWjIglZwokRfPxVyzuBo0Y,"519 SECOND AVENUE, Murray Hill, Manhattan, NY, USA",40.7416716,-73.9785298,1,10016,OK,premise
474,ROOFTOP,"254 E 33rd St, New York, NY 10016, USA",ChIJufafVg9ZwokRODCfgyPvZiw,"254 EAST 33RD STREET, Murray Hill, Manhattan, NY, USA",40.7441105,-73.97675459999999,1,10016,OK,premise
475,ROOFTOP,"118 Madison Ave, New York, NY 10016, USA",ChIJdevSe6hZwokRC8PK8htNqUw,"118 MADISON AVENUE, Murray Hill, Manhattan, NY, USA",40.7454428,-73.9849611,1,10016,OK,premise
476,ROOFTOP,"157 Lexington Ave, New York, NY 10016, USA",ChIJxVBqQAhZwokRodG5PtkGITM,"157 LEXINGTON AVENUE, Murray Hill, Manhattan, NY, USA",40.7436997,-73.9816463,1,10016,OK,street_address
477,ROOFTOP,"164 Lexington Ave, New York, NY 10016, USA",ChIJ67JGEwhZwokRn9J9XpJSB0I,"164 LEXINGTON AVENUE, Murray Hill, Manhattan, NY, USA",40.7441693,-73.9816428,1,10016,OK,premise
478,ROOFTOP,"169 Lexington Ave, New York, NY 10016, USA",ChIJbZrDbghZwokR9AHrY9Rwvpo,"169 LEXINGTON AVE, Murray Hill, Manhattan, NY, USA",40.7440878,-73.9810701,1,10016,OK,premise
479,ROOFTOP,"165 Lexington Ave, New York, NY 10016, USA",ChIJjVaNZghZwokRg2kNX0rYD6o,"165 LEXINGTON AVENUE, Murray Hill, Manhattan, NY, USA",40.7439156,-73.9810127,1,10016,OK,premise
480,ROOFTOP,"550 Third Ave, New York, NY 10016, USA",ChIJifPAggZZwokRv0c532PGOyg,"550 3 AVENUE, Murray Hill, Manhattan, NY, USA",40.7474345,-73.9772461,1,10016,OK,premise
481,ROOFTOP,"125 E 39th St, New York, NY 10016, USA",ChIJB_itUQFZwokRyUSi4frmKKE,"125 EAST 39TH STREET, Murray Hill, Manhattan, NY, USA",40.7498869,-73.97769989999999,1,10016,OK,premise
482,ROOFTOP,"167 Lexington Ave, New York, NY 10016, USA",ChIJjVaNZghZwokRF856lq3JxIw,"167 LEXINGTON AVENUE, Murray Hill, Manhattan, NY, USA",40.7439993,-73.9810586,1,10016,OK,premise
483,ROOFTOP,"237 E 31st St, New York, NY 10016, USA",ChIJh6dIuAhZwokRZJ4va7ZUqY0,"237 EAST 31ST STREET, Murray Hill, Manhattan, NY, USA",40.74339579999999,-73.9779705,1,10016,OK,premise
484,ROOFTOP,"112 E 40th St, New York, NY 10016, USA",ChIJTRVMWwFZwokRWCcWfBSYu8M,"112 EAST 40TH STREET, Murray Hill, Manhattan, NY, USA",40.7503037,-73.97784910000001,1,10016,OK,premise
485,ROOFTOP,"53 Wooster St, New York, NY 10013, USA",ChIJS_eejotZwokRgZAXoRXxAx0,"53 WOOSTER STREET, Soho, Manhattan, NY, USA",40.7228698,-74.0024885,1,10013,OK,street_address
486,ROOFTOP,"30 Sullivan St, New York, NY 10012, USA",ChIJiU6_9YxZwokRhUJB-kmVxH4,"30 SULLIVAN STREET, Soho, Manhattan, NY, USA",40.7249141,-74.00391189999999,1,10012,OK,street_address
487,ROOFTOP,"191 Spring St, New York, NY 10012, USA",ChIJ6Vc4UIxZwokRdBgBJ2fA7uU,"191 SPRING STREET, Soho, Manhattan, NY, USA",40.72529189999999,-74.0029167,1,10012,OK,premise
488,ROOFTOP,"15 Vandam St, New York, NY 10013, USA",ChIJeUzGGo1ZwokRWdGegQT2Avs,"15 VANDAM STREET, Soho, Manhattan, NY, USA",40.7265315,-74.0043743,1,10013,OK,premise
489,ROOFTOP,"574 Broome St, New York, NY 10013, USA",ChIJuQ3LTfNZwokR6F0vP7SyRGc,"574 BROOME STREET, Soho, Manhattan, NY, USA",40.7246301,-74.0067615,1,10013,OK,premise
490,ROOFTOP,"35 Crosby St, New York, NY 10013, USA",ChIJ3Qy9colZwokRYo-XYaNgW8Q,"35 CROSBY STREET, Soho, Manhattan, NY, USA",40.7208597,-73.99923260000001,1,10013,OK,premise
491,ROOFTOP,"212 Lafayette St, New York, NY 10012, USA",ChIJNan6JolZwokRJjv4JWBBPlc,"212 LAFAYETTE STREET, Soho, Manhattan, NY, USA",40.7218433,-73.9979534,1,10012,OK,premise
492,ROOFTOP,"489 Broadway, New York, NY 10012, USA",ChIJ1ZB7W4lZwokRvcAtxGK8FJY,"489 BROADWAY, Soho, Manhattan, NY, USA",40.722036,-73.99994989999999,1,10012,OK,street_address
493,ROOFTOP,"26 Vandam St, New York, NY 10013, USA",ChIJUxXMH41ZwokRfw0qNAaT2CM,"26 VANDAM STREET, Soho, Manhattan, NY, USA",40.7261397,-74.0048793,1,10013,OK,premise
494,ROOFTOP,"145 Spring St, New York, NY 10012, USA",ChIJuTv1IoxZwokRsZ1JojCHloE,"145 SPRING STREET, Soho, Manhattan, NY, USA",40.724391,-74.0012114,1,10012,OK,premise
495,ROOFTOP,"70 Charlton St, New York, NY 10014, USA",ChIJsTtdv_JZwokRjnINzot8oz8,"70 CHARLTON STREET, 7F, Soho, Manhattan, NY, USA",40.7270915,-74.0063323,1,10014,OK,"establishment,point_of_interest"
496,ROOFTOP,"70 Charlton St, New York, NY 10014, USA",ChIJsTtdv_JZwokRjnINzot8oz8,"70 CHARLTON STREET, 3E, Soho, Manhattan, NY, USA",40.7270915,-74.0063323,1,10014,OK,"establishment,point_of_interest"
497,ROOFTOP,"70 Charlton St, New York, NY 10014, USA",ChIJsTtdv_JZwokRjnINzot8oz8,"70 CHARLTON STREET, 3D, Soho, Manhattan, NY, USA",40.7270915,-74.0063323,1,10014,OK,"establishment,point_of_interest"
498,ROOFTOP,"70 Charlton St, New York, NY 10014, USA",ChIJsTtdv_JZwokRjnINzot8oz8,"70 CHARLTON STREET, 14E, Soho, Manhattan, NY, USA",40.7270915,-74.0063323,1,10014,OK,"establishment,point_of_interest"
499,ROOFTOP,"70 Charlton St, New York, NY 10014, USA",ChIJsTtdv_JZwokRjnINzot8oz8,"70 CHARLTON STREET, 6F, Soho, Manhattan, NY, USA",40.7270915,-74.0063323,1,10014,OK,"establishment,point_of_interest"
500,ROOFTOP,"70 Charlton St, New York, NY 10014, USA",ChIJsTtdv_JZwokRjnINzot8oz8,"70 CHARLTON STREET, 8D, Soho, Manhattan, NY, USA",40.7270915,-74.0063323,1,10014,OK,"establishment,point_of_interest"
501,ROOFTOP,"70 Charlton St, New York, NY 10014, USA",ChIJsTtdv_JZwokRjnINzot8oz8,"70 CHARLTON STREET, 15E, Soho, Manhattan, NY, USA",40.7270915,-74.0063323,1,10014,OK,"establishment,point_of_interest"
502,ROOFTOP,"70 Charlton St, New York, NY 10014, USA",ChIJsTtdv_JZwokRjnINzot8oz8,"70 CHARLTON STREET, PHA, Soho, Manhattan, NY, USA",40.7270915,-74.0063323,1,10014,OK,"establishment,point_of_interest"
503,ROOFTOP,"70 Charlton St, New York, NY 10014, USA",ChIJsTtdv_JZwokRjnINzot8oz8,"70 CHARLTON STREET, 17C, Soho, Manhattan, NY, USA",40.7270915,-74.0063323,1,10014,OK,"establishment,point_of_interest"
504,ROOFTOP,"70 Charlton St, New York, NY 10014, USA",ChIJsTtdv_JZwokRjnINzot8oz8,"70 CHARLTON STREET, 10C, Soho, Manhattan, NY, USA",40.7270915,-74.0063323,1,10014,OK,"establishment,point_of_interest"
505,ROOFTOP,"70 Charlton St, New York, NY 10014, USA",ChIJsTtdv_JZwokRjnINzot8oz8,"70 CHARLTON STREET, 12E, Soho, Manhattan, NY, USA",40.7270915,-74.0063323,1,10014,OK,"establishment,point_of_interest"
506,ROOFTOP,"40 Renwick St, New York, NY 10013, USA",ChIJSblIFPNZwokRMaMekdmU3OU,"40 RENWICK STREET, 3, Soho, Manhattan, NY, USA",40.7255361,-74.0082254,1,10013,OK,"establishment,point_of_interest"
507,ROOFTOP,"57 Grand St, New York, NY 10013, USA",ChIJ-3-iCotZwokRR-cxwoh4CMM,"57 GRAND STREET, Soho, Manhattan, NY, USA",40.7221345,-74.0035939,1,10013,OK,premise
508,ROOFTOP,"90 Beekman St, New York, NY 10038, USA",ChIJw3jXJyNawokR3AMLXyazZNs,"138 BEEKMAN STREET, Southbridge, Manhattan, NY, USA",40.7092476,-74.0033172,1,10038,OK,"establishment,point_of_interest"
509,ROOFTOP,"150 Reade St, New York, NY 10013, USA",ChIJD5139x5awokRt9JJvKNc-p8,"150 READE STREET, Tribeca, Manhattan, NY, USA",40.7167854,-74.010258,1,10013,OK,street_address
510,ROOFTOP,"39 Harrison St, New York, NY 10013, USA",ChIJWYTqFR5awokRvmXS78VbBlA,"39 HARRISON STREET, Tribeca, Manhattan, NY, USA",40.718539,-74.011006,1,10013,OK,street_address
511,ROOFTOP,"232 W Broadway, New York, NY 10013, USA",ChIJY9hgsopZwokRnnKCqexk6Ac,"232 WEST BROADWAY, Tribeca, Manhattan, NY, USA",40.7195821,-74.00628809999999,1,10013,OK,street_address
512,ROOFTOP,"431 Washington St, New York, NY 10013, USA",ChIJw3ZWXfRZwokRPtuq6cvRpvQ,"431 WASHINGTON STREET, Tribeca, Manhattan, NY, USA",40.7231114,-74.01014719999999,1,10013,OK,premise
513,ROOFTOP,"75 Warren St, New York, NY 10007, USA",ChIJgaC_zx5awokRy0CVnzfLNpk,"75 WARREN STREET, XX, Tribeca, Manhattan, NY, USA",40.7150196,-74.01030229999999,1,10007,OK,premise
514,ROOFTOP,"162 Chambers St, New York, NY 10007, USA",ChIJ5dSX6R5awokREoA6yvxfuac,"162 CHAMBERS STREET, Tribeca, Manhattan, NY, USA",40.7158496,-74.01048,1,10007,OK,premise
515,ROOFTOP,"41 Harrison St, New York, NY 10013, USA",ChIJl-eiFR5awokR9chfKhwpqGA,"41 HARRISON STREET, Tribeca, Manhattan, NY, USA",40.718489,-74.01101700000001,1,10013,OK,street_address
516,ROOFTOP,"325 Greenwich St, New York, NY 10013, USA",ChIJl2IrWx5awokRvwM7xQ1EhTM,"325 GREENWICH STREET, Tribeca, Manhattan, NY, USA",40.717558,-74.01040019999999,1,10013,OK,street_address
517,ROOFTOP,"186 Franklin St, New York, NY 10013, USA",ChIJ92uegfVZwokRq1MoyTovTlk,"186 FRANKLIN STREET, Tribeca, Manhattan, NY, USA",40.71959469999999,-74.0096154,1,10013,OK,premise
518,ROOFTOP,"34 Desbrosses St, New York, NY 10013, USA",ChIJL2-McvRZwokRsQSGRAe_mWs,"34 DESBROSSES STREET, Tribeca, Manhattan, NY, USA",40.7239312,-74.0106866,1,10013,OK,premise
519,ROOFTOP,"433 Washington St, New York, NY 10013, USA",ChIJoZfjZ_RZwokRTlfxS875g94,"433 WASHINGTON STREET, Tribeca, Manhattan, NY, USA",40.72318060000001,-74.01015869999999,1,10013,OK,premise
520,ROOFTOP,"44 Hudson St, New York, NY 10013, USA",ChIJmYO1pR9awokRNj7L3xegrug,"44 HUDSON STREET, Tribeca, Manhattan, NY, USA",40.7172692,-74.0087424,1,10013,OK,premise
521,ROOFTOP,"11 Hubert St, New York, NY 10013, USA",ChIJlUzVqfVZwokRsIuBPahBsgw,"11 HUBERT STREET, Tribeca, Manhattan, NY, USA",40.72120839999999,-74.0093693,1,10013,OK,street_address
522,ROOFTOP,"47 E 63rd St, New York, NY 10065, USA",ChIJ8yozVu5YwokRerEKIg4tYyQ,"47 EAST 63RD STREET, Upper East Side (59-79), Manhattan, NY, USA",40.76583,-73.968368,2,10065,OK,street_address
523,ROOFTOP,"46 E 66th St, New York, NY 10065, USA",ChIJ8VvKg-5YwokRrGaDaoPoRLg,"46 EAST 66TH STREET, Upper East Side (59-79), Manhattan, NY, USA",40.767617,-73.9678395,2,10065,OK,premise
524,ROOFTOP,"49 E 68th St, New York, NY 10065, USA",ChIJP4D-buxYwokR9pffIiJclrY,"49 EAST 68TH STREET, Upper East Side (59-79), Manhattan, NY, USA",40.7689719,-73.9661375,2,10065,OK,premise
525,ROOFTOP,"160 E 61st St, New York, NY 10065, USA",ChIJDYgZXO9YwokRDmv_mLDKLo4,"160 EAST 61ST STREET, Upper East Side (59-79), Manhattan, NY, USA",40.7630036,-73.9665998,2,10065,OK,premise
526,ROOFTOP,"101 E 63rd St, New York, NY 10065, USA",ChIJ-afS4-5YwokRgTgEj_Wy6iM,"101 EAST 63RD STREET, Upper East Side (59-79), Manhattan, NY, USA",40.765366,-73.967254,1,10065,OK,"establishment,museum,point_of_interest"
527,ROOFTOP,"174 E 64th St, New York, NY 10065, USA",ChIJ1Q5C1ehYwokRGZAarJoMtQU,"174 EAST 64 ST, Upper East Side (59-79), Manhattan, NY, USA",40.7649102,-73.96526589999999,2,10065,OK,premise
528,ROOFTOP,"140 E 65th St, New York, NY 10065, USA",ChIJrQPkMelYwokRNuhAQ8_bxUk,"140 EAST 65TH STREET, Upper East Side (59-79), Manhattan, NY, USA",40.765518,-73.964936,2,10065,OK,street_address
529,ROOFTOP,"172 E 71st St, New York, NY 10021, USA",ChIJVec_V-pYwokR31GwuUCSwb0,"172 EAST 71ST STREET, Upper East Side (59-79), Manhattan, NY, USA",40.7691364,-73.9618095,2,10021,OK,premise
530,ROOFTOP,"160 E 71st St, New York, NY 10021, USA",ChIJ2a7UVepYwokRnSMjWnXlXD8,"160 EAST 71ST STREET, Upper East Side (59-79), Manhattan, NY, USA",40.769272,-73.962085,2,10021,OK,premise
531,ROOFTOP,"134 E 74th St, New York, NY 10021, USA",ChIJ3Tec0upYwokRC2mfA4Dl1C4,"134 EAST 74TH STREET, Upper East Side (59-79), Manhattan, NY, USA",40.77183369999999,-73.961721,2,10021,OK,street_address
532,ROOFTOP,"154 E 74th St, New York, NY 10021, USA",ChIJ1aHitepYwokRmm4K8RkyyjM,"154 EAST 74TH STREET, Upper East Side (59-79), Manhattan, NY, USA",40.7714156,-73.960906,2,10021,OK,premise
533,ROOFTOP,"106 E 78th St, New York, NY 10075, USA",ChIJR2bgm5VYwokRPbP29ISOHo4,"106 EAST 78TH STREET, Upper East Side (59-79), Manhattan, NY, USA",40.7746334,-73.9605124,2,10075,OK,street_address
534,ROOFTOP,"215 E 61st St, New York, NY 10065, USA",ChIJp9APpOhYwokRgeQLkbC5-FQ,"215 EAST 61ST STREET, Upper East Side (59-79), Manhattan, NY, USA",40.7626133,-73.96479289999999,2,10065,OK,premise
535,ROOFTOP,"246 E 62nd St, New York, NY 10065, USA",ChIJm5VOmehYwokRh9ZjaPn--X4,"246 EAST 62ND STREET, Upper East Side (59-79), Manhattan, NY, USA",40.7625605,-73.9635988,2,10065,OK,premise
536,ROOFTOP,"253 E 61st St, New York, NY 10065, USA",ChIJf_VqIOZYwokRIfgLmDAMbvc,"253 EAST 61ST STREET, Upper East Side (59-79), Manhattan, NY, USA",40.7621835,-73.9638057,2,10065,OK,premise
537,ROOFTOP,"216 E 72nd St, New York, NY 10021, USA",ChIJ8-gqfupYwokRz7JFc8aYyss,"216 EAST 72ND STREET, Upper East Side (59-79), Manhattan, NY, USA",40.7692154,-73.95998519999999,2,10021,OK,premise
538,ROOFTOP,"358 E 69th St, New York, NY 10021, USA",ChIJU40dGcJYwokRVYsJ9tKZhCs,"358 EAST 69TH STREET, Upper East Side (59-79), Manhattan, NY, USA",40.765983,-73.95821099999999,2,10021,OK,street_address
539,ROOFTOP,"26 E 78th St, New York, NY 10075, USA",ChIJ_3t5SJRYwokR-LVoVSRGiKk,"26 EAST 78TH STREET, Upper East Side (59-79), Manhattan, NY, USA",40.775664,-73.96311,2,10075,OK,premise
540,ROOFTOP,"182 E 75th St, New York, NY 10021, USA",ChIJT3D4UZVYwokRdGnspVVWst8,"182 EAST 75TH STREET, Upper East Side (59-79), Manhattan, NY, USA",40.7719044,-73.9602057,2,10021,OK,premise
541,ROOFTOP,"1129 Lexington Ave, New York, NY 10075, USA",ChIJBX1wL75YwokR7CKjiB2_qMc,"1129 LEXINGTON AVENUE, Upper East Side (59-79), Manhattan, NY, USA",40.7744784,-73.9589774,2,10075,OK,premise
542,ROOFTOP,"218 E 61st St, New York, NY 10065, USA",ChIJL602AuZYwokR_xiKtjB6thg,"218 EAST 61ST STREET, Upper East Side (59-79), Manhattan, NY, USA",40.7623185,-73.96494179999999,2,10065,OK,premise
543,ROOFTOP,"237 E 61st St, New York, NY 10065, USA",ChIJp9APpOhYwokRfo8Rn99Zo7k,"237 EAST 61ST STREET, Upper East Side (59-79), Manhattan, NY, USA",40.7623934,-73.964196,2,10065,OK,premise
544,ROOFTOP,"43 E 63rd St, New York, NY 10065, USA",ChIJ4TapV-5YwokRNCRqH2LlbTg,"43 EAST 63RD STREET, Upper East Side (59-79), Manhattan, NY, USA",40.7658819,-73.96849019999999,2,10065,OK,premise
545,APPROXIMATE,"Manhattan, New York, NY, USA",ChIJYeZuBI9YwokRjMDs_IEyCwo,"43 EAST 67TH STREET, Upper East Side (59-79), Manhattan, NY, USA",40.7830603,-73.9712488,1,,OK,"political,sublocality,sublocality_level_1"
546,ROOFTOP,"34 E 70th St #36, New York, NY 10021, USA",ChIJ8XBuh-xYwokRyYRRxDa_KfA,"34-36 EAST 70TH STREET, Upper East Side (59-79), Manhattan, NY, USA",40.7700124,-73.9658774,1,10021,OK,subpremise
547,ROOFTOP,"68 E 79th St, New York, NY 10075, USA",ChIJ2dBNwZVYwokR6ARXWpPCJcE,"68 EAST 79TH STREET, Upper East Side (59-79), Manhattan, NY, USA",40.7757373,-73.96131919999999,2,10075,OK,premise
548,ROOFTOP,"1403 2nd Ave, New York, NY 10021, USA",ChIJ69uiOMBYwokRyO5SG614jn0,"1403 SECOND AVENUE, Upper East Side (59-79), Manhattan, NY, USA",40.769707,-73.95804749999999,1,10021,OK,premise
549,ROOFTOP,"240 E 75th St, New York, NY 10021, USA",ChIJddPVc8BYwokR1uDAu3O7smw,"240 EAST 75TH STREET, Upper East Side (59-79), Manhattan, NY, USA",40.7709347,-73.9575923,2,10021,OK,street_address
550,ROOFTOP,"251 E 77th St, New York, NY 10075, USA",ChIJF2MiC79YwokRWoXD-F3hc_M,"251 EAST 77TH STREET, Upper East Side (59-79), Manhattan, NY, USA",40.7723271,-73.9563951,2,10075,OK,premise
551,ROOFTOP,"348 E 62nd St, New York, NY 10065, USA",ChIJqTfg2-dYwokRadwqBd7B1fY,"348 EAST 62ND STREET, Upper East Side (59-79), Manhattan, NY, USA",40.7616258,-73.9614057,2,10065,OK,premise
552,ROOFTOP,"346 E 62nd St, New York, NY 10065, USA",ChIJ08p-2edYwokRKmAt1PStdRE,"346 EAST 62ND STREET, Upper East Side (59-79), Manhattan, NY, USA",40.76170949999999,-73.9614516,2,10065,OK,premise
553,ROOFTOP,"344 E 62nd St, New York, NY 10065, USA",ChIJWx6S2edYwokRHhbk0yRE_mU,"344 EAST 62ND STREET, Upper East Side (59-79), Manhattan, NY, USA",40.7617612,-73.9615434,2,10065,OK,premise
554,ROOFTOP,"1306 2nd Ave, New York, NY 10065, USA",ChIJpVrDBMJYwokRwrL71V01zI0,"1306 2ND AVENUE, Upper East Side (59-79), Manhattan, NY, USA",40.7665523,-73.9597089,3,10065,OK,premise
555,ROOFTOP,"318 E 77th St, New York, NY 10075, USA",ChIJL0GfaL9YwokRuGpZhjk8ef0,"318 EAST 77TH STREET, Upper East Side (59-79), Manhattan, NY, USA",40.7715514,-73.9553497,2,10075,OK,premise
556,ROOFTOP,"316 E 77th St, New York, NY 10075, USA",ChIJuQ6uaL9YwokRSNrOW5OHWY4,"316 EAST 77TH STREET, Upper East Side (59-79), Manhattan, NY, USA",40.7715724,-73.9554301,2,10075,OK,premise
557,ROOFTOP,"337 E 77th St, New York, NY 10075, USA",ChIJVw2rRb9YwokRxnM3Eb_ee9k,"337 EAST 77TH STREET, Upper East Side (59-79), Manhattan, NY, USA",40.7716115,-73.9545256,2,10075,OK,premise
558,ROOFTOP,"15 E 63rd St, New York, NY 10065, USA",ChIJjz4sOe5YwokRVxbJeAR1T1g,"15 EAST 63RD STREET, Upper East Side (59-79), Manhattan, NY, USA",40.7665098,-73.969994,2,10065,OK,premise
559,ROOFTOP,"46 E 65th St, New York, NY 10065, USA",ChIJTwxjie5YwokRkKx9gSFvztM,"46 EAST 65TH STREET, Upper East Side (59-79), Manhattan, NY, USA",40.7668555,-73.9680072,2,10065,OK,premise
560,ROOFTOP,"184E E 64th St, New York, NY 10065, USA",ChIJldYW0ehYwokRUNzC50QkIx8,"184 EAST 64TH STREET, Upper East Side (59-79), Manhattan, NY, USA",40.7644679,-73.9648789,1,10065,OK,"establishment,parking,point_of_interest"
561,ROOFTOP,"227 E 67th St, New York, NY 10065, USA",ChIJ56VJkulYwokRqgUZ09WGde0,"227 EAST 67TH STREET, Upper East Side (59-79), Manhattan, NY, USA",40.7660791,-73.9612274,2,10065,OK,premise
562,ROOFTOP,"227 E 67th St, New York, NY 10065, USA",ChIJ56VJkulYwokRqgUZ09WGde0,"227 EAST 67TH STREET, Upper East Side (59-79), Manhattan, NY, USA",40.7660791,-73.9612274,2,10065,OK,premise
563,ROOFTOP,"260 E 72nd St, New York, NY 10021, USA",ChIJtQ810sFYwokRm6Ske69oyVw,"260 EAST 72ND STREET, Upper East Side (59-79), Manhattan, NY, USA",40.7687739,-73.9587765,2,10021,OK,street_address
564,ROOFTOP,"244 E 75th St, New York, NY 10021, USA",ChIJNUIAccBYwokRnlzImIcFaHM,"244 EAST 75TH STREET, Upper East Side (59-79), Manhattan, NY, USA",40.77077,-73.957481,2,10021,OK,street_address
565,ROOFTOP,"266 E 78th St #268, New York, NY 10075, USA",ChIJZw9gDr9YwokRqt_rw2UamYg,"266-268 EAST 78TH STREET, Upper East Side (59-79), Manhattan, NY, USA",40.7726251,-73.9560245,1,10075,OK,subpremise
566,ROOFTOP,"313 E 61st St, New York, NY 10065, USA",ChIJsQfILOZYwokR_tz-xn50uMg,"313 EAST 61ST STREET, Upper East Side (59-79), Manhattan, NY, USA",40.761664,-73.9625069,2,10065,OK,premise
567,ROOFTOP,"341 E 62nd St, New York, NY 10065, USA",ChIJFbxzdehYwokRNlrUnmwmwNw,"341 EAST 62ND STREET, Upper East Side (59-79), Manhattan, NY, USA",40.7620811,-73.9613996,2,10065,OK,premise
568,ROOFTOP,"715 Madison Ave, New York, NY 10065, USA",ChIJcyIVRe5YwokRpUd_lgbi6KA,"715 MADISON AVENUE, Upper East Side (59-79), Manhattan, NY, USA",40.7662065,-73.9692134,2,10065,OK,premise
569,ROOFTOP,"799 Lexington Ave, New York, NY 10065, USA",ChIJ9cdxQO9YwokRLt3zb6FFW9M,"799 LEXINGTON AVENUE, Upper East Side (59-79), Manhattan, NY, USA",40.7638853,-73.96673369999999,2,10065,OK,premise
570,ROOFTOP,"145 E 62nd St #147, New York, NY 10065, USA",ChIJA8eEOe9YwokRN99nYUVYf6I,"145-147 E 62ND STREET, Upper East Side (59-79), Manhattan, NY, USA",40.7641105,-73.966268,1,10065,OK,subpremise
571,ROOFTOP,"833 Lexington Ave, New York, NY 10065, USA",ChIJXbvPKe9YwokRroLArCwh2LY,"833 LEXINGTON AVENUE, Upper East Side (59-79), Manhattan, NY, USA",40.7649689,-73.9658839,1,10065,OK,"bar,establishment,food,point_of_interest,restaurant"
572,ROOFTOP,"866 Lexington Ave, New York, NY 10065, USA",ChIJG-fjy-5YwokRE8cF8IlzhAo,"866 LEXINGTON AVENUE, Upper East Side (59-79), Manhattan, NY, USA",40.7659744,-73.96571589999999,1,10065,OK,premise
573,ROOFTOP,"231 E 60th St, New York, NY 10022, USA",ChIJ4-JIBeZYwokRjFIrS8gkQt8,"231 EAST 60TH STREET, Upper East Side (59-79), Manhattan, NY, USA",40.76182,-73.9646719,2,10022,OK,street_address
574,ROOFTOP,"1308 2nd Ave, New York, NY 10065, USA",ChIJMQQsAOpYwokRGXge7gV2Osk,"1308 SECOND AVENUE, Upper East Side (59-79), Manhattan, NY, USA",40.7666229,-73.95966299999999,1,10065,OK,premise
575,ROOFTOP,"1352 1st Avenue, New York, NY 10021, USA",ChIJS51rGcFYwokRvLWCVsKQccQ,"1352 FIRST AVENUE, Upper East Side (59-79), Manhattan, NY, USA",40.7679707,-73.9554388,3,10021,OK,street_address
576,ROOFTOP,"794 Lexington Ave, New York, NY 10065, USA",ChIJCbK8bO9YwokRqKOp28Xhovc,"794 LEXINGTON AVENUE, Upper East Side (59-79), Manhattan, NY, USA",40.7639118,-73.9672752,2,10065,OK,premise
577,ROOFTOP,"229 E 60th St, New York, NY 10022, USA",ChIJ2W0VBeZYwokRsBa9fFudakU,"229 EAST 60TH STREET, Upper East Side (59-79), Manhattan, NY, USA",40.761848,-73.964733,2,10022,OK,street_address
578,ROOFTOP,"51 E 80th St, New York, NY 10075, USA",ChIJ8-tVC5ZYwokRx9hgzob6A3A,"51 EAST 80TH STREET, Upper East Side (79-96), Manhattan, NY, USA",40.77696299999999,-73.960945,2,10075,OK,street_address
579,ROOFTOP,"60 E 83rd St, New York, NY 10028, USA",ChIJ-b4aKJZYwokRumpgHkPbBFI,"60 EAST 83RD STREET, Upper East Side (79-96), Manhattan, NY, USA",40.778352,-73.959535,2,10028,OK,street_address
580,ROOFTOP,"17 E 83rd St, New York, NY 10028, USA",ChIJ-ccZypdYwokR19VJWWtEUzI,"17 EAST 83RD ST, Upper East Side (79-96), Manhattan, NY, USA",40.7793589,-73.96074519999999,2,10028,OK,premise
581,ROOFTOP,"9 E 84th St, New York, NY 10028, USA",ChIJiR6Zw5dYwokRETGRExlF3v8,"9 EAST 84TH STREET, Upper East Side (79-96), Manhattan, NY, USA",40.7800767,-73.9604353,2,10028,OK,premise
582,ROOFTOP,"14 E 93rd St, New York, NY 10128, USA",ChIJ9QdM0qNYwokRdSeD8b8afSc,"14 EAST 93RD STREET, Upper East Side (79-96), Manhattan, NY, USA",40.7853985,-73.9562911,2,10128,OK,premise
583,ROOFTOP,"134 E 80th St, New York, NY 10075, USA",ChIJ-QmWHb5YwokREI35WgYEfdY,"134 EAST 80TH STREET, Upper East Side (79-96), Manhattan, NY, USA",40.775642,-73.9588855,2,10075,OK,premise
584,ROOFTOP,"134 E 92nd St, New York, NY 10128, USA",ChIJ9c5UeaRYwokRfBDmfKOjE-Q,"134 EAST 92ND STREET, Upper East Side (79-96), Manhattan, NY, USA",40.783282,-73.95326399999999,2,10128,OK,street_address
585,ROOFTOP,"128 E 92nd St, New York, NY 10128, USA",ChIJ6VkieaRYwokRO1auKss0kT4,"128 EAST 92ND STREET, Upper East Side (79-96), Manhattan, NY, USA",40.7833671,-73.9533981,2,10128,OK,premise
586,ROOFTOP,"143 E 95th St, New York, NY 10128, USA",ChIJ1RtMmaZYwokRht6QImS27Tg,"143 EAST 95TH STREET, Upper East Side (79-96), Manhattan, NY, USA",40.785436,-73.9515384,2,10128,OK,premise
587,ROOFTOP,"307 E 87th St, New York, NY 10128, USA",ChIJq4xn4rpYwokRuZy7h9Zxo4w,"307 EAST 87TH STREET, Upper East Side (79-96), Manhattan, NY, USA",40.7784556,-73.950597,2,10128,OK,premise
588,ROOFTOP,"154 East End Ave, New York, NY 10028, USA",ChIJeyjVIbFYwokRYq5qEjZgeVk,"154 EAST END AVE, Upper East Side (79-96), Manhattan, NY, USA",40.77556000000001,-73.94461299999999,2,10028,OK,street_address
589,ROOFTOP,"524 E 89th St, New York, NY 10128, USA",ChIJxVncrLFYwokRn3xMZwFeSi8,"524 EAST 89TH STREET, Upper East Side (79-96), Manhattan, NY, USA",40.7772586,-73.9447278,2,10128,OK,premise
590,ROOFTOP,"15 E 92nd St, New York, NY 10128, USA",ChIJB60lM6JYwokRpWy8wsfsTmU,"15 EAST 92ND STREET, Upper East Side (79-96), Manhattan, NY, USA",40.7851164,-73.95661249999999,2,10128,OK,premise
591,ROOFTOP,"164 E 81st St, New York, NY 10028, USA",ChIJAdTKe75YwokRSCN75fMxr6o,"164 EAST 81ST STREET, Upper East Side (79-96), Manhattan, NY, USA",40.7757345,-73.9570947,2,10028,OK,premise
592,ROOFTOP,"121 E 91st St, New York, NY 10128, USA",ChIJFdjGgaNYwokR7ux6tClUbq8,"121 EAST 91ST STREET, Upper East Side (79-96), Manhattan, NY, USA",40.7831238,-73.9538573,2,10128,OK,premise
593,ROOFTOP,"133 E 94th St, New York, NY 10128, USA",ChIJ4_bnGKRYwokRhWVZa1AF4yE,"133 EAST 94TH STREET, Upper East Side (79-96), Manhattan, NY, USA",40.7849074,-73.9522961,2,10128,OK,premise
594,ROOFTOP,"54 E 80th St, New York, NY 10075, USA",ChIJ3TC_35VYwokRIrox2C9D6sk,"54 EAST 80TH STREET, Upper East Side (79-96), Manhattan, NY, USA",40.7765693,-73.9610667,2,10075,OK,premise
595,ROOFTOP,"10 E 92nd St, New York, NY 10128, USA",ChIJP0IAN6JYwokRVMJBAOBSo1E,"10 EAST 92, Upper East Side (79-96), Manhattan, NY, USA",40.7849375,-73.9571176,2,10128,OK,premise
596,ROOFTOP,"168 E 93rd St, New York, NY 10128, USA",ChIJx2leQ6RYwokR3Gr55umnCBc,"168 EAST 93RD STREET, Upper East Side (79-96), Manhattan, NY, USA",40.783451,-73.951797,2,10128,OK,street_address
597,ROOFTOP,"1064 Madison Ave, New York, NY 10028, USA",ChIJ8aQDcJZYwokRyPVIfqjkazY,"1064 MADISON AVENUE, Upper East Side (79-96), Manhattan, NY, USA",40.777365,-73.9616659,1,10028,OK,"cafe,establishment,food,point_of_interest,restaurant"
598,ROOFTOP,"176 E 85th St, New York, NY 10028, USA",ChIJpW_OX7xYwokRZ3nhdoNbZ7M,"176 EAST 85TH STREET, Upper East Side (79-96), Manhattan, NY, USA",40.77816929999999,-73.9551397,2,10028,OK,street_address
599,ROOFTOP,"160 E 85th St, New York, NY 10028, USA",ChIJSfWiWLxYwokRC2CaI5LDpzk,"160 EAST 85TH STREET, 1B, Upper East Side (79-96), Manhattan, NY, USA",40.778329,-73.955539,3,10028,OK,street_address
600,ROOFTOP,"1583 2nd Ave, New York, NY 10028, USA",ChIJ4S8Aq75YwokRHeEdi14SP9E,"1583 2 AVENUE, Upper East Side (79-96), Manhattan, NY, USA",40.7754764,-73.9537885,2,10028,OK,premise
601,ROOFTOP,"331 E 82nd St, New York, NY 10028, USA",ChIJJSgbXblYwokRA_7tY0YP7R8,"331 EAST 82ND STREET, Upper East Side (79-96), Manhattan, NY, USA",40.7749169,-73.9522961,2,10028,OK,premise
602,ROOFTOP,"1641 1st Avenue, New York, NY 10028, USA",ChIJ-6-cSLpYwokRFrs6t078zn0,"1641 FIRST AVENUE, Upper East Side (79-96), Manhattan, NY, USA",40.776498,-73.9499197,3,10028,OK,premise
603,ROOFTOP,"306 East 86th St, New York, NY 10028, USA",ChIJWYH_pbtYwokR2tXi3Wei8xA,"306 EAST 86TH STREET, Upper East Side (79-96), Manhattan, NY, USA",40.7774512,-73.95140060000001,2,10028,OK,premise
604,ROOFTOP,"314 E 91st St, New York, NY 10128, USA",ChIJ0Ud3RaVYwokRDB0jUEHtm_s,"314 EAST 91ST STREET, Upper East Side (79-96), Manhattan, NY, USA",40.7804922,-73.9486453,2,10128,OK,premise
605,ROOFTOP,"312 E 91st St, New York, NY 10128, USA",ChIJ9d2XRaVYwokRc0SgV7mKzHY,"312 EAST 91ST STREET, Upper East Side (79-96), Manhattan, NY, USA",40.7806032,-73.9486798,2,10128,OK,premise
606,ROOFTOP,"345 E 92nd St, New York, NY 10128, USA",ChIJ5Wt0kq9YwokRZbSJ_I1gOJ8,"345 EAST 92ND STREET, Upper East Side (79-96), Manhattan, NY, USA",40.7811263,-73.9469348,2,10128,OK,premise
607,ROOFTOP,"319 E 93rd St, New York, NY 10128, USA",ChIJf-Y6gq9YwokR9qSJsp7Esv8,"319 EAST 93RD STREET, Upper East Side (79-96), Manhattan, NY, USA",40.7820272,-73.9473021,2,10128,OK,premise
608,ROOFTOP,"1520 1st Avenue, New York, NY 10075, USA",ChIJbYrt3bhYwokRm_YT_qMx7S0,"1520 FIRST AVENUE, Upper East Side (79-96), Manhattan, NY, USA",40.7725889,-73.9522209,1,10075,OK,premise
609,ROOFTOP,"1597 York Ave, New York, NY 10028, USA",ChIJoQM7ArpYwokRLs5J3dt77bE,"1597 YORK AVENUE, Upper East Side (79-96), Manhattan, NY, USA",40.7749268,-73.9481632,3,10028,OK,premise
610,ROOFTOP,"434 E 89th St, New York, NY 10128, USA",ChIJB-qgbrBYwokR4DvY94ALqEM,"434 EAST 89TH STREET, Upper East Side (79-96), Manhattan, NY, USA",40.778022,-73.9467109,2,10128,OK,street_address
611,ROOFTOP,"9 E 82nd St, New York, NY 10028, USA",ChIJC4MXSZZYwokR92j0EIVf8Oo,"9 EAST 82ND STREET, Upper East Side (79-96), Manhattan, NY, USA",40.7787604,-73.9612159,2,10028,OK,premise
612,ROOFTOP,"103 East 86th St, New York, NY 10028, USA",ChIJpceF2LxYwokREi52LKzVj7Y,"103 EAST 86TH STREET, Upper East Side (79-96), Manhattan, NY, USA",40.7801538,-73.95684050000001,2,10028,OK,street_address
613,ROOFTOP,"16O E 89th St, New York, NY 10128, USA",ChIJv46QqaRYwokRRX6TX1QQJ2w,"16O EAST 89TH STREET, Upper East Side (79-96), Manhattan, NY, USA",40.7808926,-73.95348249999999,2,10128,OK,street_address
614,ROOFTOP,"417 E 83rd St, New York, NY 10028, USA",ChIJB3L_hblYwokRCLl8jUOTpYo,"417 EAST 83RD STREET, Upper East Side (79-96), Manhattan, NY, USA",40.7747686,-73.9499656,2,10028,OK,premise
615,ROOFTOP,"1043 Madison Ave, New York, NY 10075, USA",ChIJ6yU02JVYwokRTFHbz_QOhjE,"1043 MADISON AVENUE, Upper East Side (79-96), Manhattan, NY, USA",40.77660909999999,-73.96161769999999,2,10075,OK,premise
616,ROOFTOP,"129 E 80th St, New York, NY 10075, USA",ChIJmV0wD75YwokRhw3jPuHmzGM,"129 EAST 80TH STREET, Upper East Side (79-96), Manhattan, NY, USA",40.7758884,-73.9587063,2,10075,OK,street_address
617,ROOFTOP,"315 W 70th St D, New York, NY 10023, USA",ChIJeZsodWFYwokRnXFQFAmIOMs,"1469 THIRD AVENUE, Upper East Side (79-96), Manhattan, NY, USA",40.779036,-73.98611,2,10023,OK,"establishment,health,pharmacy,point_of_interest,store"
618,ROOFTOP,"315 W 70th St D, New York, NY 10023, USA",ChIJeZsodWFYwokRnXFQFAmIOMs,"1467 THIRD AVENUE, Upper East Side (79-96), Manhattan, NY, USA",40.779036,-73.98611,2,10023,OK,"establishment,health,pharmacy,point_of_interest,store"
619,ROOFTOP,"315 W 70th St D, New York, NY 10023, USA",ChIJeZsodWFYwokRnXFQFAmIOMs,"1463 THIRD AVENUE, Upper East Side (79-96), Manhattan, NY, USA",40.779036,-73.98611,2,10023,OK,"establishment,health,pharmacy,point_of_interest,store"
620,ROOFTOP,"315 W 70th St D, New York, NY 10023, USA",ChIJeZsodWFYwokRnXFQFAmIOMs,"1461 THIRD AVENUE, Upper East Side (79-96), Manhattan, NY, USA",40.779036,-73.98611,2,10023,OK,"establishment,health,pharmacy,point_of_interest,store"
621,ROOFTOP,"1465 Third Ave, New York, NY 10028, USA",ChIJBSbgPLxYwokRHplw5Yl4JPo,"1465 THIRD AVENUE, Upper East Side (79-96), Manhattan, NY, USA",40.7765679,-73.9552923,1,10028,OK,premise
622,ROOFTOP,"1609 2nd Ave, New York, NY 10028, USA",ChIJRVjX8LtYwokR6qcoyMdXhjg,"1609 2 AVENUE, Upper East Side (79-96), Manhattan, NY, USA",40.7763126,-73.95322589999999,2,10028,OK,premise
623,ROOFTOP,"1639 1st Avenue, New York, NY 10028, USA",ChIJnz9kSLpYwokRHuwOCqO23cw,"1639 FIRST AVENUE, Upper East Side (79-96), Manhattan, NY, USA",40.7764724,-73.9500115,2,10028,OK,premise
624,ROOFTOP,"1670 1st Avenue, New York, NY 10128, USA",ChIJVZukiLpYwokR2vWp-5PPFuo,"1670 1ST AVENUE, Upper East Side (79-96), Manhattan, NY, USA",40.77760689999999,-73.9484961,3,10128,OK,premise
625,ROOFTOP,"1622 York Ave, New York, NY 10028, USA",ChIJxZjkpLBYwokRu2nZifrJBmg,"1622 YORK AVENUE, Upper East Side (79-96), Manhattan, NY, USA",40.7754991,-73.94712849999999,3,10028,OK,premise
626,ROOFTOP,"1295 Madison Ave, New York, NY 10128, USA",ChIJTakbxqNYwokR4BY1OCpMYWU,"1295 MADISON AVENUE, Upper East Side (79-96), Manhattan, NY, USA",40.78482940000001,-73.9557445,1,10128,OK,"establishment,food,point_of_interest,restaurant"
627,ROOFTOP,"24 W 71st St, New York, NY 10023, USA",ChIJh4IEZYtYwokRObQWtO9TdbQ,"24 WEST 71ST STREET, Upper West Side (59-79), Manhattan, NY, USA",40.7758564,-73.97769989999999,2,10023,OK,premise
628,ROOFTOP,"18 W 75th St, New York, NY 10023, USA",ChIJz6WtGIxYwokRmhPx2lZzP6E,"18 WEST 75TH STREET, Upper West Side (59-79), Manhattan, NY, USA",40.778458,-73.97571409999999,2,10023,OK,premise
629,ROOFTOP,"15 W 76th St, New York, NY 10024, USA",ChIJ48qukY5YwokR7iKCtQ1ylFI,"15 WEST 76TH STREET, Upper West Side (59-79), Manhattan, NY, USA",40.7794516,-73.9750006,2,10024,OK,premise
630,ROOFTOP,"117 W 78th St, New York, NY 10024, USA",ChIJe2-ILo9YwokRhkRFMvPgP2c,"117 WEST 78TH STREET, Upper West Side (59-79), Manhattan, NY, USA",40.781823,-73.976709,1,10024,OK,street_address
631,ROOFTOP,"129 W 78th St, New York, NY 10024, USA",ChIJpyRrLY9YwokRJ0ewZs1q-yY,"129 WEST 78TH STREET, Upper West Side (59-79), Manhattan, NY, USA",40.781955,-73.97702,1,10024,OK,street_address
632,ROOFTOP,"52 W 75th St, New York, NY 10023, USA",ChIJnaf6AYxYwokR8YFP0Ti7Myo,"52 WEST 75TH STREET, Upper West Side (59-79), Manhattan, NY, USA",40.778873,-73.976801,2,10023,OK,street_address
633,ROOFTOP,"304 Columbus Ave, New York, NY 10023, USA",ChIJW151WIlYwokRxkAuqOH---A,"304 COLUMBUS AVENUE, Upper West Side (59-79), Manhattan, NY, USA",40.779104,-73.9780213,2,10023,OK,premise
634,ROOFTOP,"228 W 72nd St, New York, NY 10023, USA",ChIJUXw24mFYwokRJOLOwPHe0fg,"228 WEST 72ND STREET, Upper West Side (59-79), Manhattan, NY, USA",40.778946,-73.98321899999999,1,10023,OK,"bar,establishment,food,liquor_store,point_of_interest,restaurant,store"
635,ROOFTOP,"256 W 75th St, New York, NY 10023, USA",ChIJf3gI2YlYwokRi01nhy7USHo,"256 WEST 75TH STREET, Upper West Side (59-79), Manhattan, NY, USA",40.7814489,-73.98278479999999,2,10023,OK,premise
636,ROOFTOP,"219 W 78th St, New York, NY 10024, USA",ChIJO3vMjIhYwokRFQcIyqmZBEE,"219 WEST 78TH STREET, Upper West Side (59-79), Manhattan, NY, USA",40.783021,-73.9795939,1,10024,OK,premise
637,ROOFTOP,"101 West End Ave, New York, NY 10023, USA",ChIJOblU_V1YwokRcpH4ztwzCM0,"101 WEST END AVENUE, Upper West Side (59-79), Manhattan, NY, USA",40.775031,-73.9886712,1,10023,OK,"establishment,point_of_interest,real_estate_agency"
638,ROOFTOP,"103 W 72nd St, New York, NY 10023, USA",ChIJ22tKuYtYwokRC44_3mf2F-E,"103 WEST 72ND STREET, Upper West Side (59-79), Manhattan, NY, USA",40.77774770000001,-73.97899699999999,2,10023,OK,premise
639,ROOFTOP,"40 Riverside Dr, New York, NY 10023, USA",ChIJQ33Nk2JYwokRW08IljKkiCM,"248 CENTRAL PARK WEST, Upper West Side (79-96), Manhattan, NY, USA",40.783191,-73.98413699999999,1,10023,OK,"establishment,point_of_interest"
640,ROOFTOP,"52 W 85th St, New York, NY 10024, USA",ChIJo9GWLoVYwokRZw13m_Hvf8c,"52 WEST 85TH STREET, Upper West Side (79-96), Manhattan, NY, USA",40.7851746,-73.9716735,2,10024,OK,premise
641,ROOFTOP,"45 W 84th St, New York, NY 10024, USA",ChIJRwY7O4VYwokRJdW34J9Vy34,"45 WEST 84TH STREET, Upper West Side (79-96), Manhattan, NY, USA",40.7849829,-73.9722245,2,10024,OK,premise
642,ROOFTOP,"272 W 91st St, New York, NY 10024, USA",ChIJndZKRIJYwokRqnEhFBxFfDI,"272 WEST 91ST STREET, Upper West Side (79-96), Manhattan, NY, USA",40.7917974,-73.97518769999999,2,10024,OK,street_address
643,ROOFTOP,"313 W 80th St, New York, NY 10024, USA",ChIJaftHx4dYwokR_yJ4_eeInBQ,"313 WEST 80TH STREET, Upper West Side (79-96), Manhattan, NY, USA",40.7854672,-73.9812008,1,10024,OK,premise
644,ROOFTOP,"131 W 94th St, New York, NY 10025, USA",ChIJEzJUZp1YwokRujSVMuqNS4c,"131 WEST 94TH STREET, Upper West Side (79-96), Manhattan, NY, USA",40.7922252,-73.9695843,2,10025,OK,premise
645,ROOFTOP,"37 W 88th St, New York, NY 10024, USA",ChIJ5SAbZ5tYwokR32HKCWC0rc0,"37 WEST 88TH STREET, Upper West Side (79-96), Manhattan, NY, USA",40.78736079999999,-73.96961879999999,2,10024,OK,premise
646,ROOFTOP,"44 W 91st St, New York, NY 10024, USA",ChIJiQUg9ZxYwokRAY874ctsFD4,"44 WEST 91ST STREET, Upper West Side (79-96), Manhattan, NY, USA",40.788906,-73.96848229999999,2,10024,OK,premise
647,ROOFTOP,"67 W 87th St, New York, NY 10024, USA",ChIJIw3csoRYwokRx_16x-ojGn8,"67 WEST 87TH STREET, 42, Upper West Side (79-96), Manhattan, NY, USA",40.7872754,-73.97129869999999,3,10024,OK,street_address
648,ROOFTOP,"57 W 88th St, New York, NY 10024, USA",ChIJ-xRtWZtYwokR87IXTPoUOIk,"57 WEST 88TH STREET, Upper West Side (79-96), Manhattan, NY, USA",40.787645,-73.9702616,2,10024,OK,premise
649,ROOFTOP,"60 W 89th St, New York, NY 10024, USA",ChIJk_q8oJxYwokRT9KKqRU9WRE,"60 WEST 89TH STREET, Upper West Side (79-96), Manhattan, NY, USA",40.787876,-73.970069,2,10024,OK,street_address
650,ROOFTOP,"31 W 89th St, New York, NY 10024, USA",ChIJ84EZg5xYwokRs1mRlgfV1qo,"31 WEST 89TH STREET, Upper West Side (79-96), Manhattan, NY, USA",40.7878528,-73.9689415,2,10024,OK,premise
651,ROOFTOP,"22 W 90th St, New York, NY 10024, USA",ChIJK7XDhZxYwokREKV3QaJF8eg,"22 WEST 90TH STREET, Upper West Side (79-96), Manhattan, NY, USA",40.7881705,-73.9687349,2,10024,OK,premise
652,ROOFTOP,"49 W 94th St, New York, NY 10025, USA",ChIJPamelZ1YwokRT7GFQu86L5o,"49 WEST 94TH STREET, Upper West Side (79-96), Manhattan, NY, USA",40.7911688,-73.967036,2,10025,OK,premise
653,ROOFTOP,"165 W 80th St, New York, NY 10024, USA",ChIJqVYcVY9YwokRyyk8ubCBRRs,"165 WEST 80TH STREET, Upper West Side (79-96), Manhattan, NY, USA",40.783734,-73.977001,1,10024,OK,street_address
654,ROOFTOP,"115 W 82nd St, New York, NY 10024, USA",ChIJO9wLmoVYwokRQwoG7IKgsxQ,"115 WEST 82ND STREET, Upper West Side (79-96), Manhattan, NY, USA",40.7844388,-73.9749106,2,10024,OK,premise
655,ROOFTOP,"123 W 82nd St, New York, NY 10024, USA",ChIJMVffloVYwokRMxG8ghZSuSM,"123 WEST 82ND STREET, Upper West Side (79-96), Manhattan, NY, USA",40.784594,-73.975107,2,10024,OK,street_address
656,ROOFTOP,"155 W 83rd St, New York, NY 10024, USA",ChIJR8sRuoVYwokR4ISvp-SgfO8,"155 WEST 83RD STREET, Upper West Side (79-96), Manhattan, NY, USA",40.7854567,-73.97522049999999,2,10024,OK,premise
657,ROOFTOP,"205 W 85th St, New York, NY 10024, USA",ChIJSXYePoRYwokRb8cWmEUPfkA,"205 WEST 85TH STREET, Upper West Side (79-96), Manhattan, NY, USA",40.7874125,-73.9759551,2,10024,OK,premise
658,ROOFTOP,"210 W 88th St, New York, NY 10024, USA",ChIJW9khkINYwokRl6XGWx6cLPc,"210 WEST 88TH STREET, Upper West Side (79-96), Manhattan, NY, USA",40.7891335,-73.9750368,2,10024,OK,premise
659,ROOFTOP,"588 Amsterdam Ave, New York, NY 10024, USA",ChIJiQ-ZdYNYwokRZ0yoLAakg90,"588 AMSTERDAM AVENUE, Upper West Side (79-96), Manhattan, NY, USA",40.789457,-73.97411,2,10024,OK,street_address
660,ROOFTOP,"590 Amsterdam Ave, New York, NY 10024, USA",ChIJZecRdYNYwokR8C2RATQ1RYk,"590 AMSTERDAM AVENUE, Upper West Side (79-96), Manhattan, NY, USA",40.789518,-73.97406699999999,2,10024,OK,street_address
661,ROOFTOP,"592 Amsterdam Ave, New York, NY 10024, USA",ChIJZWQmdYNYwokRcSmjYswsSXM,"592 AMSTERDAM AVENUE, Upper West Side (79-96), Manhattan, NY, USA",40.789579,-73.974023,2,10024,OK,street_address
662,ROOFTOP,"594 Amsterdam Ave, New York, NY 10024, USA",ChIJVa8uC4NYwokRhb82wGdbcCI,"594 AMSTERDAM AVENUE, Upper West Side (79-96), Manhattan, NY, USA",40.78964000000001,-73.973978,2,10024,OK,street_address
663,ROOFTOP,"2461 Broadway, New York, NY 10025, USA",ChIJHYaMWIJYwokRUEumY7Jyhf4,"2461 BROADWAY, Upper West Side (79-96), Manhattan, NY, USA",40.7916947,-73.97431399999999,3,10025,OK,street_address
664,ROOFTOP,"310 W 81st St, New York, NY 10024, USA",ChIJaftHx4dYwokRkztQGxpyQT8,"310 WEST 81ST STREET, Upper West Side (79-96), Manhattan, NY, USA",40.7857624,-73.9809713,2,10024,OK,premise
665,ROOFTOP,"310 W 82nd St, New York, NY 10024, USA",ChIJ8yYprIdYwokRDngK6E-rvRY,"310 WEST 82ND STREET, Upper West Side (79-96), Manhattan, NY, USA",40.7863978,-73.98042029999999,2,10024,OK,premise
666,ROOFTOP,"332 W 83rd St, New York, NY 10024, USA",ChIJGXvtD4dYwokRCydS_uS7JzM,"332 WEST 83RD STREET, Upper West Side (79-96), Manhattan, NY, USA",40.7874399,-73.980847,2,10024,OK,street_address
667,ROOFTOP,"175 W 87th St, New York, NY 10024, USA",ChIJscstgIRYwokRJESvy8ebUX8,"175 WEST 87TH STREET, Upper West Side (79-96), Manhattan, NY, USA",40.7883213,-73.97404379999999,1,10024,OK,"establishment,point_of_interest"
668,RANGE_INTERPOLATED,"221 W 85th St, New York, NY 10024, USA",EiYyMjEgVyA4NXRoIFN0LCBOZXcgWW9yaywgTlkgMTAwMjQsIFVTQSIbEhkKFAoSCdmJJj2EWMKJEanD7YQkswhcEN0B,"221 WEST 85TH STREET, 11F, Upper West Side (79-96), Manhattan, NY, USA",40.78763,-73.9764756,3,10024,OK,street_address
669,ROOFTOP,"213 W 85th St, New York, NY 10024, USA",ChIJ6QC_F4RYwokRRCL6FCQeXAg,"213 WEST 85TH ST, Upper West Side (79-96), Manhattan, NY, USA",40.7875739,-73.9762765,2,10024,OK,premise
670,ROOFTOP,"269 W 87th St, New York, NY 10024, USA",ChIJMfFu-4NYwokRV3uDPRtR--Q,"269 WEST 87 STREET, 12A, Upper West Side (79-96), Manhattan, NY, USA",40.7893111,-73.9767066,3,10024,OK,street_address
671,ROOFTOP,"269 W 87th St, New York, NY 10024, USA",ChIJMfFu-4NYwokRV3uDPRtR--Q,"269 WEST 87 STREET, 6C, Upper West Side (79-96), Manhattan, NY, USA",40.7893111,-73.9767066,3,10024,OK,street_address
672,ROOFTOP,"269 W 87th St, New York, NY 10024, USA",ChIJMfFu-4NYwokRV3uDPRtR--Q,"269 WEST 87 STREET, 3A, Upper West Side (79-96), Manhattan, NY, USA",40.7893111,-73.9767066,3,10024,OK,street_address
673,ROOFTOP,"269 W 87th St, New York, NY 10024, USA",ChIJMfFu-4NYwokRV3uDPRtR--Q,"269 WEST 87 STREET, 3B, Upper West Side (79-96), Manhattan, NY, USA",40.7893111,-73.9767066,3,10024,OK,street_address
674,ROOFTOP,"269 W 87th St, New York, NY 10024, USA",ChIJMfFu-4NYwokRV3uDPRtR--Q,"269 WEST 87 STREET, 8C, Upper West Side (79-96), Manhattan, NY, USA",40.7893111,-73.9767066,3,10024,OK,street_address
675,ROOFTOP,"269 W 87th St, New York, NY 10024, USA",ChIJMfFu-4NYwokRV3uDPRtR--Q,"269 WEST 87 STREET, 7C, Upper West Side (79-96), Manhattan, NY, USA",40.7893111,-73.9767066,3,10024,OK,street_address
676,ROOFTOP,"269 W 87th St, New York, NY 10024, USA",ChIJMfFu-4NYwokRV3uDPRtR--Q,"269 WEST 87 STREET, 9C, Upper West Side (79-96), Manhattan, NY, USA",40.7893111,-73.9767066,3,10024,OK,street_address
677,ROOFTOP,"269 W 87th St, New York, NY 10024, USA",ChIJMfFu-4NYwokRV3uDPRtR--Q,"269 WEST 87 STREET, 4C, Upper West Side (79-96), Manhattan, NY, USA",40.7893111,-73.9767066,3,10024,OK,street_address
678,ROOFTOP,"269 W 87th St, New York, NY 10024, USA",ChIJMfFu-4NYwokRV3uDPRtR--Q,"269 WEST 87 STREET, 2C, Upper West Side (79-96), Manhattan, NY, USA",40.7893111,-73.9767066,2,10024,OK,street_address
679,ROOFTOP,"574 Amsterdam Ave, New York, NY 10024, USA",ChIJMS8_g4NYwokRP00b06jqY7k,"574 AMSTERDAM AVENUE, Upper West Side (79-96), Manhattan, NY, USA",40.78895079999999,-73.97431879999999,2,10024,OK,street_address
680,ROOFTOP,"2463 Broadway, New York, NY 10025, USA",ChIJzY5zXoJYwokR5D3Hst7QGFI,"2463 BROADWAY, Upper West Side (79-96), Manhattan, NY, USA",40.7918191,-73.974394,3,10025,OK,premise
681,ROOFTOP,"321 W 104th St, New York, NY 10025, USA",ChIJEfPAbyX2wokRFhe73AqtIkk,"321 WEST 104, Upper West Side (96-116), Manhattan, NY, USA",40.80093129999999,-73.97039939999999,2,10025,OK,premise
682,ROOFTOP,"352 Riverside Dr, New York, NY 10025, USA",ChIJPzL0zzr2wokRY5kUAleo7Lk,"352 RIVERSIDE DRIVE, Upper West Side (96-116), Manhattan, NY, USA",40.8031099,-73.969117,2,10025,OK,street_address
683,ROOFTOP,"107 W 105th St, New York, NY 10025, USA",ChIJ-yv0oSP2wokRBIIELgWoBCY,"107 WEST 105 STREET, Upper West Side (96-116), Manhattan, NY, USA",40.7989247,-73.9638791,2,10025,OK,premise
684,ROOFTOP,"166 W 107th St, New York, NY 10025, USA",ChIJxzGtQiP2wokRs8CYT_aQGA0,"166 WEST 107 STREET, Upper West Side (96-116), Manhattan, NY, USA",40.8006007,-73.96468270000001,2,10025,OK,premise
685,ROOFTOP,"981 Amsterdam Ave, New York, NY 10025, USA",ChIJyXztTCP2wokRvtRSfiBre7g,"981 AMSTERDAM AVENUE, Upper West Side (96-116), Manhattan, NY, USA",40.8017139,-73.96437,2,10025,OK,street_address
686,ROOFTOP,"788 West End Ave, New York, NY 10025, USA",ChIJjXxLmCj2wokRzj_Ii6IDGH8,"788 WEST END AVENUE, Upper West Side (96-116), Manhattan, NY, USA",40.7966715,-73.9718342,2,10025,OK,premise
687,ROOFTOP,"932 Amsterdam Ave, New York, NY 10025, USA",ChIJ-XNpkCT2wokRefMxEDx4v-Q,"932 AMSTERDAM AVENUE, Upper West Side (96-116), Manhattan, NY, USA",40.80043999999999,-73.9661291,2,10025,OK,street_address
688,ROOFTOP,"934 Amsterdam Ave, New York, NY 10025, USA",ChIJmQ-GkCT2wokRuTbYD9KZwZQ,"934 AMSTERDAM AVENUE, Upper West Side (96-116), Manhattan, NY, USA",40.80043999999999,-73.9661291,2,10025,OK,premise
689,ROOFTOP,"314 W 101st St, New York, NY 10025, USA",ChIJA4dVVy_2wokRdGWtLGazY0o,"314 WEST 101 STREET, Upper West Side (96-116), Manhattan, NY, USA",40.7985478,-73.9716047,2,10025,OK,premise
690,ROOFTOP,"320 W 101st St, New York, NY 10025, USA",ChIJn2djWi_2wokR9405Eblof00,"320 WEST 101 STREET, Upper West Side (96-116), Manhattan, NY, USA",40.7986092,-73.97176540000001,2,10025,OK,premise
691,ROOFTOP,"321 W 105th St, New York, NY 10025, USA",ChIJdV0EQSX2wokR4PlU2ak5lAU,"321 WEST 105 STREET, Upper West Side (96-116), Manhattan, NY, USA",40.8015779,-73.9699976,2,10025,OK,premise
692,ROOFTOP,"317 W 108th St, New York, NY 10025, USA",ChIJY0MTITv2wokRWDabbec9vE4,"317 WEST 108TH STREET, Upper West Side (96-116), Manhattan, NY, USA",40.8033726,-73.9680491,2,10025,OK,street_address
693,ROOFTOP,"107 W 109th St, New York, NY 10025, USA",ChIJI2B0Kz32wokR-3fusG0l1Ms,"107 WEST 109 STREET, Upper West Side (96-116), Manhattan, NY, USA",40.8016909,-73.96218019999999,2,10025,OK,premise
694,ROOFTOP,"1 Morningside Dr, New York, NY 10025, USA",ChIJRcjxOT32wokR9QI_21QACNs,"1 MORNINGSIDE DRIVE, Upper West Side (96-116), Manhattan, NY, USA",40.8024385,-73.9615998,1,10025,OK,"establishment,point_of_interest,real_estate_agency"
695,ROOFTOP,"838 West End Ave, New York, NY 10025, USA",ChIJZ3-Y-yX2wokRKkKFCEUs5Tk,"838 WEST END AVENUE, Upper West Side (96-116), Manhattan, NY, USA",40.7981828,-73.97073329999999,1,10025,OK,"establishment,point_of_interest"
696,ROOFTOP,"992 Amsterdam Ave, New York, NY 10025, USA",ChIJ2zEbuzz2wokRTNeIjzlujUs,"992 AMSTERDAM AVE, Upper West Side (96-116), Manhattan, NY, USA",40.8025791,-73.9644394,1,10025,OK,"bar,establishment,point_of_interest"
697,ROOFTOP,"149 W 108th St, New York, NY 10025, USA",ChIJ18d5NSP2wokRP6AFt77GUoA,"149 WEST 108 STREET, Upper West Side (96-116), Manhattan, NY, USA",40.8015368,-73.9636725,2,10025,OK,premise
698,ROOFTOP,"65 Jumel Terrace, New York, NY 10032, USA",ChIJqTIQToL2wokRKbmUA423_YY,"10 JUMEL TERRACE, Washington Heights Lower, Manhattan, NY, USA",40.8344548,-73.9385727,1,10032,OK,"establishment,museum,point_of_interest"
699,ROOFTOP,"565 W 169th St, New York, NY 10032, USA",ChIJU5NBNJz2wokRTMTvKLvWlnM,"565 WEST 170 STREET, Washington Heights Lower, Manhattan, NY, USA",40.8418725,-73.93887529999999,1,10032,OK,"establishment,point_of_interest"
700,ROOFTOP,"427 W 162nd St, New York, NY 10032, USA",ChIJD4_6-YL2wokRLO2flTeWoBc,"427 WEST 162ND STREET, Washington Heights Lower, Manhattan, NY, USA",40.835392,-73.93822899999999,2,10032,OK,street_address
701,ROOFTOP,"443 W 162nd St, New York, NY 10032, USA",ChIJ91ZO_IL2wokRCrQ0Rtqaoi8,"443 WEST 162ND STREET, Washington Heights Lower, Manhattan, NY, USA",40.835597,-73.938705,2,10032,OK,street_address
702,ROOFTOP,"502 W 168th St, New York, NY 10032, USA",ChIJ3_EKoJ32wokRJ35EZ3yw3Kg,"502 WEST 168TH STREET, Washington Heights Lower, Manhattan, NY, USA",40.83992629999999,-73.9375211,2,10032,OK,premise
703,ROOFTOP,"109 Audubon Ave, New York, NY 10032, USA",ChIJM3oW4532wokRLVvHlOUtc4E,"109 AUDUBON AVENUE, Washington Heights Lower, Manhattan, NY, USA",40.84210520000001,-73.9368199,1,10032,OK,"establishment,health,point_of_interest"
704,ROOFTOP,"630 W 158th St, New York, NY 10032, USA",ChIJ_1ebkYX2wokRXAgDIcbct4Q,"630 WEST 158 STREET, Washington Heights Lower, Manhattan, NY, USA",40.835457,-73.946843,2,10032,OK,street_address
705,ROOFTOP,"562 W 161st St, New York, NY 10032, USA",ChIJx3BjgYT2wokRTAv7qFLfxUA,"562 WEST 161ST STREET, Washington Heights Lower, Manhattan, NY, USA",40.8359339,-73.94209000000001,2,10032,OK,premise
706,ROOFTOP,"476 W 165th St, New York, NY 10032, USA",ChIJG02OzIL2wokRZn2ZpkYDzeY,"476 WEST 165 STREET, Washington Heights Lower, Manhattan, NY, USA",40.837408,-73.937877,2,10032,OK,street_address
707,ROOFTOP,"2119 Amsterdam Ave, New York, NY 10032, USA",ChIJbXtvMZ32wokRX2uvSdBMn68,"2119 AMSTERDAM AVENUE, Washington Heights Lower, Manhattan, NY, USA",40.83791799999999,-73.93804349999999,1,10032,OK,"establishment,food,point_of_interest,store"
708,ROOFTOP,"2153 Amsterdam Ave # B, New York, NY 10032, USA",ChIJbQ33ap32wokR6TRp5ZBCqec,"2153 AMSTERDAM AVENUE, Washington Heights Lower, Manhattan, NY, USA",40.8388268,-73.9374622,1,10032,OK,"bakery,establishment,food,point_of_interest,store"
709,ROOFTOP,"500 W 157th St, New York, NY 10032, USA",ChIJmbgnr4b2wokRtjUZ5lFWBw0,"500 WEST 157TH ST, 3W, Washington Heights Lower, Manhattan, NY, USA",40.8329014,-73.9424094,2,10032,OK,street_address
710,ROOFTOP,"524 W 162nd St, New York, NY 10032, USA",ChIJ1zBYb4P2wokRo4mQiEovwWo,"524 WEST 162 STREET, Washington Heights Lower, Manhattan, NY, USA",40.83636509999999,-73.9411945,2,10032,OK,premise
711,ROOFTOP,"520 W 162nd St, New York, NY 10032, USA",ChIJi-RvZYP2wokRgxpx3V9L-ME,"520 WEST 162 STREET, Washington Heights Lower, Manhattan, NY, USA",40.836307,-73.94105669999999,2,10032,OK,premise
712,ROOFTOP,"503 W 164th St, New York, NY 10032, USA",ChIJe45nK4P2wokRHPjtpNh_aU4,"503 WEST 164 STREET, Washington Heights Lower, Manhattan, NY, USA",40.8376469,-73.93925,2,10032,OK,street_address
713,ROOFTOP,"502 W 167th St, New York, NY 10032, USA",ChIJa0DUEZ32wokR8CKLwR84Rr0,"502 WEST 167TH STREET, Washington Heights Lower, Manhattan, NY, USA",40.8392788,-73.93799419999999,2,10032,OK,premise
714,ROOFTOP,"2172 Amsterdam Ave, New York, NY 10032, USA",ChIJu2HOdJ32wokR0SIiyJmA_BQ,"2172 AMSTERDAM AVENUE, Washington Heights Lower, Manhattan, NY, USA",40.8396425,-73.9373002,2,10032,OK,street_address
715,ROOFTOP,"503 W 169th St, New York, NY 10032, USA",ChIJQ7IujJ32wokROYNvQ0_pKyo,"503 W 169 STREET, Washington Heights Lower, Manhattan, NY, USA",40.840746,-73.93650699999999,2,10032,OK,street_address
716,ROOFTOP,"470 W 166th St, New York, NY 10032, USA",ChIJV6VjR532wokRLnxLvZs3eNM,"470 WEST 166TH STREET, Washington Heights Lower, Manhattan, NY, USA",40.8382888,-73.9374373,1,10032,OK,"establishment,point_of_interest"
717,ROOFTOP,"3810 Broadway, New York, NY 10032, USA",ChIJXcBRQYT2wokRRn7d8zbQgho,"3810 BROADWAY, 4D, Washington Heights Lower, Manhattan, NY, USA",40.8349812,-73.9439045,2,10032,OK,street_address
718,ROOFTOP,"3810 Broadway, New York, NY 10032, USA",ChIJXcBRQYT2wokRRn7d8zbQgho,"3810 BROADWAY, 5A, Washington Heights Lower, Manhattan, NY, USA",40.8349812,-73.9439045,2,10032,OK,street_address
719,ROOFTOP,"565 W 162nd St, New York, NY 10032, USA",ChIJTUa6oYT2wokRiVBENXX4ykY,"3880 BROADWAY, Washington Heights Lower, Manhattan, NY, USA",40.8370501,-73.9420062,2,10032,OK,"establishment,general_contractor,point_of_interest"
720,ROOFTOP,"638 W 160th St #6D, New York, NY 10032, USA",ChIJd9yPT7lZwokRE-XkA1UNjvw,"638 WEST 160 STREET, Washington Heights Lower, Manhattan, NY, USA",40.8366621,-73.9455801,1,10032,OK,"establishment,point_of_interest"
721,ROOFTOP,"655 W 160th St, New York, NY 10032, USA",ChIJZ034GYX2wokRMhtYiGuqPlc,"655 WEST 160 STREET, Washington Heights Lower, Manhattan, NY, USA",40.837051,-73.9457408,2,10032,OK,premise
722,ROOFTOP,"80 Fort Washington Ave, New York, NY 10032, USA",ChIJFVYRyYT2wokRGBkejOtteOc,"80 FT WASHINGTON AVENUE, Washington Heights Lower, Manhattan, NY, USA",40.8378612,-73.9435824,1,10032,OK,premise
723,ROOFTOP,"86 Fort Washington Ave, New York, NY 10032, USA",ChIJq7g7yoT2wokRaHYFEBHPRf4,"86 FT WASHINGTON AVENUE, Washington Heights Lower, Manhattan, NY, USA",40.8380018,-73.9435058,1,10032,OK,street_address
724,ROOFTOP,"611 W 177th St, New York, NY 10033, USA",ChIJAczf7J_2wokR7XlDgYum3hg,"611 WEST 177 STREET, Washington Heights Lower, Manhattan, NY, USA",40.8464717,-73.9372562,2,10033,OK,"establishment,point_of_interest"
725,ROOFTOP,"1341 St Nicholas Ave, New York, NY 10033, USA",ChIJMcHMASD0wokRiH14Gw4vyy4,"1341 ST NICHOLAS AVENUE, Washington Heights Lower, Manhattan, NY, USA",40.84689110000001,-73.9357155,1,10033,OK,"establishment,health,pharmacy,point_of_interest,store"
726,ROOFTOP,"1986 Amsterdam Ave, New York, NY 10032, USA",ChIJeZBW9oP2wokRoAgFaVNdIuU,"1986 AMSTERDAM AVE, Washington Heights Lower, Manhattan, NY, USA",40.8339323,-73.94169959999999,1,10032,OK,premise
727,ROOFTOP,"398 Audubon Ave, New York, NY 10033, USA",ChIJx0Iiph70wokRmleB71vL1io,"398 AUDUBON AVENUE, Washington Heights Upper, Manhattan, NY, USA",40.8510867,-73.9308716,1,10033,OK,premise
728,ROOFTOP,"286 Wadsworth Ave, New York, NY 10040, USA",ChIJkRng9xz0wokRYzYiHzNqhoA,"286 WADSWORTH AVENUE, Washington Heights Upper, Manhattan, NY, USA",40.853963,-73.9322318,1,10040,OK,premise
729,ROOFTOP,"605 W 187th St, New York, NY 10033, USA",ChIJgWQmZxz0wokRnimREnBxUo8,"605 WEST 187TH STREET, Washington Heights Upper, Manhattan, NY, USA",40.8535139,-73.931409,1,10033,OK,street_address
730,ROOFTOP,"16 Chittenden Ave, New York, NY 10033, USA",ChIJM4ld-Kb2wokRka9Yq8xng90,"16 CHITTENDEN AVENUE, Washington Heights Upper, Manhattan, NY, USA",40.854944,-73.939503,1,10033,OK,street_address
731,ROOFTOP,"287 Audubon Ave, New York, NY 10033, USA",ChIJ66ZjdB_0wokRkr-Rs94UR4k,"287 AUDUBON AVENUE, Washington Heights Upper, Manhattan, NY, USA",40.847727,-73.932734,1,10033,OK,street_address
732,ROOFTOP,"564 W 182nd St, New York, NY 10033, USA",ChIJ6SKL-x70wokRHP1jv1hFZH4,"564 WEST 182 STREET, Washington Heights Upper, Manhattan, NY, USA",40.8494216,-73.9325722,1,10033,OK,premise
733,ROOFTOP,"558 W 183rd St, New York, NY 10033, USA",ChIJZzod7B70wokRTb7gnE3pWHk,"558 WEST 183 STREET, Washington Heights Upper, Manhattan, NY, USA",40.8499562,-73.9319981,1,10033,OK,premise
734,ROOFTOP,"421 Audubon Ave, New York, NY 10033, USA",ChIJZ8Wf8Bv0wokRBKfUzrpwH9I,"421 AUDUBON AVENUE, Washington Heights Upper, Manhattan, NY, USA",40.8518183,-73.9299212,1,10033,OK,street_address
735,ROOFTOP,"540 W 189th St, New York, NY 10040, USA",ChIJB-6aChv0wokRZKqojwc__Wg,"540 WEST 189TH, Washington Heights Upper, Manhattan, NY, USA",40.8535559,-73.9285886,1,10040,OK,premise
736,ROOFTOP,"131 Nagle Ave, New York, NY 10040, USA",ChIJWSskeAb0wokRbCNrnk96ELo,"131 NAGLE AVENUE, Washington Heights Upper, Manhattan, NY, USA",40.860664,-73.92645399999999,1,10040,OK,street_address
737,ROOFTOP,"9 Sherman Ave, New York, NY 10040, USA",ChIJC6tfwAb0wokR2KfRlyvBIq4,"9 SHERMAN AVENUE, Washington Heights Upper, Manhattan, NY, USA",40.8623735,-73.9288912,1,10040,OK,street_address
738,ROOFTOP,"21 Arden St, New York, NY 10040, USA",ChIJB7gAZwb0wokRK4qlIS1RNjo,"21 ARDEN STREET, Washington Heights Upper, Manhattan, NY, USA",40.861677,-73.92661900000002,1,10040,OK,street_address
739,ROOFTOP,"815 W 180th St, New York, NY 10033, USA",ChIJtVjmCKH2wokRnawi5ARaHrk,"815 WEST 180 STREET, Washington Heights Upper, Manhattan, NY, USA",40.8504154,-73.9398856,1,10033,OK,premise
740,ROOFTOP,"344 Cabrini Blvd, New York, NY 10040, USA",ChIJ11knw6f2wokRgwqEVfHDr1g,"344 CABRINI BOULEVARD, Washington Heights Upper, Manhattan, NY, USA",40.8565441,-73.93761239999999,1,10040,OK,premise
741,ROOFTOP,"1469 St Nicholas Ave, New York, NY 10033, USA",ChIJs2hxiB70wokRqUsjZR38QiU,"1469 ST NICHOLAS AVENUE, Washington Heights Upper, Manhattan, NY, USA",40.8509394,-73.9328475,1,10033,OK,street_address
742,ROOFTOP,"452 Fort Washington Ave, New York, NY 10033, USA",ChIJnY3a-aD2wokRoLkyIwsJDyA,"452 FT WASHINGTON AVENUE, Washington Heights Upper, Manhattan, NY, USA",40.8501668,-73.9381405,1,10033,OK,premise
743,ROOFTOP,"725 W 184th St, New York, NY 10033, USA",ChIJnUuLV6f2wokRHobG8stL8AY,"725 WEST 184 STREET, Washington Heights Upper, Manhattan, NY, USA",40.8526365,-73.9361979,1,10033,OK,premise
744,ROOFTOP,"110 Bennett Ave, New York, NY 10033, USA",ChIJr_jwjx30wokRZznvJgnC25o,"110 BENNETT AVE, Washington Heights Upper, Manhattan, NY, USA",40.8537356,-73.9353392,1,10033,OK,premise
